{"features":[{"geometry":{"coordinates":[[-3.4492137,53.3323761],[-3.4473499,53.327927],[-3.446756,53.3273085],[-3.4425453,53.3251741],[-3.4399788,53.3209641],[-3.439265,53.3200278],[-3.4392778,53.3195744],[-3.4396603,53.3187198],[-3.4405928,53.316585],[-3.4407353,53.3156413],[-3.4410011,53.3147196],[-3.4419105,53.3124634],[-3.4425876,53.3108141],[-3.4433267,53.3070594],[-3.445776,53.3020365],[-3.4469884,53.2996281],[-3.44765,53.2986007],[-3.4483794,53.2977759],[-3.4485087,53.2956403],[-3.4471784,53.293832],[-3.4444747,53.2911963],[-3.4429591,53.2902129],[-3.4432541,53.2893221],[-3.4450492,53.2878631],[-3.4483949,53.2863011],[-3.4499459,53.2856257],[-3.4512985,53.284791],[-3.4531866,53.2838131],[-3.453934,53.2835195],[-3.4563975,53.2822538],[-3.4574505,53.2817204],[-3.4591321,53.2810875],[-3.4660363,53.2789157],[-3.466065,53.2781495],[-3.4646444,53.2760521],[-3.4642591,53.2742548],[-3.464188,53.2720264],[-3.4638494,53.270756],[-3.4647001,53.2682252],[-3.4656297,53.2627021],[-3.4643178,53.2604098],[-3.4642502,53.2602333],[-3.4646387,53.2595187],[-3.4652794,53.2579775],[-3.4660557,53.254807],[-3.4669357,53.2534454],[-3.4671691,53.2528652],[-3.4671267,53.2526484],[-3.4670489,53.2525228],[-3.4666147,53.2521709],[-3.4665385,53.2519739],[-3.4668684,53.2508931],[-3.4673464,53.2499751],[-3.4685594,53.2489963]],"type":"LineString"},"id":"grid_220kv:0","properties":{"name":"Burbo Bank Windfarm Underground Cable > Burbo Bank Offshore Wind Farm Substation","source":"Route visible on digging scars, ESRI imagery, 2019-03","voltage":"220000"},"type":"Feature"},{"geometry":{"coordinates":[[-0.2481297,53.6157331],[-0.2455297,53.6126271],[-0.244565,53.61157],[-0.2449216,53.6104437],[-0.2452879,53.6086007],[-0.2459234,53.6058892],[-0.2466757,53.6042573],[-0.2463611,53.6037719],[-0.2434327,53.6016354],[-0.2336633,53.5996553],[-0.2331054,53.5995598],[-0.2289705,53.5986914],[-0.2294211,53.5977325],[-0.2292456,53.5972708],[-0.2283933,53.5968246],[-0.2247498,53.5952977],[-0.2234709,53.5918298],[-0.2182836,53.5882127],[-0.2185008,53.5879198],[-0.2183211,53.5872319],[-0.2178785,53.5869103],[-0.2158159,53.5860601],[-0.2154779,53.5855538],[-0.213182,53.5819393],[-0.20778,53.5771142],[-0.2074206,53.576853],[-0.2033544,53.5738111],[-0.2032793,53.5735372],[-0.2010369,53.5712628],[-0.200361,53.5707722],[-0.1985049,53.569842],[-0.1961553,53.5675356],[-0.1958227,53.5672998],[-0.1934946,53.5652736],[-0.1915956,53.5646173],[-0.1886451,53.5633556],[-0.188098,53.5631772],[-0.1878083,53.5631198],[-0.185169,53.563209],[-0.1846218,53.5631836],[-0.1837635,53.5623743],[-0.1815534,53.5610233],[-0.1772833,53.5592007],[-0.1734531,53.5566897],[-0.1729918,53.5564922],[-0.1665205,53.5527489],[-0.1637272,53.5512333],[-0.162653,53.5506205],[-0.1606858,53.5491846],[-0.1589638,53.54783],[-0.1583469,53.5474858],[-0.1577407,53.5471798],[-0.1545274,53.5439924],[-0.1536155,53.543272],[-0.1530254,53.5428002],[-0.1525158,53.5425356],[-0.1488705,53.5405461],[-0.1463849,53.5385991],[-0.1425818,53.535659],[-0.143131,53.533584],[-0.1428388,53.5282018],[-0.1429374,53.5272974],[-0.1424358,53.5268218],[-0.1414364,53.5266989],[-0.136333,53.5263634],[-0.1311299,53.5260175],[-0.1232851,53.5251816],[-0.1228559,53.5250923],[-0.1225233,53.522439],[-0.1220083,53.5200151],[-0.1215363,53.5197217],[-0.1224804,53.5184714],[-0.1232529,53.5177251],[-0.1234675,53.5175401],[-0.1234245,53.5172722],[-0.1222336,53.512915],[-0.1221156,53.5124556],[-0.1215577,53.5119516],[-0.1180816,53.5093485],[-0.1180172,53.5090678],[-0.1180172,53.5088253],[-0.1194763,53.5081107],[-0.1212573,53.5071153],[-0.1212144,53.5068729],[-0.1176739,53.5025082],[-0.1171589,53.502087],[-0.1166868,53.5019977],[-0.1160753,53.5020296],[-0.1139081,53.5027252],[-0.1127172,53.5030889],[-0.1099277,53.5036888],[-0.1096594,53.5036888],[-0.1091552,53.503676],[-0.105958,53.5036888],[-0.1056683,53.5035547],[-0.1012588,53.5001981],[-0.1003897,53.4997641],[-0.0947571,53.4962157],[-0.0945962,53.4961774],[-0.0934911,53.4956796],[-0.093019,53.495386],[-0.0923646,53.4951435],[-0.0903475,53.4949584],[-0.0859273,53.4944924],[-0.0830305,53.4938414],[-0.0816894,53.4936946],[-0.0772905,53.4934776],[-0.076561,53.4934457],[-0.0761211,53.4936755],[-0.0753808,53.4945818],[-0.0748336,53.4946201],[-0.0726879,53.4943584],[-0.0714433,53.4943584],[-0.0677312,53.4943265],[-0.0670644,53.4943114],[-0.0668836,53.4943073],[-0.062238,53.4941733],[-0.0578499,53.4947477],[-0.0561762,53.4949265],[-0.0551033,53.4952456],[-0.0524962,53.4969241],[-0.0521529,53.4970071],[-0.0491703,53.4975241],[-0.0471211,53.4981112],[-0.0437093,53.4989919],[-0.0421,53.4991515],[-0.0380981,53.498909],[-0.0332594,53.4988451],[-0.0300837,53.4998535],[-0.0273585,53.5007469],[-0.0268006,53.5007597],[-0.0212431,53.4999428],[-0.0206208,53.499879],[-0.0189364,53.4996493],[-0.0169945,53.4995089],[-0.0126815,53.499043],[-0.0101602,53.498826],[-0.009892,53.4988515],[-0.0068665,53.4986984],[-0.0063515,53.4986218],[-0.0062013,53.4984176],[-0.0045759,53.4957115],[-0.0042003,53.4952073],[-0.0036478,53.4946329],[-0.0033259,53.494569],[0.0025964,53.4965284],[0.0048816,53.4964838],[0.0115549,53.4952264],[0.0195694,53.4938797],[0.0210929,53.4938287],[0.0263285,53.4933691],[0.0289249,53.4928074],[0.0367463,53.4921372],[0.0439238,53.4912883],[0.0446212,53.4912563],[0.0478291,53.4915181],[0.0483012,53.4916138],[0.0508118,53.4917351],[0.0592768,53.4953413],[0.0679886,53.4987494],[0.0735435,53.50059],[0.0746525,53.5010228]],"type":"LineString"},"id":"grid_220kv:1","properties":{"name":"Hornsea ONE Offshore Wind Farm Export Cable","voltage":"220000"},"type":"Feature"},{"geometry":{"coordinates":[[-3.2749565,53.4861579],[-3.3230514,53.4607983],[-3.4355891,53.3919172],[-3.4381695,53.3856334],[-3.4427548,53.3852226],[-3.4756407,53.3673037],[-3.4822353,53.3542558],[-3.4823871,53.3539454],[-3.4822691,53.3536381],[-3.4819579,53.3533755],[-3.4814859,53.3532154],[-3.467474,53.3486044],[-3.4557152,53.343173],[-3.4525073,53.3393808],[-3.4492137,53.3323761]],"type":"LineString"},"id":"grid_220kv:2","properties":{"name":"Burbo Bank Extension export cable","voltage":"220000"},"type":"Feature"},{"geometry":{"coordinates":[[0.7245118,53.2198508],[0.6911654,53.2055106],[0.6644907,53.1797198],[0.6242882,53.1427935],[0.5889535,53.1356554],[0.5423011,53.1166547],[0.5065157,53.0904529],[0.4445094,53.054317],[0.4390629,53.032684],[0.4066746,53.0047418],[0.3573878,52.9904513],[0.3430549,52.9775836],[0.318165,52.9548229],[0.3095486,52.9431495],[0.294964,52.9259877],[0.2725345,52.8996249],[0.2556316,52.8794518],[0.2488663,52.8627073]],"type":"LineString"},"id":"grid_220kv:3","properties":{"name":"Race Bank OWF export cable","voltage":"220000"},"type":"Feature"},{"geometry":{"coordinates":[[0.2327373,52.8138155],[0.2316999,52.8120747],[0.2319574,52.8104275],[0.2285671,52.8053818],[0.234704,52.8014123],[0.2351331,52.8011269],[0.243051,52.7996479],[0.2462268,52.7942247],[0.2489948,52.7888268],[0.2308416,52.7687862],[0.228138,52.7651575],[0.2313995,52.7584833],[0.2315712,52.7557952],[0.2315175,52.7547952],[0.2290499,52.7524965],[0.223546,52.7475675],[0.2133644,52.7383574],[0.208236,52.7338913],[0.2061921,52.7313088],[0.2028662,52.7284306],[0.203172,52.7262507]],"type":"LineString"},"id":"grid_220kv:4","properties":{"name":"Race Bank Export Cable","voltage":"220000"},"type":"Feature"},{"geometry":{"coordinates":[[-2.8806937,54.0350777],[-2.8790268,54.0352167],[-2.8788096,54.0347331],[-2.8782034,54.0334477],[-2.8780961,54.0328617],[-2.878418,54.0326727],[-2.8802472,54.0324395],[-2.8801882,54.032156],[-2.8817332,54.0318472],[-2.8791261,54.0278456],[-2.8776938,54.0264402],[-2.8774309,54.0261345],[-2.877388,54.0247417],[-2.8763044,54.0228635],[-2.8772646,54.0202226],[-2.8775919,54.0176981],[-2.8786916,54.014647],[-2.8799146,54.0140198],[-2.8864271,54.0126234],[-2.88728,54.0122294],[-2.8870279,54.0106532],[-2.8868884,54.0100701],[-2.8878647,54.0082984],[-2.8913248,54.0065834]],"type":"LineString"},"id":"grid_220kv:5","properties":{"name":"Walney Wind Farm Extension Export Cable","voltage":"220000"},"type":"Feature"},{"geometry":{"coordinates":[[-2.8913248,54.0065834],[-2.9559077,54.004608],[-2.9657522,54.0000913],[-3.0137728,53.9762197],[-3.032322,53.9693081],[-3.049518,53.9613948],[-3.0884075,53.9462943],[-3.1203232,53.9386847],[-3.1425028,53.9316823],[-3.2086989,53.9021967],[-3.3012056,53.912934],[-3.4962221,53.9320368],[-3.5338254,53.9484915],[-3.5879856,53.9735246],[-3.6495295,54.0027082]],"type":"LineString"},"id":"grid_220kv:6","properties":{"name":"Walney 3 & 4 Export Cable","voltage":"220000"},"type":"Feature"},{"geometry":{"coordinates":[[-0.2607443,53.6582173],[-0.2642942,53.6584304],[-0.2652061,53.6580616],[-0.2670085,53.6566374],[-0.2672553,53.6562114],[-0.2657211,53.6537507],[-0.2666974,53.651913],[-0.267942,53.6506412],[-0.2663648,53.6487271],[-0.2654529,53.6479067],[-0.2653563,53.6464758],[-0.2627706,53.6424436],[-0.2620089,53.6408471],[-0.261687,53.6402874],[-0.2660215,53.6381629],[-0.264895,53.6355358],[-0.2643264,53.634607],[-0.2657103,53.6341553],[-0.2711821,53.6325967],[-0.2725446,53.6321069],[-0.2727699,53.6318905],[-0.2728129,53.631636],[-0.2711284,53.6282959],[-0.2705705,53.6269534],[-0.2678132,53.6248728],[-0.2639079,53.6231293],[-0.2611935,53.6220666],[-0.2597451,53.6217548],[-0.2587903,53.6211185],[-0.2575994,53.6206539],[-0.2542519,53.6185539],[-0.2481297,53.6157331]],"type":"LineString"},"id":"grid_220kv:7","properties":{"name":"Hornsea One Wind Farm Export Cable","voltage":"220000"},"type":"Feature"},{"geometry":{"coordinates":[[-4.8850243,55.694378],[-4.8846971,55.6952505],[-4.8823991,55.6970242],[-4.8769314,55.7039048],[-4.8768354,55.7060911],[-4.8781443,55.707687],[-4.8773754,55.7105452],[-4.8841095,55.7132357],[-4.8857934,55.7194479],[-4.8863062,55.7211403],[-4.8856483,55.7214168]],"type":"LineString"},"id":"grid_220kv:8","properties":{"name":"Kintyre - Hunterston Link","voltage":"220000"},"type":"Feature"},{"geometry":{"coordinates":[[-5.4581358,55.6969219],[-5.4577294,55.69768],[-5.4540816,55.6972599],[-5.4530892,55.6980413],[-5.4527512,55.6984298],[-5.4524294,55.6994259],[-5.4520619,55.6996677],[-5.4513833,55.6994062],[-5.4511848,55.6988999],[-5.4514557,55.6982968],[-5.4508925,55.6979461],[-5.450002,55.6981078],[-5.4495648,55.6982937],[-5.4492858,55.6985401],[-5.4486501,55.6991387],[-5.4480842,55.6996239]],"type":"LineString"},"id":"grid_220kv:9","properties":{"name":"Kintyre - Hunterston Link","voltage":"220000"},"type":"Feature"},{"geometry":{"coordinates":[[-5.4480842,55.6996239],[-5.4474914,55.7000819],[-5.3263099,55.7317503],[-5.2034003,55.7274971],[-5.0691608,55.6953901],[-4.9328617,55.6779718],[-4.8953963,55.6914715],[-4.8855661,55.6938259],[-4.8850243,55.694378]],"type":"LineString"},"id":"grid_220kv:10","properties":{"name":"Kintyre - Hunterston Link","voltage":"220000"},"type":"Feature"},{"geometry":{"coordinates":[[-2.9564633,57.5248306],[-2.9565845,57.5249428],[-2.9600009,57.5256213],[-2.9619192,57.5255589],[-2.9659883,57.5271506],[-2.9678068,57.5283555],[-2.9701715,57.5308458],[-2.9720776,57.5325351],[-2.9765336,57.534388],[-2.9788223,57.5353107],[-2.9852116,57.537972],[-2.9861698,57.5416663],[-2.9903412,57.5444147],[-2.9961184,57.5497794],[-2.9995787,57.551801],[-3.0019929,57.5535698],[-3.004547,57.5563283],[-3.0061722,57.5580339],[-3.0079954,57.55874],[-3.0092239,57.5599971],[-3.0112339,57.5639946],[-3.0079775,57.566767],[-3.007883,57.5689647],[-3.0086768,57.5717933],[-3.008358,57.5736309],[-3.0086124,57.57578],[-3.0085074,57.5776812],[-3.0083941,57.5797342],[-3.0088914,57.5805026],[-3.0084193,57.5815207],[-3.0081801,57.5831729],[-3.0077896,57.58587],[-3.006264,57.5871153],[-3.0042446,57.5879492],[-3.0043209,57.5894227],[-3.0035913,57.590176],[-3.0032587,57.5913261],[-3.0016083,57.5913767],[-3.0012417,57.5934478],[-3.0020356,57.594201],[-3.0016695,57.5950771],[-3.0021215,57.5978232],[-3.0019605,57.598996],[-3.002877,57.6006695],[-3.0044017,57.6025532],[-3.0081894,57.6044995],[-3.0088699,57.6063022],[-3.0095458,57.6094289],[-3.0097208,57.6101965],[-3.01028,57.6110153],[-3.0106427,57.6123028],[-3.0106935,57.612483],[-3.0084515,57.6132046],[-3.0069544,57.6143703],[-3.0056405,57.6157561],[-3.0053401,57.6168019],[-3.0054278,57.6179868],[-3.0060268,57.6185544],[-3.0063902,57.6198111],[-3.0082584,57.6219328],[-3.0092087,57.6227142],[-3.0111221,57.6239651],[-3.0106662,57.6245568],[-3.0099127,57.6255347],[-3.0081147,57.6266348],[-3.0081527,57.6303418],[-3.0081333,57.6336079],[-3.0076772,57.6365839],[-3.0088565,57.6415218],[-3.0140304,57.6451154],[-3.0142586,57.646683],[-3.0147342,57.6475177],[-3.013688,57.6512328],[-3.0259759,57.6523727],[-3.0310926,57.6536245],[-3.0396523,57.6556396],[-3.0450354,57.6601679],[-3.0441985,57.6635052],[-3.043808,57.6662356]],"type":"LineString"},"id":"grid_220kv:11","properties":{"name":"Beatrice Wind Farm Export Connection","source":"Digging scars visible on 2018 Sentinel-2 imagery","voltage":"220000"},"type":"Feature"},{"geometry":{"coordinates":[[-2.8957759,58.2568438],[-2.895781,58.2567831],[-2.9229642,58.2454942],[-2.9349161,58.2275342],[-2.969335,58.2056414],[-2.9490567,58.1899807],[-2.949323,58.1791584]],"type":"LineString"},"id":"grid_220kv:12","properties":{"voltage":"220000"},"type":"Feature"},{"geometry":{"coordinates":[[-2.880618,58.2499489],[-2.88061,58.2499067],[-2.8806084,58.249869],[-2.8861428,58.2454942],[-2.8994466,58.2184264],[-2.939272,58.1914284],[-2.949323,58.1791584]],"type":"LineString"},"id":"grid_220kv:13","properties":{"voltage":"220000"},"type":"Feature"},{"geometry":{"coordinates":[[-2.949323,58.1791584],[-3.0171151,58.1390247],[-3.0498464,58.0825154],[-3.0466174,58.0291838],[-3.0234741,57.7617456],[-3.0437125,57.6871288],[-3.043808,57.6662356]],"type":"LineString"},"id":"grid_220kv:14","properties":{"name":"Beatrice Wind Farm Export Connection","voltage":"220000"},"type":"Feature"},{"geometry":{"coordinates":[[1.422254,51.9995364],[1.4204906,52.0006171],[1.4190179,52.0017158],[1.4185999,52.0017598],[1.416598,52.001728],[1.4163502,52.0017865],[1.4158348,52.0017906],[1.4141576,52.0015845],[1.4137305,52.0014706],[1.4132771,52.0011358],[1.4130242,52.0010073],[1.4113703,52.0007876],[1.4107178,52.0008033],[1.4086093,52.0005575],[1.4074925,52.0002316],[1.4033964,51.9996979],[1.4022196,51.9997082],[1.4012647,51.9997615],[1.3981386,52.0008287],[1.3976535,52.0010016],[1.3966128,52.0011235],[1.3961856,52.0012155],[1.3932546,52.0021538],[1.3929107,52.0023038],[1.3924851,52.0028285],[1.3923854,52.0028933],[1.3917061,52.0030713],[1.3914066,52.0031628],[1.3882642,52.0044511],[1.3865902,52.0051705],[1.3862461,52.005372],[1.3860381,52.0055715],[1.3856176,52.0056736],[1.3851495,52.0057018],[1.3847046,52.0057936],[1.3799613,52.0073713],[1.3794255,52.0075126],[1.3787895,52.0075185],[1.3784562,52.0074118],[1.3781922,52.007369],[1.3776425,52.0074598],[1.3769495,52.0076473],[1.3762043,52.0079213],[1.3755199,52.008225],[1.3747273,52.0085804],[1.3742995,52.0089568],[1.3732295,52.0095459],[1.372491,52.00977],[1.3713605,52.0102273],[1.3705352,52.0105329],[1.3699935,52.0106211],[1.369199,52.0105884],[1.3685861,52.0103539],[1.3682176,52.0100184],[1.3677535,52.0093475],[1.3578644,52.0062848],[1.3559258,52.0062343],[1.3534105,52.0061647],[1.3520694,52.0060986],[1.3468749,52.0059414],[1.3446649,52.005936],[1.3418049,52.005696],[1.34068,52.0057204],[1.3393029,52.0059074],[1.3387871,52.0060458],[1.3346726,52.008105],[1.3327875,52.0093227],[1.3273019,52.0123452],[1.3249081,52.0137135],[1.3246976,52.0139911],[1.3240999,52.015205],[1.3228248,52.018364],[1.3226829,52.0191114],[1.3226268,52.0196223],[1.3227166,52.0203833],[1.3230659,52.0219158],[1.3232651,52.0226533],[1.3231108,52.0270993],[1.3232817,52.0299562],[1.3232833,52.030437],[1.3237097,52.0316205],[1.3235384,52.0319981],[1.3231294,52.0325964],[1.3229384,52.0330085],[1.3218794,52.0368014],[1.321511,52.037819],[1.3215215,52.0385546],[1.321317,52.0388769],[1.3209487,52.0393407],[1.3206744,52.0400258],[1.3205799,52.0404797],[1.3206664,52.0411007],[1.3206592,52.0420631],[1.3204172,52.0428232],[1.319885,52.0434699],[1.319485,52.0436772],[1.3192303,52.0440236],[1.3195372,52.0454706],[1.3196848,52.045728],[1.3195901,52.046214],[1.3192356,52.0467729],[1.3189428,52.0470546],[1.3188256,52.047367],[1.3187393,52.047597],[1.3184988,52.0479314],[1.3176756,52.0483532],[1.3171646,52.0488906],[1.3167694,52.0493854],[1.3151795,52.0509312],[1.3149014,52.051776],[1.3152818,52.0522145],[1.316673,52.0534851],[1.3162362,52.0553628],[1.3158788,52.0561827],[1.3157532,52.0566455],[1.3157819,52.0568193],[1.3159346,52.0570518],[1.3164865,52.057504],[1.3170038,52.0577916],[1.3174436,52.0579633],[1.3179439,52.0579911],[1.3185376,52.058039],[1.3189643,52.0582151],[1.3193455,52.0585131],[1.3194349,52.0589699],[1.3190052,52.0594856],[1.3160563,52.0607744],[1.3141373,52.0612456],[1.3132739,52.0616873],[1.3124994,52.0621774],[1.3111414,52.0626593],[1.3102625,52.0632464],[1.3095329,52.0640515],[1.3090987,52.0649528],[1.307959,52.0659041],[1.3074574,52.0662997],[1.3063649,52.0667215],[1.305861,52.0668374],[1.3042711,52.0669702],[1.3036968,52.0669829],[1.3032869,52.0671471],[1.3007085,52.0683801],[1.3005657,52.0685307],[1.300436,52.0688222],[1.3002737,52.0695383],[1.300213,52.0698941],[1.3004642,52.0708256],[1.300626,52.0711061],[1.3009011,52.0713071],[1.3013361,52.0714723],[1.3030953,52.0718838],[1.3034727,52.0720279],[1.3037592,52.0721817],[1.3038605,52.0724495],[1.303691,52.0728894],[1.3031158,52.0742633],[1.2983603,52.0817566],[1.2980961,52.0821596],[1.2961461,52.0820146],[1.2931927,52.0821024],[1.2924949,52.0821601],[1.291477,52.0823512],[1.2906824,52.0825978],[1.2896913,52.0828642],[1.2891058,52.0831469],[1.2883664,52.0832855],[1.2868629,52.0829943],[1.2856869,52.0830035],[1.2848619,52.0829056],[1.2839228,52.0826797],[1.2821184,52.0824235],[1.2805171,52.083643],[1.2803781,52.0839414],[1.2801662,52.0841495],[1.2796286,52.0844544],[1.2794716,52.0847131],[1.2796039,52.0850221],[1.2805073,52.085788],[1.2806194,52.0860817],[1.2801431,52.0867722],[1.2795944,52.0870763],[1.2782831,52.0875311],[1.2772469,52.0878994],[1.2769037,52.0879206],[1.2765134,52.0879317],[1.2760897,52.0878511],[1.2743701,52.0871556],[1.2734513,52.0869503],[1.2722486,52.0868839],[1.2695707,52.0867495],[1.2692168,52.0867723],[1.2673083,52.0870475],[1.2666121,52.0872659],[1.2663554,52.0873362],[1.2659546,52.0873725],[1.2653206,52.087299],[1.2639042,52.087236],[1.261147,52.0870188],[1.2593795,52.0869981],[1.2584839,52.087019],[1.2575877,52.0871965],[1.2569352,52.0873497],[1.2561485,52.0877183],[1.2556196,52.0881172],[1.2554222,52.0881928],[1.2552074,52.0881713],[1.2538416,52.0876507],[1.2534951,52.0876634],[1.2529984,52.0877795],[1.2525022,52.0879211],[1.251727,52.0883122],[1.249893,52.0890805],[1.2482985,52.0901845],[1.2477371,52.0903186],[1.2470316,52.0904483],[1.2460792,52.090425],[1.2452754,52.0900778],[1.2449144,52.089964],[1.2431372,52.0896231],[1.2424385,52.0896006],[1.2420826,52.08954],[1.2403689,52.0888244],[1.239756,52.0888101],[1.2371178,52.089375],[1.2366858,52.089497],[1.2364281,52.0896618],[1.2361476,52.0897578],[1.2350352,52.0897783],[1.234346,52.0898872],[1.2324575,52.0902503],[1.2309698,52.0907323],[1.2299308,52.0910831],[1.2292596,52.0911597],[1.2284481,52.0911677],[1.2256925,52.0912344],[1.2253671,52.0912955],[1.2247729,52.0914586],[1.2243141,52.0915635],[1.2237778,52.0915036],[1.2229261,52.0912874],[1.2195602,52.0912516],[1.2191184,52.0911515],[1.2161887,52.0899123],[1.2150736,52.0897309],[1.2135504,52.0899912],[1.2121372,52.0902599],[1.211619,52.0907182],[1.2107751,52.0916602],[1.2104695,52.0918737],[1.2086096,52.0922471],[1.2068547,52.0942098],[1.2058914,52.0946129],[1.2040639,52.0966827],[1.2032564,52.0973368],[1.2022245,52.097951],[1.2007971,52.0983902],[1.1991624,52.0984032],[1.1969333,52.0974772],[1.1958297,52.0972985],[1.1951068,52.0973906],[1.1943658,52.0976729],[1.1939817,52.0977332],[1.1929787,52.0977455],[1.1921129,52.0976176],[1.1916025,52.097506],[1.1904157,52.0969164],[1.1901735,52.0963226],[1.1888618,52.0955229],[1.1881877,52.0953753],[1.1876346,52.0951818],[1.1869941,52.0948917],[1.1866551,52.0944557],[1.186444,52.0943377],[1.1855541,52.0939297],[1.1846494,52.0936018],[1.1838345,52.0934993],[1.1830152,52.093601],[1.1805066,52.0942952],[1.1786994,52.0944847],[1.1781662,52.094621],[1.1773102,52.0948556],[1.1758097,52.0959644],[1.1740327,52.0971575],[1.1733046,52.0973262],[1.1718444,52.0974889],[1.171357,52.0976011],[1.1709184,52.0978033],[1.1706996,52.0980508],[1.169852,52.0997837],[1.1696106,52.0999682],[1.1691241,52.1000319],[1.1682244,52.0998896],[1.166278,52.0991665],[1.1638049,52.0986371],[1.1565463,52.0977848],[1.154288,52.0975509],[1.1501882,52.0972401],[1.1435706,52.0971206],[1.1342497,52.097466],[1.1315896,52.0980107],[1.1274807,52.098024],[1.1216632,52.0979841],[1.1189167,52.0989406],[1.117073,52.0992822],[1.114121,52.0991604],[1.1108055,52.0977191],[1.1058378,52.0978274],[1.1028857,52.0979492],[1.0936171,52.09804],[1.0924315,52.0957101],[1.0912319,52.094471],[1.0900423,52.0929687],[1.0877308,52.0911688],[1.0846339,52.0902312],[1.0830867,52.0886702],[1.0825825,52.0882549],[1.0819495,52.0879318],[1.0812901,52.0869632],[1.0807264,52.0862442],[1.0801007,52.0859014],[1.0773434,52.0855699],[1.0767674,52.0851695],[1.0757066,52.0832588],[1.0752922,52.0824895],[1.0751044,52.0816555],[1.0746176,52.0809698],[1.0691701,52.0763295],[1.0686403,52.0758563],[1.0679966,52.0754738],[1.0663176,52.0752925],[1.0649528,52.0749096],[1.0636032,52.0747056]],"type":"LineString"},"id":"grid_220kv:15","properties":{"name":"East Anglia ONE Grid Connection","source":"Digging scars visible on 2018 Sentinel-2 imagery and 2019 Maxar imagery","voltage":"220000"},"type":"Feature"},{"geometry":{"coordinates":[[2.5060803,52.248505],[2.5051052,52.2484848],[2.4685218,52.2153522],[2.4331126,52.2033074],[2.412872,52.2029781],[2.2573468,52.1989801],[2.0814383,52.1762536],[1.9968198,52.1569361],[1.9837758,52.1566663],[1.9804103,52.1570883],[1.9433167,52.1465934],[1.8574639,52.1358614],[1.8089435,52.1195782],[1.7310851,52.0895006],[1.6900436,52.078143],[1.6512193,52.0693673],[1.6249703,52.0673154],[1.5728327,52.036335],[1.5429634,52.020012],[1.5209504,52.0078086],[1.5022464,52.0024836],[1.4578918,51.9969044],[1.4414041,51.9930062],[1.4310507,51.9954178],[1.4246388,51.9991469],[1.422254,51.9995364]],"type":"LineString"},"id":"grid_220kv:16","properties":{"name":"East Anglia ONE Grid Connection","voltage":"220000"},"type":"Feature"},{"geometry":{"coordinates":[[1.4170574,53.7667485],[1.4167299,53.7665908],[1.3504633,53.7382305],[1.3382085,53.7326709],[1.3073131,53.7259057],[1.2581894,53.7148848],[1.2437217,53.7145795],[1.1188125,53.6830418],[1.0990096,53.676383],[1.0851589,53.6708663],[0.9893458,53.6430446],[0.9657903,53.6375286],[0.9504958,53.6381362],[0.9314485,53.6331681],[0.8993456,53.6314659],[0.8605077,53.6232512],[0.8262947,53.6235812],[0.7586531,53.6088135],[0.7296609,53.6024465],[0.711224,53.5930142],[0.6758268,53.5578452],[0.6599184,53.537114],[0.6403734,53.5319604],[0.6065359,53.5239546],[0.5996836,53.5257872],[0.5990757,53.525695],[0.5232616,53.5141905],[0.3350927,53.4885644],[0.2220247,53.5333525],[0.2160542,53.5361192],[0.2102323,53.5381485],[0.097159,53.5236272],[0.0740351,53.5019105]],"type":"LineString"},"id":"grid_220kv:17","properties":{"name":"Hornsea Two Export Cable","voltage":"220000"},"type":"Feature"},{"geometry":{"coordinates":[[0.3195708,53.267415],[0.3129617,53.2630554],[0.3102015,53.2612516],[0.3051243,53.2589561],[0.3045112,53.2587246],[0.30391,53.2583704],[0.3035918,53.2580091],[0.3026218,53.2567565],[0.3018394,53.2547932],[0.3009262,53.2539052],[0.300455,53.2533177],[0.2988076,53.2509833],[0.2976122,53.2490717],[0.2962973,53.2452353],[0.2963112,53.2449036],[0.2963948,53.2445075],[0.2964266,53.2442726],[0.2964331,53.2441451],[0.2961886,53.2439413],[0.2953838,53.2436084],[0.2948665,53.2434035],[0.2918745,53.2418278],[0.2909381,53.2411861],[0.2899151,53.2404441],[0.2893713,53.2399829],[0.2891711,53.2397094],[0.2875846,53.237568],[0.2874132,53.2372435],[0.2871821,53.2340195],[0.2870713,53.2308035],[0.2870256,53.2299808],[0.2868693,53.2292878],[0.2864845,53.2277721],[0.2858107,53.2259961],[0.2857726,53.2257343],[0.2857982,53.2255915],[0.2859511,53.2255076],[0.2861085,53.2254441],[0.2861723,53.2253254],[0.2861946,53.2252125],[0.2861962,53.2251074],[0.2861943,53.2250523],[0.2861588,53.2249896],[0.2860479,53.2248713],[0.2859403,53.2247315],[0.2859342,53.2245371],[0.2859605,53.224404],[0.2861259,53.2237581],[0.2864953,53.2208043],[0.2863438,53.2167962],[0.2862629,53.2157363],[0.2854304,53.2146358],[0.2853869,53.2136077],[0.2863215,53.2123582],[0.2863867,53.2081801],[0.2864084,53.2029341],[0.2837569,53.1969453],[0.2781278,53.1891716],[0.279584,53.1848089],[0.278932,53.177476],[0.2723466,53.1721741],[0.2696299,53.1662071],[0.2701732,53.1612556],[0.2693691,53.1581021],[0.2674782,53.1565512],[0.258024,53.1534104],[0.2521559,53.1515335],[0.2472875,53.1519376],[0.2444186,53.150947],[0.2414628,53.1520288],[0.2391808,53.1518594],[0.2350079,53.150582],[0.2278357,53.1474668],[0.2229239,53.1446642],[0.2124047,53.1392931],[0.2097314,53.1367376],[0.2071886,53.1348601],[0.2032548,53.1330607],[0.2001468,53.1313003],[0.1974084,53.1296703],[0.1918228,53.1278576],[0.1865632,53.1256667],[0.1797388,53.1240625],[0.1718494,53.1253407],[0.1621126,53.1256406],[0.1555707,53.1235278],[0.148855,53.1203584],[0.1415992,53.116207],[0.138727,53.1139276],[0.1259693,53.1115925],[0.124361,53.1119447],[0.1206227,53.1112402],[0.1144721,53.1070131],[0.0959114,53.1037642],[0.0935424,53.1024463],[0.075525,53.0979834],[0.0670706,53.0955038],[0.0502051,53.093755],[0.0417507,53.0857929],[0.0275585,53.0796703],[0.0167568,53.0716012],[0.0047814,53.0657116],[-0.0034992,53.060409],[-0.0193649,53.058515],[-0.0293624,53.0461043],[-0.0313926,53.045567],[-0.0336135,53.0454896],[-0.0409031,53.0426026],[-0.0444022,53.0385647],[-0.0491837,53.0357681],[-0.0528784,53.0315597],[-0.0572904,53.0269587],[-0.0638975,53.0246319],[-0.0692657,53.0215598],[-0.0701568,53.0197426],[-0.0721671,53.0190495],[-0.0772375,53.0184459],[-0.0810014,53.0182849],[-0.0853488,53.0145259],[-0.0918472,53.0113092],[-0.0952159,53.0101454],[-0.0981283,53.0089031],[-0.1060176,53.0090208],[-0.1078353,53.008841],[-0.1096855,53.0084675],[-0.1114076,53.0079092],[-0.123622,53.0036066],[-0.1267731,53.0024452],[-0.130364,53.0008233],[-0.1336413,52.9999967],[-0.140531,52.9968653],[-0.1448734,52.9963237],[-0.1487116,52.994686],[-0.1530149,52.9933202],[-0.1578641,52.9926643],[-0.1587374,52.9925123],[-0.1621779,52.9914941],[-0.17837,52.9861457],[-0.1801952,52.985358],[-0.1821903,52.9850204],[-0.1857111,52.9851016],[-0.1906404,52.9837722],[-0.1919367,52.9828919],[-0.1931486,52.9813802],[-0.1956306,52.973588],[-0.1959522,52.9729786],[-0.2014423,52.9698426],[-0.2016462,52.9688088],[-0.2010878,52.9667986],[-0.2014944,52.966264],[-0.2082731,52.9629595],[-0.2132741,52.9609098],[-0.2227719,52.9555917],[-0.223718,52.9545134],[-0.2245105,52.9520983],[-0.2260082,52.9493017],[-0.2260143,52.9492769],[-0.226184,52.9485889],[-0.2258251,52.947536],[-0.2258556,52.9474068],[-0.2263586,52.9468339]],"type":"LineString"},"id":"grid_220kv:18","properties":{"name":"Triton Knoll Export Cable","source":"Digging scars on Sentinel-2 imagery, 2019","voltage":"220000"},"type":"Feature"},{"geometry":{"coordinates":[[0.7578067,53.385258],[0.754124,53.349503],[0.7456895,53.3437518],[0.7317207,53.3376801],[0.716324,53.3374552],[0.6865108,53.3381545],[0.6563403,53.3381851],[0.6414178,53.3375813],[0.5965282,53.3369027],[0.581436,53.3368766],[0.5669256,53.3373665],[0.5515356,53.3381027],[0.4765916,53.3416066],[0.4615568,53.3418094],[0.4474158,53.3386773],[0.4399723,53.3308369],[0.4182228,53.2973074],[0.3891666,53.2750328],[0.3731641,53.2712917],[0.3586481,53.2691472],[0.3195708,53.267415]],"type":"LineString"},"id":"grid_220kv:19","properties":{"name":"Triton Knoll Export Cable","voltage":"220000"},"type":"Feature"},{"geometry":{"coordinates":[[-2.677789,58.0768553],[-2.6706295,58.0440004],[-2.6676949,58.04267],[-2.6648714,58.017555],[-2.6648858,57.9215593],[-2.6560079,57.8479507],[-2.5978008,57.7623528],[-2.5498527,57.6977265],[-2.565195,57.6738851]],"type":"LineString"},"id":"grid_220kv:20","properties":{"name":"Moray East Wind Farm Export Cable","voltage":"220000"},"type":"Feature"},{"geometry":{"coordinates":[[-2.565195,57.6738851],[-2.5674748,57.6716361],[-2.5688428,57.6704915],[-2.5691271,57.6669368],[-2.5690734,57.6644291],[-2.5695884,57.6634765],[-2.5681079,57.6604865],[-2.5703609,57.6575249],[-2.5716484,57.6564631],[-2.571981,57.6545976],[-2.574631,57.653042],[-2.5735903,57.65012],[-2.5724852,57.6462619],[-2.5720561,57.6448839],[-2.5727964,57.6400261],[-2.5688803,57.6392394],[-2.5685692,57.6371203],[-2.5662625,57.6339845],[-2.5595677,57.631825],[-2.5543857,57.6305785],[-2.5513172,57.6287117],[-2.5479913,57.6260003],[-2.5471759,57.6253799],[-2.5424016,57.6236162],[-2.536608,57.6220363],[-2.5335717,57.6230589],[-2.5240231,57.6255407],[-2.5190664,57.6274594],[-2.5157404,57.6278845],[-2.514689,57.6285738],[-2.516985,57.6307796],[-2.5117278,57.633594],[-2.5014925,57.6374304],[-2.4968255,57.6345416],[-2.4936926,57.6346048],[-2.4905491,57.6316469],[-2.4888218,57.6307911],[-2.4827385,57.6301937],[-2.482084,57.6301198],[-2.4786186,57.6297284],[-2.4726856,57.6291597],[-2.469585,57.6245526],[-2.4566031,57.6220822],[-2.4548006,57.6220592],[-2.4510026,57.6214962],[-2.4491573,57.6202552],[-2.4462605,57.619152],[-2.445209,57.6167387],[-2.4464107,57.6155435],[-2.4455524,57.6140839],[-2.4463034,57.6133368],[-2.4460674,57.6059803],[-2.4456597,57.6058309],[-2.4402952,57.6051756],[-2.4402523,57.6016347],[-2.4350381,57.6008414],[-2.4261546,57.5946093],[-2.4255324,57.5943793],[-2.4226356,57.5941493],[-2.4192023,57.5933558],[-2.4172068,57.5878931],[-2.418387,57.5856847],[-2.4193526,57.5830506],[-2.419138,57.5789324],[-2.4177647,57.5781731],[-2.4104476,57.5777474],[-2.4067569,57.5775748],[-2.4027872,57.5766084],[-2.3956847,57.5744914],[-2.3919511,57.5723398],[-2.3899555,57.5707519],[-2.3853636,57.5695437],[-2.3767591,57.5688417],[-2.3726821,57.5668394],[-2.3688197,57.5655389],[-2.3678541,57.5642154],[-2.3660302,57.5641234],[-2.3645282,57.5633638],[-2.3606658,57.5629955],[-2.3529411,57.5599684],[-2.3508167,57.5590476],[-2.3498297,57.5550647],[-2.3486066,57.5492968],[-2.3478127,57.545762],[-2.3471046,57.5457044],[-2.3457313,57.5435971],[-2.3453021,57.5425262],[-2.3456025,57.5410061],[-2.3444009,57.537171],[-2.3429418,57.5325061],[-2.3411823,57.5290272],[-2.3398519,57.5259167],[-2.3365903,57.5244074],[-2.335496,57.5234741],[-2.3302603,57.5216191],[-2.3307753,57.5201788],[-2.3246813,57.5189112],[-2.3247671,57.5148894],[-2.3200894,57.5123539],[-2.3110557,57.5092996],[-2.3103476,57.507075],[-2.2998333,57.5027867],[-2.2978807,57.5009075],[-2.296443,57.4998699],[-2.293911,57.4989014],[-2.2899628,57.4982673],[-2.283665,57.4933553],[-2.2822648,57.4917092],[-2.2800037,57.4905084],[-2.2800158,57.4904046],[-2.2807789,57.4899729],[-2.2809237,57.48997],[-2.2828346,57.4901721]],"type":"LineString"},"id":"grid_220kv:21","properties":{"name":"Moray East Wind Farm Export Cable","source":"Visible from digging scars in 2019 Sentinel-2 imagery","voltage":"220000"},"type":"Feature"},{"geometry":{"coordinates":[[-2.3966199,55.9598855],[-2.4018133,55.9598972],[-2.4023731,55.9603057],[-2.4062117,55.9616711],[-2.408281,55.9615703],[-2.4089308,55.9620571],[-2.4115699,55.9629692],[-2.4178239,55.9648554],[-2.4211901,55.965447],[-2.4236131,55.9657019],[-2.4256784,55.9657838],[-2.4266252,55.9653435],[-2.4277833,55.9656885],[-2.4411955,55.9662217],[-2.4456787,55.9640575],[-2.4544718,55.9586629],[-2.4576101,55.9547606],[-2.4634569,55.9522192],[-2.4650564,55.952093],[-2.4715366,55.9534986],[-2.4782588,55.9532845],[-2.4900459,55.9513601],[-2.4940621,55.9508895],[-2.4971817,55.9486198],[-2.4965839,55.9461513],[-2.4940162,55.9432935],[-2.494566,55.9425352],[-2.4950606,55.9420594],[-2.4984187,55.9409719],[-2.5022221,55.9399654],[-2.5054836,55.9395147],[-2.5118566,55.9372613],[-2.5165665,55.9358191],[-2.519989,55.935759],[-2.5253642,55.9323815],[-2.5278425,55.9287754],[-2.5289047,55.9272908],[-2.5300312,55.9261968],[-2.5304389,55.9243694],[-2.5346983,55.9224037],[-2.5378847,55.9202936],[-2.5395477,55.9176642]],"type":"LineString"},"id":"grid_220kv:22","properties":{"name":"Neart na Gaoithe Wind Farm Export Cable","voltage":"220000"},"type":"Feature"},{"geometry":{"coordinates":[[-0.2264736,52.9448503],[-0.2268111,52.9458101],[-0.2268318,52.9458281],[-0.2269655,52.9458664],[-0.2270488,52.9459213],[-0.2271103,52.946],[-0.2263586,52.9468339]],"type":"LineString"},"id":"grid_220kv:23","properties":{"name":"Triton Knoll Export Cable 2","voltage":"220000"},"type":"Feature"},{"geometry":{"coordinates":[[-0.2264736,52.9448503],[-0.224561,52.9456679],[-0.2246113,52.9457084],[-0.2261212,52.9461801],[-0.2262219,52.9463317],[-0.2263586,52.9468339]],"type":"LineString"},"id":"grid_220kv:24","properties":{"name":"Triton Knoll Export Cable 1","voltage":"220000"},"type":"Feature"},{"geometry":{"coordinates":[[-0.2264736,52.9448503],[-0.2257276,52.9446862],[-0.2256833,52.9447398],[-0.225439,52.9450345],[-0.2253323,52.9451633],[-0.2264736,52.9448503]],"type":"LineString"},"id":"grid_220kv:25","properties":{"voltage":"220000"},"type":"Feature"},{"geometry":{"coordinates":[[-0.2264736,52.9448503],[-0.2270522,52.9451037],[-0.2270188,52.9451426],[-0.2267655,52.9454386],[-0.2266468,52.9455773],[-0.2264736,52.9448503]],"type":"LineString"},"id":"grid_220kv:26","properties":{"voltage":"220000"},"type":"Feature"},{"geometry":{"coordinates":[[-0.2264736,52.9448503],[-0.2266003,52.9453883],[-0.2256321,52.9450933],[-0.2264736,52.9448503]],"type":"LineString"},"id":"grid_220kv:27","properties":{"voltage":"220000"},"type":"Feature"},{"geometry":{"coordinates":[[-0.2264736,52.9448503],[-0.2264736,52.9448503]],"type":"LineString"},"id":"grid_220kv:28","properties":{"voltage":"220000"},"type":"Feature"},{"geometry":{"coordinates":[[-0.2264736,52.9448503],[-0.2249852,52.9451229],[-0.2250331,52.9450711],[-0.2264736,52.9448503]],"type":"LineString"},"id":"grid_220kv:29","properties":{"voltage":"220000"},"type":"Feature"},{"geometry":{"coordinates":[[-0.2264736,52.9448503],[-0.2269405,52.9456609],[-0.2264736,52.9448503]],"type":"LineString"},"id":"grid_220kv:30","properties":{"voltage":"220000"},"type":"Feature"},{"geometry":{"coordinates":[[-0.2264736,52.9448503],[-0.2264736,52.9448503]],"type":"LineString"},"id":"grid_220kv:31","properties":{"voltage":"220000"},"type":"Feature"},{"geometry":{"coordinates":[[-0.2264736,52.9448503],[-0.2264736,52.9448503]],"type":"LineString"},"id":"grid_220kv:32","properties":{"voltage":"220000"},"type":"Feature"},{"geometry":{"coordinates":[[-0.2264736,52.9448503],[-0.2264736,52.9448503]],"type":"LineString"},"id":"grid_220kv:33","properties":{"voltage":"220000"},"type":"Feature"},{"geometry":{"coordinates":[[-2.3034275,56.2395313],[-2.3852535,55.9633915],[-2.3966199,55.9598855]],"type":"LineString"},"id":"grid_220kv:34","properties":{"name":"Neart na Gaoithe Wind Farm Export Cable","voltage":"220000"},"type":"Feature"},{"geometry":{"coordinates":[[-1.7602451,56.5853402],[-1.760939,56.5853313],[-1.7920614,56.575571],[-1.8105756,56.5768771],[-1.8529153,56.5826737],[-1.874324,56.5930908],[-1.8933716,56.5940828],[-1.9199268,56.5902414],[-1.9382937,56.5955624],[-1.9561195,56.5979841],[-2.1595567,56.6081575],[-2.2798395,56.5887636],[-2.4080725,56.5637208],[-2.5234116,56.5245252],[-2.5566865,56.5147194],[-2.5835661,56.507864],[-2.6028925,56.5025379],[-2.698867,56.4922085],[-2.7163192,56.4898029],[-2.7178953,56.4896324]],"type":"LineString"},"id":"grid_220kv:35","properties":{"name":"Seagreen Wind Farm Export Cable","voltage":"220000"},"type":"Feature"},{"geometry":{"coordinates":[[-2.9694307,56.5222933],[-2.9683578,56.5220033],[-2.9673386,56.5219264],[-2.9663301,56.5219441],[-2.9632831,56.5222282],[-2.9620278,56.5222163],[-2.9608136,56.5218185],[-2.9596245,56.5209498],[-2.9590554,56.5206246],[-2.9565829,56.5197306],[-2.9533053,56.5194465],[-2.9424048,56.5172448],[-2.9251957,56.5151376],[-2.9121924,56.5143562],[-2.9112301,56.5143498],[-2.9005194,56.5148534],[-2.8935671,56.5144036],[-2.8908974,56.5135419],[-2.8894043,56.5127009],[-2.8858853,56.5059734],[-2.8855044,56.5045376],[-2.8847695,56.5031077],[-2.8836966,56.5023971],[-2.881862,56.5019856],[-2.8778601,56.5019234],[-2.8749848,56.5019826],[-2.8694865,56.5013736],[-2.865458,56.5009007],[-2.8624535,56.5007273],[-2.8569174,56.5004401],[-2.8545731,56.5000448],[-2.8533125,56.499993],[-2.852717,56.5000996],[-2.8504586,56.5011773],[-2.8403521,56.5063642],[-2.8265119,56.5085547],[-2.81883,56.5085311],[-2.8164589,56.507942],[-2.8151822,56.5066247],[-2.811513,56.5041972],[-2.8091312,56.502255],[-2.8053117,56.5003572],[-2.8042227,56.500221],[-2.8027609,56.4994082],[-2.801621,56.4985126],[-2.8008163,56.4978079],[-2.8005106,56.4973608],[-2.7994024,56.4968787],[-2.7959991,56.4955693],[-2.7949691,56.494829],[-2.7942181,56.4933602],[-2.7901197,56.4900789],[-2.7885318,56.4901618],[-2.7860213,56.4904935],[-2.7825183,56.4914649],[-2.7791656,56.492839],[-2.7780551,56.4935616],[-2.7764136,56.4949119],[-2.775566,56.4951577],[-2.7742839,56.4952554],[-2.7722669,56.4954449],[-2.7708909,56.4955471],[-2.7693862,56.4959986],[-2.7670527,56.4967004],[-2.7656351,56.4963427],[-2.7645855,56.4961999],[-2.7606583,56.4958358],[-2.7589631,56.4958832],[-2.7573484,56.4959217],[-2.7526546,56.496807],[-2.7519513,56.4967253],[-2.7503456,56.4955398],[-2.7501226,56.4951133],[-2.7506376,56.4930167],[-2.7494099,56.4917882],[-2.7452517,56.4898183],[-2.7415395,56.4879465],[-2.7401701,56.4878688],[-2.7381293,56.4880626],[-2.7377678,56.4880969],[-2.7353168,56.4882308],[-2.7215108,56.4892195],[-2.7196224,56.4893763],[-2.7178953,56.4896324]],"type":"LineString"},"id":"grid_220kv:36","properties":{"name":"Seagreen Wind Farm Export Cable","voltage":"220000"},"type":"Feature"},{"geometry":{"coordinates":[[-0.262025,53.6570475],[-0.2628726,53.6582142],[-0.2642942,53.658087],[-0.2665794,53.6563322],[-0.2649486,53.6538556],[-0.2647287,53.6522755],[-0.2649218,53.6520116],[-0.2667993,53.6510132],[-0.2672821,53.6505204],[-0.265131,53.6484218],[-0.264667,53.6479926],[-0.2644443,53.6476341],[-0.2646375,53.6464822],[-0.2627921,53.6436075],[-0.2611506,53.6405227],[-0.2614296,53.6399503],[-0.2653563,53.638042],[-0.2653241,53.6376286],[-0.2644336,53.6357775],[-0.2636504,53.6345943],[-0.2638221,53.6342953],[-0.2651632,53.6338309],[-0.271107,53.6321196],[-0.2708387,53.6304082],[-0.2700663,53.6285568],[-0.2695942,53.6272716],[-0.2687037,53.6262344],[-0.2661288,53.6262853],[-0.264895,53.6263172],[-0.2637684,53.6258018],[-0.2602923,53.6223912],[-0.2588439,53.6216912],[-0.2573741,53.6210803],[-0.2560222,53.6202785],[-0.2539408,53.6190057],[-0.2476752,53.6159828],[-0.246774,53.6151045],[-0.2440596,53.6117949],[-0.2443385,53.6099554],[-0.245347,53.6056651],[-0.245862,53.6040799],[-0.2429867,53.6019536],[-0.2333307,53.6000564],[-0.2284384,53.599025],[-0.2282453,53.5972804],[-0.2239323,53.5954467],[-0.2224946,53.5918298],[-0.2187395,53.5887858],[-0.2150756,53.5871714],[-0.2140832,53.5842641],[-0.2127314,53.582073],[-0.2078176,53.5778563],[-0.2043843,53.5751298],[-0.2020669,53.5728491],[-0.198462,53.5705174],[-0.1956511,53.5678796],[-0.1923251,53.5655094],[-0.1878405,53.5634066],[-0.1844502,53.5634576],[-0.1831627,53.5624635],[-0.1814032,53.5614312],[-0.1771546,53.5594556],[-0.1729274,53.5569829],[-0.1661253,53.5530696],[-0.1573277,53.5473838],[-0.153594,53.5442091],[-0.1521778,53.5430999],[-0.1482511,53.5407537],[-0.1420069,53.5358569],[-0.1424575,53.5340333],[-0.1422429,53.5296332],[-0.1421356,53.5271715],[-0.1335097,53.5266102],[-0.1223731,53.5253219],[-0.1215792,53.5204999],[-0.1210857,53.5197089],[-0.1228023,53.5173232],[-0.1214075,53.5130234],[-0.1211071,53.5124875],[-0.1175881,53.5096037],[-0.1174808,53.508787],[-0.1204419,53.5069749],[-0.1170302,53.5025593],[-0.1161504,53.5023934],[-0.1098204,53.5039504],[-0.1052928,53.5038866],[-0.1001001,53.4999556],[-0.0954223,53.4970582],[-0.0922036,53.495386],[-0.0855732,53.4946839],[-0.0817752,53.4939435],[-0.0768829,53.4937393],[-0.0755954,53.4948371],[-0.067935,53.4946712],[-0.0623131,53.4945563],[-0.0565839,53.4952711],[-0.0520992,53.4977857],[-0.0467134,53.4985899],[-0.0433016,53.4993302],[-0.0334525,53.4992153],[-0.0274229,53.5011298],[-0.0185824,53.4999173],[-0.0117588,53.4992025],[-0.0063515,53.49896],[-0.0055146,53.4980793],[-0.003326,53.4949137],[0.0024032,53.4968922],[0.0051927,53.4967518],[0.016973,53.4947222],[0.0206637,53.4942371],[0.0278091,53.4935861],[0.029912,53.493101],[0.0436878,53.491633],[0.0474,53.4917478],[0.0505972,53.4920032],[0.0678921,53.4991004],[0.0733423,53.5013851],[0.0740351,53.5019105]],"type":"LineString"},"id":"grid_220kv:37","properties":{"name":"Hornsea Two Wind Farm Export Cable","voltage":"220000"},"type":"Feature"},{"geometry":{"coordinates":[[-2.7306881,57.6867108],[-2.7287119,57.6843402],[-2.7276778,57.6805912],[-2.726886,57.6770526],[-2.7276953,57.6751393],[-2.7286751,57.671768],[-2.7303364,57.667918],[-2.734937,57.6626322],[-2.7491646,57.6542005],[-2.7573433,57.652286],[-2.7610919,57.6506449],[-2.7612623,57.6464964],[-2.7684187,57.6462684],[-2.7789829,57.6454933],[-2.7843502,57.6444447],[-2.7859689,57.6423473],[-2.7888655,57.6414809],[-2.7931253,57.639429],[-2.8022412,57.6380609],[-2.8059046,57.6339565],[-2.8088864,57.6314024],[-2.8131462,57.6287569],[-2.811783,57.6271148],[-2.8148501,57.6224161],[-2.8157872,57.6223134],[-2.8169799,57.6202261],[-2.8182579,57.6180817],[-2.8197914,57.6171236],[-2.8234548,57.6168498],[-2.8254143,57.6169867],[-2.8283961,57.6163479],[-2.8302704,57.6156634],[-2.8334226,57.6156178],[-2.8356377,57.6141576],[-2.8386195,57.6130624],[-2.841431,57.610735],[-2.8427089,57.6048018],[-2.8459463,57.6041171],[-2.8496949,57.5980915],[-2.8497801,57.5960828],[-2.8541251,57.5928868],[-2.8532731,57.591928],[-2.8508876,57.5910147],[-2.8510793,57.5889599],[-2.8547853,57.5860259],[-2.8556585,57.5819727],[-2.8562123,57.5809108],[-2.8608555,57.5790496],[-2.8629002,57.577999],[-2.8629002,57.5762175],[-2.861537,57.5742989],[-2.862389,57.5704614],[-2.8638373,57.5694106],[-2.8656264,57.5680399],[-2.8752535,57.5609116],[-2.8762758,57.5589922],[-2.8777241,57.5578953],[-2.8771278,57.5560672],[-2.8800244,57.5540104],[-2.8817283,57.5520792],[-2.8816005,57.5500564],[-2.8815792,57.5484679],[-2.8815366,57.5464793],[-2.8814088,57.545302],[-2.8832405,57.5433475],[-2.8853064,57.5429474],[-2.8914618,57.5422045],[-2.8950826,57.5420559],[-2.8994915,57.5409585],[-2.902633,57.5399697],[-2.9047736,57.5369803],[-2.9097575,57.5346252],[-2.9103112,57.5341907],[-2.9115892,57.5317897],[-2.9135487,57.5294114],[-2.9135487,57.5278562],[-2.9125203,57.5258321],[-2.9118783,57.5242354],[-2.9118783,57.5240287],[-2.9154348,57.5226309],[-2.9160398,57.5221584],[-2.9160764,57.5217351],[-2.9148298,57.5197662],[-2.9140782,57.5188113],[-2.9133999,57.5185455],[-2.9125383,57.5182107],[-2.9122083,57.5178465],[-2.9120983,57.5170884],[-2.9125383,57.5147156],[-2.9139499,57.5134159],[-2.9151231,57.5126479],[-2.9158381,57.5123426],[-2.917378,57.5121162],[-2.9184779,57.5117715],[-2.9224927,57.5086008],[-2.9227494,57.5082659],[-2.923116,57.5070054],[-2.9231527,57.5058926],[-2.9233177,57.5025834],[-2.923501,57.5021697],[-2.9247944,57.5014087],[-2.9263297,57.5013517]],"type":"LineString"},"id":"grid_220kv:38","properties":{"name":"Moray West Wind Farm Export Cable","voltage":"220000"},"type":"Feature"},{"geometry":{"coordinates":[[-2.9786689,57.969152],[-2.9755787,57.9642351],[-2.9136428,57.8565422],[-2.8844975,57.846967],[-2.8619269,57.8048334],[-2.7644355,57.7232198],[-2.7311459,57.6884638],[-2.7306881,57.6867108]],"type":"LineString"},"id":"grid_220kv:39","properties":{"name":"Moray West Wind Farm Export Cable","voltage":"220000"},"type":"Feature"},{"geometry":{"coordinates":[[-2.2828346,57.4901721],[-2.2833847,57.4901711],[-2.2832707,57.4901848],[-2.2828346,57.4901721]],"type":"LineString"},"id":"grid_220kv:40","properties":{"voltage":"220000"},"type":"Feature"},{"geometry":{"coordinates":[[-2.2828346,57.4901721],[-2.2822554,57.4906605],[-2.2828346,57.4901721]],"type":"LineString"},"id":"grid_220kv:41","properties":{"voltage":"220000"},"type":"Feature"},{"geometry":{"coordinates":[[-2.2828346,57.4901721],[-2.2827262,57.4905307],[-2.2826162,57.4905423],[-2.2828346,57.4901721]],"type":"LineString"},"id":"grid_220kv:42","properties":{"voltage":"220000"},"type":"Feature"},{"geometry":{"coordinates":[[-2.9564633,57.5248306],[-2.9551721,57.5253421],[-2.9543084,57.5247357],[-2.9551774,57.5240444]],"type":"LineString"},"id":"grid_220kv:43","properties":{"name":"Beatrice Wind Farm Export Connection","source":"Digging scars visible on 2018 Sentinel-2 imagery","voltage":"220000"},"type":"Feature"},{"geometry":{"coordinates":[[-2.9551774,57.5240444],[-2.9549296,57.5246406],[-2.9547575,57.5247121],[-2.9551774,57.5240444]],"type":"LineString"},"id":"grid_220kv:44","properties":{"voltage":"220000"},"type":"Feature"},{"geometry":{"coordinates":[[-2.9552166,57.5250718],[-2.9554427,57.5249816],[-2.9555612,57.5249342],[-2.9556349,57.5249045],[-2.9551774,57.5240444]],"type":"LineString"},"id":"grid_220kv:45","properties":{"voltage":"220000"},"type":"Feature"},{"geometry":{"coordinates":[[-2.9551774,57.5240444],[-2.9547575,57.5247121],[-2.9546682,57.5246506],[-2.9551774,57.5240444]],"type":"LineString"},"id":"grid_220kv:46","properties":{"voltage":"220000"},"type":"Feature"},{"geometry":{"coordinates":[[-2.9551774,57.5240444],[-2.9546899,57.5244533],[-2.9551774,57.5240444]],"type":"LineString"},"id":"grid_220kv:47","properties":{"voltage":"220000"},"type":"Feature"},{"geometry":{"coordinates":[[-2.9551774,57.5240444],[-2.955254,57.5247193],[-2.9551983,57.5246803],[-2.9550626,57.5245854],[-2.9548047,57.5244049],[-2.9551774,57.5240444]],"type":"LineString"},"id":"grid_220kv:48","properties":{"voltage":"220000"},"type":"Feature"},{"geometry":{"coordinates":[[-2.9551774,57.5240444],[-2.9567854,57.5237255],[-2.9576531,57.5243501],[-2.9564633,57.5248306]],"type":"LineString"},"id":"grid_220kv:49","properties":{"name":"Beatrice Wind Farm Export Connection","source":"Digging scars visible on 2018 Sentinel-2 imagery","voltage":"220000"},"type":"Feature"},{"geometry":{"coordinates":[[-2.9551774,57.5240444],[-2.9561656,57.5238431],[-2.9551774,57.5240444]],"type":"LineString"},"id":"grid_220kv:50","properties":{"voltage":"220000"},"type":"Feature"},{"geometry":{"coordinates":[[-2.9551774,57.5240444],[-2.9566391,57.523942],[-2.956553,57.5238783],[-2.9551774,57.5240444]],"type":"LineString"},"id":"grid_220kv:51","properties":{"voltage":"220000"},"type":"Feature"},{"geometry":{"coordinates":[[-2.9551774,57.5240444],[-2.956453,57.5240182],[-2.9566391,57.523942],[-2.9551774,57.5240444]],"type":"LineString"},"id":"grid_220kv:52","properties":{"voltage":"220000"},"type":"Feature"},{"geometry":{"coordinates":[[-2.9551774,57.5240444],[-2.9565137,57.5242054],[-2.9564548,57.5241644],[-2.9563221,57.5240719],[-2.9560553,57.523886],[-2.9551774,57.5240444]],"type":"LineString"},"id":"grid_220kv:53","properties":{"voltage":"220000"},"type":"Feature"},{"geometry":{"coordinates":[[-2.9571423,57.5242904],[-2.9568985,57.524388],[-2.9568206,57.5244192],[-2.9567056,57.5244652],[-2.9551774,57.5240444]],"type":"LineString"},"id":"grid_220kv:54","properties":{"voltage":"220000"},"type":"Feature"},{"geometry":{"coordinates":[[1.0636032,52.0747056],[1.0624391,52.0746294],[1.0608012,52.0746073],[1.0604278,52.0747145],[1.0601146,52.0749038],[1.059246,52.0757128],[1.0590813,52.0757668],[1.058852,52.0757458],[1.0570239,52.0751712],[1.0569149,52.0751172],[1.0568986,52.0750231],[1.056683,52.0739315]],"type":"LineString"},"id":"grid_220kv:55","properties":{"name":"East Anglia ONE Grid Connection","source":"Digging scars visible on 2018 Sentinel-2 imagery and 2019 Maxar imagery","voltage":"220000"},"type":"Feature"},{"geometry":{"coordinates":[[1.056683,52.0739315],[1.056683,52.0739315]],"type":"LineString"},"id":"grid_220kv:56","properties":{"voltage":"220000"},"type":"Feature"},{"geometry":{"coordinates":[[-4.8856483,55.7214168],[-4.8856483,55.7214168]],"type":"LineString"},"id":"grid_220kv:57","properties":{"name":"Kintyre - Hunterston Link","voltage":"220000"},"type":"Feature"},{"geometry":{"coordinates":[[-4.8856483,55.7214168],[-4.8856483,55.7214168]],"type":"LineString"},"id":"grid_220kv:58","properties":{"voltage":"220000"},"type":"Feature"},{"geometry":{"coordinates":[[-4.8856483,55.7214168],[-4.8856483,55.7214168]],"type":"LineString"},"id":"grid_220kv:59","properties":{"voltage":"220000"},"type":"Feature"},{"geometry":{"coordinates":[[-2.2397558,56.2435779],[-2.2666775,56.2483656],[-2.2870241,56.2510441],[-2.2889593,56.251139],[-2.2903124,56.2506392],[-2.3034275,56.2395313]],"type":"LineString"},"id":"grid_220kv:60","properties":{"name":"Neart na Gaoithe Wind Farm Export Cable","voltage":"220000"},"type":"Feature"},{"geometry":{"coordinates":[[-2.2531605,56.2741879],[-2.254274,56.274032],[-2.254467,56.2739844],[-2.2546126,56.2739217],[-2.2546651,56.2717653],[-2.2622221,56.2640918],[-2.2905638,56.2525329],[-2.3034275,56.2395313]],"type":"LineString"},"id":"grid_220kv:61","properties":{"name":"Neart na Gaoithe Wind Farm Export Cable","voltage":"220000"},"type":"Feature"},{"geometry":{"coordinates":[[-2.2833114,57.4891661],[-2.2837146,57.4893912],[-2.2837615,57.4895339],[-2.2822253,57.4903448],[-2.2828346,57.4901721]],"type":"LineString"},"id":"grid_220kv:62","properties":{"voltage":"220000"},"type":"Feature"},{"geometry":{"coordinates":[[-2.2833619,57.4889911],[-2.2832163,57.4889086]],"type":"LineString"},"id":"grid_220kv:63","properties":{"voltage":"220000"},"type":"Feature"},{"geometry":{"coordinates":[[-2.2835121,57.4890665],[-2.2833114,57.4891661]],"type":"LineString"},"id":"grid_220kv:64","properties":{"voltage":"220000"},"type":"Feature"},{"geometry":{"coordinates":[[-2.2841953,57.4894348],[-2.2828346,57.4901721]],"type":"LineString"},"id":"grid_220kv:65","properties":{"voltage":"220000"},"type":"Feature"},{"geometry":{"coordinates":[[-2.2840418,57.4893609],[-2.2838902,57.4892755]],"type":"LineString"},"id":"grid_220kv:66","properties":{"voltage":"220000"},"type":"Feature"},{"geometry":{"coordinates":[[-2.2828346,57.4901721],[-2.2822796,57.4903837],[-2.2828346,57.4901721]],"type":"LineString"},"id":"grid_220kv:67","properties":{"voltage":"220000"},"type":"Feature"},{"geometry":{"coordinates":[[-2.284587,57.489642],[-2.2828346,57.4901721]],"type":"LineString"},"id":"grid_220kv:68","properties":{"voltage":"220000"},"type":"Feature"},{"geometry":{"coordinates":[[-2.284884,57.4898006],[-2.2846922,57.4898402],[-2.2828346,57.4901721]],"type":"LineString"},"id":"grid_220kv:69","properties":{"voltage":"220000"},"type":"Feature"},{"geometry":{"coordinates":[[-2.2850356,57.489882],[-2.284884,57.4898006]],"type":"LineString"},"id":"grid_220kv:70","properties":{"voltage":"220000"},"type":"Feature"},{"geometry":{"coordinates":[[-2.2832163,57.4889086],[-2.2830226,57.4890048],[-2.2833114,57.4891661]],"type":"LineString"},"id":"grid_220kv:71","properties":{"voltage":"220000"},"type":"Feature"},{"geometry":{"coordinates":[[-2.2836569,57.4891461],[-2.2835121,57.4890665]],"type":"LineString"},"id":"grid_220kv:72","properties":{"voltage":"220000"},"type":"Feature"},{"geometry":{"coordinates":[[-2.2838902,57.4892755],[-2.2837776,57.4893357],[-2.2828346,57.4901721]],"type":"LineString"},"id":"grid_220kv:73","properties":{"voltage":"220000"},"type":"Feature"},{"geometry":{"coordinates":[[-2.2843409,57.4895159],[-2.2841953,57.4894348]],"type":"LineString"},"id":"grid_220kv:74","properties":{"voltage":"220000"},"type":"Feature"},{"geometry":{"coordinates":[[-2.2847351,57.4897249],[-2.284587,57.489642]],"type":"LineString"},"id":"grid_220kv:75","properties":{"voltage":"220000"},"type":"Feature"},{"geometry":{"coordinates":[[-2.2828346,57.4901721],[-2.2838634,57.489619],[-2.2823279,57.4904291],[-2.2828346,57.4901721]],"type":"LineString"},"id":"grid_220kv:76","properties":{"voltage":"220000"},"type":"Feature"},{"geometry":{"coordinates":[[-2.2828346,57.4901721],[-2.2828346,57.4901721]],"type":"LineString"},"id":"grid_220kv:77","properties":{"voltage":"220000"},"type":"Feature"},{"geometry":{"coordinates":[[-2.2828346,57.4901721],[-2.2836341,57.4899137],[-2.2828346,57.4901721]],"type":"LineString"},"id":"grid_220kv:78","properties":{"voltage":"220000"},"type":"Feature"},{"geometry":{"coordinates":[[-2.2828346,57.4901721],[-2.2828346,57.4901721]],"type":"LineString"},"id":"grid_220kv:79","properties":{"voltage":"220000"},"type":"Feature"},{"geometry":{"coordinates":[[-2.2828346,57.4901721],[-2.2828346,57.4901721]],"type":"LineString"},"id":"grid_220kv:80","properties":{"voltage":"220000"},"type":"Feature"},{"geometry":{"coordinates":[[-2.2828346,57.4901721],[-2.2839265,57.4898265],[-2.2840405,57.4898143],[-2.2828346,57.4901721]],"type":"LineString"},"id":"grid_220kv:81","properties":{"voltage":"220000"},"type":"Feature"},{"geometry":{"coordinates":[[-2.2828346,57.4901721],[-2.281611,57.4906558],[-2.2828346,57.4901721]],"type":"LineString"},"id":"grid_220kv:82","properties":{"voltage":"220000"},"type":"Feature"},{"geometry":{"coordinates":[[-2.2828346,57.4901721],[-2.2813829,57.4905701],[-2.2828346,57.4901721]],"type":"LineString"},"id":"grid_220kv:83","properties":{"voltage":"220000"},"type":"Feature"},{"geometry":{"coordinates":[[-2.2828346,57.4901721],[-2.2818968,57.4908496],[-2.2828346,57.4901721]],"type":"LineString"},"id":"grid_220kv:84","properties":{"voltage":"220000"},"type":"Feature"},{"geometry":{"coordinates":[[-2.2828346,57.4901721],[-2.2828346,57.4901721]],"type":"LineString"},"id":"grid_220kv:85","properties":{"voltage":"220000"},"type":"Feature"},{"geometry":{"coordinates":[[-2.2828346,57.4901721],[-2.2826117,57.4912001],[-2.2825022,57.4912594]],"type":"LineString"},"id":"grid_220kv:86","properties":{"voltage":"220000"},"type":"Feature"},{"geometry":{"coordinates":[[-2.2828346,57.4901721],[-2.2828346,57.4901721]],"type":"LineString"},"id":"grid_220kv:87","properties":{"voltage":"220000"},"type":"Feature"},{"geometry":{"coordinates":[[-2.2828346,57.4901721],[-2.2828346,57.4901721]],"type":"LineString"},"id":"grid_220kv:88","properties":{"voltage":"220000"},"type":"Feature"},{"geometry":{"coordinates":[[-2.2805884,57.4904731],[-2.2808151,57.4903527]],"type":"LineString"},"id":"grid_220kv:89","properties":{"voltage":"220000"},"type":"Feature"},{"geometry":{"coordinates":[[-2.2809103,57.4906468],[-2.2828346,57.4901721]],"type":"LineString"},"id":"grid_220kv:90","properties":{"voltage":"220000"},"type":"Feature"},{"geometry":{"coordinates":[[-2.2822863,57.4913776],[-2.2825022,57.4912594]],"type":"LineString"},"id":"grid_220kv:91","properties":{"voltage":"220000"},"type":"Feature"},{"geometry":{"coordinates":[[-2.2828346,57.4901721],[-2.2828346,57.4901721]],"type":"LineString"},"id":"grid_220kv:92","properties":{"voltage":"220000"},"type":"Feature"},{"geometry":{"coordinates":[[-2.2812751,57.4908443],[-2.2828346,57.4901721]],"type":"LineString"},"id":"grid_220kv:93","properties":{"voltage":"220000"},"type":"Feature"},{"geometry":{"coordinates":[[-2.2815983,57.4910129],[-2.2828346,57.4901721]],"type":"LineString"},"id":"grid_220kv:94","properties":{"voltage":"220000"},"type":"Feature"},{"geometry":{"coordinates":[[-2.2819671,57.491209],[-2.2828346,57.4901721]],"type":"LineString"},"id":"grid_220kv:95","properties":{"voltage":"220000"},"type":"Feature"},{"geometry":{"coordinates":[[-2.2808151,57.4903527],[-2.2809001,57.4903075],[-2.2828346,57.4901721]],"type":"LineString"},"id":"grid_220kv:96","properties":{"voltage":"220000"},"type":"Feature"},{"geometry":{"coordinates":[[-2.9736708,56.5225885],[-2.9736708,56.5225885]],"type":"LineString"},"id":"grid_220kv:97","properties":{"voltage":"220000"},"type":"Feature"},{"geometry":{"coordinates":[[-2.9738892,56.5236167],[-2.9738472,56.523557],[-2.9736708,56.5225885]],"type":"LineString"},"id":"grid_220kv:98","properties":{"voltage":"220000"},"type":"Feature"},{"geometry":{"coordinates":[[-2.9736708,56.5225885],[-2.9738472,56.523557],[-2.9734024,56.5236544]],"type":"LineString"},"id":"grid_220kv:99","properties":{"voltage":"220000"},"type":"Feature"},{"geometry":{"coordinates":[[-2.9694307,56.5222933],[-2.9699618,56.5226336],[-2.9704714,56.5231632],[-2.9709327,56.5233822],[-2.9717588,56.523545],[-2.9721987,56.5236071],[-2.9724622,56.5235952],[-2.9736708,56.5225885]],"type":"LineString"},"id":"grid_220kv:100","properties":{"name":"Seagreen Wind Farm Export Cable","voltage":"220000"},"type":"Feature"},{"geometry":{"coordinates":[[-2.9736708,56.5225885],[-2.9736913,56.5233356],[-2.9739014,56.5232892],[-2.9736708,56.5225885]],"type":"LineString"},"id":"grid_220kv:101","properties":{"voltage":"220000"},"type":"Feature"},{"geometry":{"coordinates":[[-2.9736708,56.5225885],[-2.9736708,56.5225885]],"type":"LineString"},"id":"grid_220kv:102","properties":{"voltage":"220000"},"type":"Feature"},{"geometry":{"coordinates":[[-2.9736708,56.5225885],[-2.9733322,56.5228691],[-2.9736708,56.5225885]],"type":"LineString"},"id":"grid_220kv:103","properties":{"voltage":"220000"},"type":"Feature"},{"geometry":{"coordinates":[[-2.9736708,56.5225885],[-2.9733322,56.5228691],[-2.9736708,56.5225885]],"type":"LineString"},"id":"grid_220kv:104","properties":{"voltage":"220000"},"type":"Feature"},{"geometry":{"coordinates":[[-2.9736708,56.5225885],[-2.9731763,56.5226476],[-2.9733864,56.5226012],[-2.9736708,56.5225885]],"type":"LineString"},"id":"grid_220kv:105","properties":{"voltage":"220000"},"type":"Feature"},{"geometry":{"coordinates":[[-2.9694307,56.5222933],[-2.9701844,56.5225596],[-2.9706645,56.5227135],[-2.971217,56.5228407],[-2.9717052,56.522891],[-2.9721189,56.5228687],[-2.9736708,56.5225885]],"type":"LineString"},"id":"grid_220kv:106","properties":{"name":"Seagreen Wind Farm Export Cable","voltage":"220000"},"type":"Feature"},{"geometry":{"coordinates":[[-2.9694307,56.5222933],[-2.9701603,56.522388],[-2.9706591,56.5223525],[-2.9714651,56.5222177],[-2.9719787,56.5221156]],"type":"LineString"},"id":"grid_220kv:107","properties":{"name":"Seagreen Wind Farm Export Cable","voltage":"220000"},"type":"Feature"},{"geometry":{"coordinates":[[-2.9736708,56.5225885],[-2.9727459,56.5217074]],"type":"LineString"},"id":"grid_220kv:108","properties":{"voltage":"220000"},"type":"Feature"},{"geometry":{"coordinates":[[-2.9736708,56.5225885],[-2.9728501,56.5221796],[-2.9736708,56.5225885]],"type":"LineString"},"id":"grid_220kv:109","properties":{"voltage":"220000"},"type":"Feature"},{"geometry":{"coordinates":[[-2.9736708,56.5225885],[-2.9728501,56.5221796],[-2.9736708,56.5225885]],"type":"LineString"},"id":"grid_220kv:110","properties":{"voltage":"220000"},"type":"Feature"},{"geometry":{"coordinates":[[-2.9719787,56.5221156],[-2.9726941,56.5219582],[-2.9729043,56.5219117],[-2.9736708,56.5225885]],"type":"LineString"},"id":"grid_220kv:111","properties":{"voltage":"220000"},"type":"Feature"},{"geometry":{"coordinates":[[-2.9301143,57.5001121],[-2.9263297,57.5013517],[-2.9271913,57.5000659],[-2.9301143,57.5001121]],"type":"LineString"},"id":"grid_220kv:112","properties":{"name":"Moray West Wind Farm Export Cable","voltage":"220000"},"type":"Feature"},{"geometry":{"coordinates":[[1.056683,52.0739315],[1.056683,52.0739315]],"type":"LineString"},"id":"grid_220kv:113","properties":{"voltage":"220000"},"type":"Feature"},{"geometry":{"coordinates":[[1.056683,52.0739315],[1.056683,52.0739315]],"type":"LineString"},"id":"grid_220kv:114","properties":{"voltage":"220000"},"type":"Feature"},{"geometry":{"coordinates":[[1.056683,52.0739315],[1.05749,52.0742893],[1.056683,52.0739315]],"type":"LineString"},"id":"grid_220kv:115","properties":{"name":"East Anglia ONE grid connection","operator":"Scottish Power Renewables","voltage":"220000"},"type":"Feature"},{"geometry":{"coordinates":[[1.056683,52.0739315],[1.056683,52.0739315]],"type":"LineString"},"id":"grid_220kv:116","properties":{"name":"East Anglia One gride Connection","operator":"Scottish Power Renewables","voltage":"220000"},"type":"Feature"},{"geometry":{"coordinates":[[1.056683,52.0739315],[1.0573812,52.0737695],[1.0569516,52.0736231],[1.056683,52.0739315]],"type":"LineString"},"id":"grid_220kv:117","properties":{"voltage":"220000"},"type":"Feature"},{"geometry":{"coordinates":[[1.056683,52.0739315],[1.0569469,52.0742704],[1.0573415,52.0737767],[1.056076,52.0733519],[1.056683,52.0739315]],"type":"LineString"},"id":"grid_220kv:118","properties":{"voltage":"220000"},"type":"Feature"},{"geometry":{"coordinates":[[0.2375444,52.8322739],[0.233674,52.8150835],[0.2327373,52.8138155]],"type":"LineString"},"id":"grid_220kv:119","properties":{"name":"Race Bank OWF export cable","voltage":"220000"},"type":"Feature"},{"geometry":{"coordinates":[[0.2488663,52.8627073],[0.2417078,52.8449824],[0.2375444,52.8322739]],"type":"LineString"},"id":"grid_220kv:120","properties":{"name":"Race Bank OWF export cable","voltage":"220000"},"type":"Feature"},{"geometry":{"coordinates":[[0.0746525,53.5010228],[0.0747059,53.5010706]],"type":"LineString"},"id":"grid_220kv:121","properties":{"name":"Hornsea Offshore Wind Farm Export Cable","voltage":"220000"},"type":"Feature"},{"geometry":{"coordinates":[[-2.880618,58.2499489],[-2.880618,58.2499489]],"type":"LineString"},"id":"grid_220kv:122","properties":{"voltage":"220000"},"type":"Feature"},{"geometry":{"coordinates":[[-2.8957759,58.2568438],[-2.8956372,58.2568097],[-2.8955539,58.25681],[-2.8809017,58.2499418],[-2.8807595,58.2499404],[-2.880618,58.2499489]],"type":"LineString"},"id":"grid_220kv:123","properties":{"name":"Beatrice OWF interconnector","voltage":"220000"},"type":"Feature"},{"geometry":{"coordinates":[[-2.8957759,58.2568438],[-2.8957759,58.2568438]],"type":"LineString"},"id":"grid_220kv:124","properties":{"voltage":"220000"},"type":"Feature"},{"geometry":{"coordinates":[[1.056683,52.0739315],[1.056683,52.0739315]],"type":"LineString"},"id":"grid_220kv:125","properties":{"voltage":"220000"},"type":"Feature"}],"type":"FeatureCollection"}
