{"features":[{"geometry":{"coordinates":[-3.0382722,51.5550188],"type":"Point"},"id":"datacentres:0","properties":{"name":"Next Generation Data","operator":"Next Generation Data"},"type":"Feature"},{"geometry":{"coordinates":[0.1508622,52.230127],"type":"Point"},"id":"datacentres:1","properties":{"name":"Redcentric Cambridge","operator":"Redcentric"},"type":"Feature"},{"geometry":{"coordinates":[-0.7662159,51.3332585],"type":"Point"},"id":"datacentres:2","properties":{"name":"Unknown Data Centre","operator":"Bank Of America"},"type":"Feature"},{"geometry":{"coordinates":[-1.2456113,50.8678009],"type":"Point"},"id":"datacentres:3","properties":{"name":"Serverhouse","operator":"Serverhouse"},"type":"Feature"},{"geometry":{"coordinates":[-2.2699405,53.003893],"type":"Point"},"id":"datacentres:4","properties":{"name":"Unknown Data Centre","operator":"Internet Central"},"type":"Feature"},{"geometry":{"coordinates":[-2.1601492,57.1525691],"type":"Point"},"id":"datacentres:5","properties":{"name":"Brightsolid","operator":"brightsolid"},"type":"Feature"},{"geometry":{"coordinates":[0.6447764,51.5701871],"type":"Point"},"id":"datacentres:6","properties":{"name":"CityFibre Cabinets","operator":"CityFibre"},"type":"Feature"},{"geometry":{"coordinates":[-2.9105618,51.3580017],"type":"Point"},"id":"datacentres:7","properties":{"name":"Insight Data Ltd","operator":"Unknown Operator"},"type":"Feature"},{"geometry":{"coordinates":[-1.4850823,53.3808925],"type":"Point"},"id":"datacentres:8","properties":{"name":"UoS IT Services","operator":"Unknown Operator"},"type":"Feature"},{"geometry":{"coordinates":[-3.0376928,51.5556071],"type":"Point"},"id":"datacentres:9","properties":{"name":"Centerprise International Newport","operator":"Unknown Operator"},"type":"Feature"},{"geometry":{"coordinates":[-3.2290026,51.6293335],"type":"Point"},"id":"datacentres:10","properties":{"name":"Centerprise International (Distribution)","operator":"Centerprise International"},"type":"Feature"},{"geometry":{"coordinates":[-1.4793848,53.375805],"type":"Point"},"id":"datacentres:11","properties":{"name":"Hive IT","operator":"Unknown Operator"},"type":"Feature"},{"geometry":{"coordinates":[-0.0009807,51.5206017],"type":"Point"},"id":"datacentres:12","properties":{"name":"Netwise","operator":"Unknown Operator"},"type":"Feature"},{"geometry":{"coordinates":[-0.7820534,51.4138607],"type":"Point"},"id":"datacentres:13","properties":{"name":"AWS Bracknell Data Centre","operator":"Amazon Web Services"},"type":"Feature"},{"geometry":{"coordinates":[-1.7641017,51.5240279],"type":"Point"},"id":"datacentres:14","properties":{"name":"AWS Swindon Data Centre","operator":"Amazon Web Services"},"type":"Feature"},{"geometry":{"coordinates":[-3.2939051,55.9282626],"type":"Point"},"id":"datacentres:15","properties":{"name":"Unknown Data Centre","operator":"Lloyds Banking Group"},"type":"Feature"},{"geometry":{"coordinates":[-4.2651336,55.8613892],"type":"Point"},"id":"datacentres:16","properties":{"name":"DataVita DV2","operator":"DataVita"},"type":"Feature"},{"geometry":{"coordinates":[-2.2363205,53.4642039],"type":"Point"},"id":"datacentres:17","properties":{"name":"Equinix MA1","operator":"Equinix"},"type":"Feature"},{"geometry":{"coordinates":[-2.2377018,53.4615004],"type":"Point"},"id":"datacentres:18","properties":{"name":"Equinix MA4","operator":"Equinix"},"type":"Feature"},{"geometry":{"coordinates":[-1.2521857,51.759604],"type":"Point"},"id":"datacentres:19","properties":{"name":"University Shared Data Centre","operator":"University of Oxford"},"type":"Feature"},{"geometry":{"coordinates":[-1.1664407,50.8482468],"type":"Point"},"id":"datacentres:20","properties":{"name":"ServerHouse","operator":"Unknown Operator"},"type":"Feature"},{"geometry":{"coordinates":[-5.9202218,54.6047075],"type":"Point"},"id":"datacentres:21","properties":{"name":"Microsoft Ireland","operator":"Microsoft"},"type":"Feature"},{"geometry":{"coordinates":[-1.8749448,50.7219006],"type":"Point"},"id":"datacentres:22","properties":{"name":"Data Vault - Bournemouth BCP01","operator":"Dark Nebulae Ltd"},"type":"Feature"},{"geometry":{"coordinates":[-1.3152153,54.5514292],"type":"Point"},"id":"datacentres:23","properties":{"name":"Unknown Data Centre","operator":"Pulsant"},"type":"Feature"},{"geometry":{"coordinates":[-1.4273241,50.9616793],"type":"Point"},"id":"datacentres:24","properties":{"name":"Sky Chilworth","operator":"Sky"},"type":"Feature"},{"geometry":{"coordinates":[-0.4603496,51.4816653],"type":"Point"},"id":"datacentres:25","properties":{"name":"Digital Realty LHR17","operator":"Digital Realty"},"type":"Feature"},{"geometry":{"coordinates":[-0.1359021,51.3839823],"type":"Point"},"id":"datacentres:26","properties":{"name":"Unknown Data Centre","operator":"Morgan Stanley"},"type":"Feature"},{"geometry":{"coordinates":[-0.1374049,51.3845572],"type":"Point"},"id":"datacentres:27","properties":{"name":"Unknown Data Centre","operator":"CapitaLand Ascendas REIT"},"type":"Feature"},{"geometry":{"coordinates":[-0.1758407,51.1324806],"type":"Point"},"id":"datacentres:28","properties":{"name":"4D Data Centers - Gatwick","operator":"Unknown Operator"},"type":"Feature"},{"geometry":{"coordinates":[-3.0373944,51.5554234],"type":"Point"},"id":"datacentres:29","properties":{"name":"Vantage Data Centers - CWL1","operator":"Vantage Data Centers"},"type":"Feature"},{"geometry":{"coordinates":[-0.2730223,51.5292302],"type":"Point"},"id":"datacentres:30","properties":{"name":"Unknown Data Centre","operator":"Unknown Operator"},"type":"Feature"},{"geometry":{"coordinates":[-0.2742813,51.529043],"type":"Point"},"id":"datacentres:31","properties":{"name":"Unknown Data Centre","operator":"Unknown Operator"},"type":"Feature"},{"geometry":{"coordinates":[-0.2778211,51.528887],"type":"Point"},"id":"datacentres:32","properties":{"name":"Equinix LD3","operator":"Equinix"},"type":"Feature"},{"geometry":{"coordinates":[-0.2911225,51.3683288],"type":"Point"},"id":"datacentres:33","properties":{"name":"Digital Realty LHR13","operator":"Digital Realty"},"type":"Feature"},{"geometry":{"coordinates":[-1.246002,50.8679793],"type":"Point"},"id":"datacentres:34","properties":{"name":"Astrohouse","operator":"University of Southampton"},"type":"Feature"},{"geometry":{"coordinates":[-1.2471827,50.8683934],"type":"Point"},"id":"datacentres:35","properties":{"name":"SCC","operator":"SCC"},"type":"Feature"},{"geometry":{"coordinates":[0.1667209,51.4915116],"type":"Point"},"id":"datacentres:36","properties":{"name":"Unknown Data Centre","operator":"OVH"},"type":"Feature"},{"geometry":{"coordinates":[-2.6297586,53.4148556],"type":"Point"},"id":"datacentres:37","properties":{"name":"Iron Mountain","operator":"Unknown Operator"},"type":"Feature"},{"geometry":{"coordinates":[-2.7340658,53.3226483],"type":"Point"},"id":"datacentres:38","properties":{"name":"The Babbage Centre","operator":"Getronics"},"type":"Feature"},{"geometry":{"coordinates":[-0.1008144,51.5235766],"type":"Point"},"id":"datacentres:39","properties":{"name":"Verne Global London Data Centre","operator":"Verne Global"},"type":"Feature"},{"geometry":{"coordinates":[-0.0023135,51.5111949],"type":"Point"},"id":"datacentres:40","properties":{"name":"Telehouse West","operator":"Telehouse"},"type":"Feature"},{"geometry":{"coordinates":[-0.5880547,51.3238402],"type":"Point"},"id":"datacentres:41","properties":{"name":"Digital Realty LGW14","operator":"Digital Realty"},"type":"Feature"},{"geometry":{"coordinates":[-3.2938083,55.9296911],"type":"Point"},"id":"datacentres:42","properties":{"name":"Pulsant Edinburgh South Gyle SC-1","operator":"Pulsant"},"type":"Feature"},{"geometry":{"coordinates":[-3.2926708,55.9298918],"type":"Point"},"id":"datacentres:43","properties":{"name":"Pulsant Edinburgh South Gyle SC-1","operator":"Pulsant"},"type":"Feature"},{"geometry":{"coordinates":[-0.2308517,51.568191],"type":"Point"},"id":"datacentres:44","properties":{"name":"LDeX 1","operator":"LDeX Group"},"type":"Feature"},{"geometry":{"coordinates":[-1.1449628,52.8796234],"type":"Point"},"id":"datacentres:45","properties":{"name":"Experian","operator":"Unknown Operator"},"type":"Feature"},{"geometry":{"coordinates":[-0.1000954,51.5289786],"type":"Point"},"id":"datacentres:46","properties":{"name":"Stellanor London North","operator":"Stellanor Data Centers"},"type":"Feature"},{"geometry":{"coordinates":[-0.3963834,51.4666236],"type":"Point"},"id":"datacentres:47","properties":{"name":"Morgan Stanley Data Centre","operator":"Morgan Stanley"},"type":"Feature"},{"geometry":{"coordinates":[-0.2558878,51.5314309],"type":"Point"},"id":"datacentres:48","properties":{"name":"Unknown Data Centre","operator":"Unknown Operator"},"type":"Feature"},{"geometry":{"coordinates":[-0.7082525,51.5003153],"type":"Point"},"id":"datacentres:49","properties":{"name":"Pulsant Maidenhead","operator":"Pulsant"},"type":"Feature"},{"geometry":{"coordinates":[-0.7083993,51.4996939],"type":"Point"},"id":"datacentres:50","properties":{"name":"Pulsant Maidenhead","operator":"Pulsant"},"type":"Feature"},{"geometry":{"coordinates":[0.2700957,51.4811413],"type":"Point"},"id":"datacentres:51","properties":{"name":"Fujitsu Data Centre","operator":"Unknown Operator"},"type":"Feature"},{"geometry":{"coordinates":[-0.4799467,51.3475652],"type":"Point"},"id":"datacentres:52","properties":{"name":"Redcentric Byfleet","operator":"Redcentric"},"type":"Feature"},{"geometry":{"coordinates":[-2.2475306,53.4644923],"type":"Point"},"id":"datacentres:53","properties":{"name":"Lunar 1&2","operator":"Lunar Digital"},"type":"Feature"},{"geometry":{"coordinates":[-3.2962233,55.9257236],"type":"Point"},"id":"datacentres:54","properties":{"name":"Edinburgh SC-2","operator":"Pulsant"},"type":"Feature"},{"geometry":{"coordinates":[-0.9414155,51.4569277],"type":"Point"},"id":"datacentres:55","properties":{"name":"Pulsant Reading East","operator":"Pulsant"},"type":"Feature"},{"geometry":{"coordinates":[-0.6189727,51.5200864],"type":"Point"},"id":"datacentres:56","properties":{"name":"Rackspace London Slough (LON3)","operator":"Rackspace"},"type":"Feature"},{"geometry":{"coordinates":[-0.6215649,51.5205153],"type":"Point"},"id":"datacentres:57","properties":{"name":"Logicalis Slough","operator":"Unknown Operator"},"type":"Feature"},{"geometry":{"coordinates":[-0.6292251,51.5220008],"type":"Point"},"id":"datacentres:58","properties":{"name":"Equinix LD5","operator":"Equinix"},"type":"Feature"},{"geometry":{"coordinates":[-0.2627586,52.5562036],"type":"Point"},"id":"datacentres:59","properties":{"name":"Unknown Data Centre","operator":"Unknown Operator"},"type":"Feature"},{"geometry":{"coordinates":[-0.2639381,52.5558705],"type":"Point"},"id":"datacentres:60","properties":{"name":"Unknown Data Centre","operator":"Unknown Operator"},"type":"Feature"},{"geometry":{"coordinates":[-0.2640718,52.5562815],"type":"Point"},"id":"datacentres:61","properties":{"name":"Unknown Data Centre","operator":"Unknown Operator"},"type":"Feature"},{"geometry":{"coordinates":[-0.1642598,51.1989076],"type":"Point"},"id":"datacentres:62","properties":{"name":"Restore Records Management","operator":"Unknown Operator"},"type":"Feature"},{"geometry":{"coordinates":[-0.975228,51.4206794],"type":"Point"},"id":"datacentres:63","properties":{"name":"Redcentric Reading","operator":"Redcentric"},"type":"Feature"},{"geometry":{"coordinates":[-0.9758992,51.4448808],"type":"Point"},"id":"datacentres:64","properties":{"name":"Pulsant","operator":"Unknown Operator"},"type":"Feature"},{"geometry":{"coordinates":[-0.1835561,51.799948],"type":"Point"},"id":"datacentres:65","properties":{"name":"Colt London North Data Centre","operator":"Colt"},"type":"Feature"},{"geometry":{"coordinates":[-0.0724737,51.513946],"type":"Point"},"id":"datacentres:66","properties":{"name":"Stellanor London East","operator":"Stellanor Data Centers"},"type":"Feature"},{"geometry":{"coordinates":[-2.2585178,53.3786359],"type":"Point"},"id":"datacentres:67","properties":{"name":"Datum Datacentres (MCR2)","operator":"Unknown Operator"},"type":"Feature"},{"geometry":{"coordinates":[-3.0866159,55.8942976],"type":"Point"},"id":"datacentres:68","properties":{"name":"RBS Melville Gate Data Centre","operator":"Natwest Group"},"type":"Feature"},{"geometry":{"coordinates":[-4.1752101,51.5793621],"type":"Point"},"id":"datacentres:69","properties":{"name":"Reynoldston Cable Landing Station","operator":"Cable & Wireless"},"type":"Feature"},{"geometry":{"coordinates":[-3.0131938,51.2860399],"type":"Point"},"id":"datacentres:70","properties":{"name":"Brean Cable Landing Station","operator":"Cable & Wireless"},"type":"Feature"},{"geometry":{"coordinates":[-0.350469,51.0215574],"type":"Point"},"id":"datacentres:71","properties":{"name":"IBM Horsham","operator":"IBM"},"type":"Feature"},{"geometry":{"coordinates":[-1.569003,53.9758144],"type":"Point"},"id":"datacentres:72","properties":{"name":"VocaLink","operator":"Unknown Operator"},"type":"Feature"},{"geometry":{"coordinates":[-0.0414604,51.6195253],"type":"Point"},"id":"datacentres:73","properties":{"name":"Ark Data Centres Meridian Park","operator":"Ark Data Centres"},"type":"Feature"},{"geometry":{"coordinates":[-4.2835487,55.8511347],"type":"Point"},"id":"datacentres:74","properties":{"name":"iomart Glasgow Data Centre","operator":"iomart"},"type":"Feature"},{"geometry":{"coordinates":[-2.9631583,51.2275256],"type":"Point"},"id":"datacentres:75","properties":{"name":"Tata Communications Highbridge Datacentre","operator":"Tata Communications"},"type":"Feature"},{"geometry":{"coordinates":[-1.8844483,53.7084325],"type":"Point"},"id":"datacentres:76","properties":{"name":"Lloyds Banking Group Copley","operator":"Unknown Operator"},"type":"Feature"},{"geometry":{"coordinates":[-0.4542685,51.4466633],"type":"Point"},"id":"datacentres:77","properties":{"name":"Serverfarm LON1 – London Data Center","operator":"Serverfarm"},"type":"Feature"},{"geometry":{"coordinates":[-0.003425,51.5109396],"type":"Point"},"id":"datacentres:78","properties":{"name":"Global Switch London East","operator":"Global Switch"},"type":"Feature"},{"geometry":{"coordinates":[-4.5535857,50.8843947],"type":"Point"},"id":"datacentres:79","properties":{"name":"Unknown Data Centre","operator":"Unknown Operator"},"type":"Feature"},{"geometry":{"coordinates":[-0.0828809,51.5229321],"type":"Point"},"id":"datacentres:80","properties":{"name":"Redcentric London City","operator":"Redcentric"},"type":"Feature"},{"geometry":{"coordinates":[-1.8367418,51.5722231],"type":"Point"},"id":"datacentres:81","properties":{"name":"Nationwide Swindon Technology Centre","operator":"Nationwide Building Society"},"type":"Feature"},{"geometry":{"coordinates":[-2.2934202,53.4680158],"type":"Point"},"id":"datacentres:82","properties":{"name":"Joule House","operator":"Equinix"},"type":"Feature"},{"geometry":{"coordinates":[-0.2068599,51.9812122],"type":"Point"},"id":"datacentres:83","properties":{"name":"Starwood House","operator":"Tesco"},"type":"Feature"},{"geometry":{"coordinates":[-0.1864269,51.8078965],"type":"Point"},"id":"datacentres:84","properties":{"name":"Hertfordshire Data Centre","operator":"Unknown Operator"},"type":"Feature"},{"geometry":{"coordinates":[-0.1195452,51.3535862],"type":"Point"},"id":"datacentres:85","properties":{"name":"Pulsant South London","operator":"Pulsant"},"type":"Feature"},{"geometry":{"coordinates":[-0.4345124,51.764228],"type":"Point"},"id":"datacentres:86","properties":{"name":"NTT","operator":"NTT"},"type":"Feature"},{"geometry":{"coordinates":[1.6918148,52.7181939],"type":"Point"},"id":"datacentres:87","properties":{"name":"Winterton Cable Landing Station","operator":"Vodafone"},"type":"Feature"},{"geometry":{"coordinates":[-0.4099656,51.4595405],"type":"Point"},"id":"datacentres:88","properties":{"name":"Skyways","operator":"Verizon"},"type":"Feature"},{"geometry":{"coordinates":[-0.0091155,51.502005],"type":"Point"},"id":"datacentres:89","properties":{"name":"Cable & Wireless Data Centre","operator":"Cable & Wireless"},"type":"Feature"},{"geometry":{"coordinates":[-0.4831024,51.4856166],"type":"Point"},"id":"datacentres:90","properties":{"name":"British Telecom Computer Centre","operator":"BT"},"type":"Feature"},{"geometry":{"coordinates":[-2.9011761,55.9451623],"type":"Point"},"id":"datacentres:91","properties":{"name":"RBS Data Centre","operator":"NatWest Group"},"type":"Feature"},{"geometry":{"coordinates":[-0.0188136,51.4968425],"type":"Point"},"id":"datacentres:92","properties":{"name":"Digital Realty LHR19","operator":"Digital Realty"},"type":"Feature"},{"geometry":{"coordinates":[-0.0034631,51.5070483],"type":"Point"},"id":"datacentres:93","properties":{"name":"Telehouse South","operator":"Telehouse"},"type":"Feature"},{"geometry":{"coordinates":[-0.4232704,51.4713244],"type":"Point"},"id":"datacentres:94","properties":{"name":"Unknown Data Centre","operator":"British Airways"},"type":"Feature"},{"geometry":{"coordinates":[-0.005573,51.511119],"type":"Point"},"id":"datacentres:95","properties":{"name":"Global Switch London North","operator":"Global Switch"},"type":"Feature"},{"geometry":{"coordinates":[-1.3153016,51.5740371],"type":"Point"},"id":"datacentres:96","properties":{"name":"R89","operator":"Unknown Operator"},"type":"Feature"},{"geometry":{"coordinates":[-1.3100648,54.633291],"type":"Point"},"id":"datacentres:97","properties":{"name":"DXC Wynyard Data Center","operator":"HPE"},"type":"Feature"},{"geometry":{"coordinates":[-1.8214237,53.6938856],"type":"Point"},"id":"datacentres:98","properties":{"name":"Redcentric Elland Data Centre","operator":"Redcentric"},"type":"Feature"},{"geometry":{"coordinates":[-0.3206157,51.770102],"type":"Point"},"id":"datacentres:99","properties":{"name":"BT Computer Centre","operator":"Unknown Operator"},"type":"Feature"},{"geometry":{"coordinates":[-0.0019544,51.512052],"type":"Point"},"id":"datacentres:100","properties":{"name":"Telehouse North","operator":"Telehouse"},"type":"Feature"},{"geometry":{"coordinates":[-0.001266,51.5115297],"type":"Point"},"id":"datacentres:101","properties":{"name":"Telehouse East","operator":"Telehouse"},"type":"Feature"},{"geometry":{"coordinates":[-0.4463277,51.5027785],"type":"Point"},"id":"datacentres:102","properties":{"name":"CyrusOne LON2","operator":"CyrusOne"},"type":"Feature"},{"geometry":{"coordinates":[-0.3639385,51.5453478],"type":"Point"},"id":"datacentres:103","properties":{"name":"Kao Data KLON-05","operator":"Kao Data"},"type":"Feature"},{"geometry":{"coordinates":[-0.6378088,51.5249468],"type":"Point"},"id":"datacentres:104","properties":{"name":"Telefonica Data Centre","operator":"Telefonica"},"type":"Feature"},{"geometry":{"coordinates":[-0.6377381,51.5230923],"type":"Point"},"id":"datacentres:105","properties":{"name":"Equinix LD11x","operator":"Equinix"},"type":"Feature"},{"geometry":{"coordinates":[-0.6360736,51.5234658],"type":"Point"},"id":"datacentres:106","properties":{"name":"Equinix LD4","operator":"Equinix"},"type":"Feature"},{"geometry":{"coordinates":[-0.0553626,51.6519012],"type":"Point"},"id":"datacentres:107","properties":{"name":"Virtus LONDON1","operator":"Unknown Operator"},"type":"Feature"},{"geometry":{"coordinates":[-3.4096908,55.9293897],"type":"Point"},"id":"datacentres:108","properties":{"name":"Edinburgh SC-3","operator":"Pulsant"},"type":"Feature"},{"geometry":{"coordinates":[-0.3974058,51.468303],"type":"Point"},"id":"datacentres:109","properties":{"name":"Redcentric London West","operator":"Redcentric"},"type":"Feature"},{"geometry":{"coordinates":[-2.9295354,53.2452627],"type":"Point"},"id":"datacentres:110","properties":{"name":"nLighten Chester","operator":"nLighten UK Ltd"},"type":"Feature"},{"geometry":{"coordinates":[-0.0153399,51.4982057],"type":"Point"},"id":"datacentres:111","properties":{"name":"Unknown Data Centre","operator":"Unknown Operator"},"type":"Feature"},{"geometry":{"coordinates":[-0.0144922,51.4981409],"type":"Point"},"id":"datacentres:112","properties":{"name":"Unknown Data Centre","operator":"Unknown Operator"},"type":"Feature"},{"geometry":{"coordinates":[-0.0710402,51.5173812],"type":"Point"},"id":"datacentres:113","properties":{"name":"Sky","operator":"Unknown Operator"},"type":"Feature"},{"geometry":{"coordinates":[0.0019607,51.515406],"type":"Point"},"id":"datacentres:114","properties":{"name":"IP House London Datacentre","operator":"IP House"},"type":"Feature"},{"geometry":{"coordinates":[-0.0731386,51.5215881],"type":"Point"},"id":"datacentres:115","properties":{"name":"Digital Realty London LON3","operator":"Digital Realty"},"type":"Feature"},{"geometry":{"coordinates":[-1.8833659,52.3121903],"type":"Point"},"id":"datacentres:116","properties":{"name":"Evoque Data Center Solutions","operator":"Unknown Operator"},"type":"Feature"},{"geometry":{"coordinates":[-3.0302309,53.7765668],"type":"Point"},"id":"datacentres:117","properties":{"name":"Lanis 1 Cable Landing Station","operator":"Cable & Wireless"},"type":"Feature"},{"geometry":{"coordinates":[0.079334,52.2088956],"type":"Point"},"id":"datacentres:118","properties":{"name":"West Cambridge Data Centre","operator":"University of Cambridge"},"type":"Feature"},{"geometry":{"coordinates":[-5.67464,50.0639024],"type":"Point"},"id":"datacentres:119","properties":{"name":"Skewjack Cable Landing Station","operator":"Unknown Operator"},"type":"Feature"},{"geometry":{"coordinates":[-5.6718673,50.0668213],"type":"Point"},"id":"datacentres:120","properties":{"name":"Lands End Cable Landing Station","operator":"BT"},"type":"Feature"},{"geometry":{"coordinates":[-0.0110653,51.4998389],"type":"Point"},"id":"datacentres:121","properties":{"name":"Digital Realty LHR20","operator":"Digital Realty"},"type":"Feature"},{"geometry":{"coordinates":[-0.0419907,51.1354635],"type":"Point"},"id":"datacentres:122","properties":{"name":"Unknown Data Centre","operator":"Goldman Sachs"},"type":"Feature"},{"geometry":{"coordinates":[-2.988063,53.6265451],"type":"Point"},"id":"datacentres:123","properties":{"name":"Hibernia Southport Cable Landing Station","operator":"Hibernia Networks"},"type":"Feature"},{"geometry":{"coordinates":[-1.3772477,53.7032569],"type":"Point"},"id":"datacentres:124","properties":{"name":"Unknown Data Centre","operator":"Unknown Operator"},"type":"Feature"},{"geometry":{"coordinates":[0.0300078,51.4935168],"type":"Point"},"id":"datacentres:125","properties":{"name":"Six Degrees Data Centre","operator":"Six Degrees"},"type":"Feature"},{"geometry":{"coordinates":[0.0310638,51.4937101],"type":"Point"},"id":"datacentres:126","properties":{"name":"Six Degrees Data Centre","operator":"Six Degrees"},"type":"Feature"},{"geometry":{"coordinates":[-0.6333195,51.5267957],"type":"Point"},"id":"datacentres:127","properties":{"name":"Iron Mountain London LON-1","operator":"Iron Mountain"},"type":"Feature"},{"geometry":{"coordinates":[-1.8848533,53.7091115],"type":"Point"},"id":"datacentres:128","properties":{"name":"Unknown Data Centre","operator":"Unknown Operator"},"type":"Feature"},{"geometry":{"coordinates":[-1.883349,53.7084196],"type":"Point"},"id":"datacentres:129","properties":{"name":"Unknown Data Centre","operator":"Unknown Operator"},"type":"Feature"},{"geometry":{"coordinates":[-5.6632114,50.0559198],"type":"Point"},"id":"datacentres:130","properties":{"name":"Cable & Wireless Cable Landing Station","operator":"Cable & Wireless"},"type":"Feature"},{"geometry":{"coordinates":[-1.2089785,52.5833804],"type":"Point"},"id":"datacentres:131","properties":{"name":"Unknown Data Centre","operator":"Santander"},"type":"Feature"},{"geometry":{"coordinates":[-0.6160237,51.5170188],"type":"Point"},"id":"datacentres:132","properties":{"name":"NTT Slough","operator":"NTT"},"type":"Feature"},{"geometry":{"coordinates":[-0.6179162,51.516456],"type":"Point"},"id":"datacentres:133","properties":{"name":"Digital Realty LHR26","operator":"Digital Realty"},"type":"Feature"},{"geometry":{"coordinates":[-0.6162721,51.51557],"type":"Point"},"id":"datacentres:134","properties":{"name":"Kao Data KLON-06","operator":"Kao Data"},"type":"Feature"},{"geometry":{"coordinates":[-0.6188497,51.5167148],"type":"Point"},"id":"datacentres:135","properties":{"name":"Digital Realty LHR27","operator":"Digital Realty"},"type":"Feature"},{"geometry":{"coordinates":[-5.6750341,50.0806326],"type":"Point"},"id":"datacentres:136","properties":{"name":"Whitesands Cable Landing Station","operator":"Level3 Communications"},"type":"Feature"},{"geometry":{"coordinates":[-5.6847891,50.0747561],"type":"Point"},"id":"datacentres:137","properties":{"name":"Unknown Data Centre","operator":"Verizon"},"type":"Feature"},{"geometry":{"coordinates":[-5.6771037,50.0697925],"type":"Point"},"id":"datacentres:138","properties":{"name":"Unknown Data Centre","operator":"Virgin Media"},"type":"Feature"},{"geometry":{"coordinates":[-5.675187,50.0811692],"type":"Point"},"id":"datacentres:139","properties":{"name":"ESAT 1 Cable Landing Station","operator":"BT Ireland"},"type":"Feature"},{"geometry":{"coordinates":[-4.5411409,50.8208817],"type":"Point"},"id":"datacentres:140","properties":{"name":"Level3 Cable Landing Station","operator":"Lumen Technologies"},"type":"Feature"},{"geometry":{"coordinates":[-4.5306872,50.8198683],"type":"Point"},"id":"datacentres:141","properties":{"name":"TAT14 Cable Landing Station","operator":"BT"},"type":"Feature"},{"geometry":{"coordinates":[-4.5325627,50.8208195],"type":"Point"},"id":"datacentres:142","properties":{"name":"Unknown Data Centre","operator":"Vodafone"},"type":"Feature"},{"geometry":{"coordinates":[-4.5278305,50.8211577],"type":"Point"},"id":"datacentres:143","properties":{"name":"Unknown Data Centre","operator":"Verizon"},"type":"Feature"},{"geometry":{"coordinates":[-0.7790299,51.6199],"type":"Point"},"id":"datacentres:144","properties":{"name":"Unknown Data Centre","operator":"CapitaLand Ascendas REIT"},"type":"Feature"},{"geometry":{"coordinates":[-0.6213452,51.5228223],"type":"Point"},"id":"datacentres:145","properties":{"name":"VIRTUS Slough London 3 and 4","operator":"VIRTUS"},"type":"Feature"},{"geometry":{"coordinates":[-0.4271464,51.5067717],"type":"Point"},"id":"datacentres:146","properties":{"name":"UBS Data Centre","operator":"UBS"},"type":"Feature"},{"geometry":{"coordinates":[-0.6209389,51.5214331],"type":"Point"},"id":"datacentres:147","properties":{"name":"Virtus London 10","operator":"Virtus"},"type":"Feature"},{"geometry":{"coordinates":[-0.6171466,51.5229154],"type":"Point"},"id":"datacentres:148","properties":{"name":"Lumen","operator":"Lumen Technologies"},"type":"Feature"},{"geometry":{"coordinates":[-0.2558966,51.5300072],"type":"Point"},"id":"datacentres:149","properties":{"name":"Unknown Data Centre","operator":"Unknown Operator"},"type":"Feature"},{"geometry":{"coordinates":[-0.7553817,52.0550736],"type":"Point"},"id":"datacentres:150","properties":{"name":"Pulsant Milton Keynes SE-1","operator":"Pulsant"},"type":"Feature"},{"geometry":{"coordinates":[-0.7572426,52.0546866],"type":"Point"},"id":"datacentres:151","properties":{"name":"Unknown Data Centre","operator":"Unknown Operator"},"type":"Feature"},{"geometry":{"coordinates":[-1.2904722,51.3770297],"type":"Point"},"id":"datacentres:152","properties":{"name":"Venture West","operator":"The Bunker Secure Hosting Ltd"},"type":"Feature"},{"geometry":{"coordinates":[1.2963278,51.271195],"type":"Point"},"id":"datacentres:153","properties":{"name":"The Bunker - South East Data Centre","operator":"Cyberfort"},"type":"Feature"},{"geometry":{"coordinates":[-0.1596895,51.2477532],"type":"Point"},"id":"datacentres:154","properties":{"name":"Unit 1","operator":"Galaxy Data Centers"},"type":"Feature"},{"geometry":{"coordinates":[-0.1572905,51.2479408],"type":"Point"},"id":"datacentres:155","properties":{"name":"Unit 3","operator":"Galaxy Data Centers"},"type":"Feature"},{"geometry":{"coordinates":[-0.1586246,51.2476379],"type":"Point"},"id":"datacentres:156","properties":{"name":"Unit 2","operator":"Galaxy Data Centers"},"type":"Feature"},{"geometry":{"coordinates":[-0.4276473,51.6428492],"type":"Point"},"id":"datacentres:157","properties":{"name":"The Chess Building","operator":"CapitaLand Ascendas REIT"},"type":"Feature"},{"geometry":{"coordinates":[0.4848784,51.5866746],"type":"Point"},"id":"datacentres:158","properties":{"name":"Imperium 315","operator":"NYSE Euronext"},"type":"Feature"},{"geometry":{"coordinates":[-3.9525146,55.8344313],"type":"Point"},"id":"datacentres:159","properties":{"name":"DataVita DV1","operator":"DataVita"},"type":"Feature"},{"geometry":{"coordinates":[-0.0005474,51.5121049],"type":"Point"},"id":"datacentres:160","properties":{"name":"Telehouse North Two","operator":"Telehouse"},"type":"Feature"},{"geometry":{"coordinates":[-0.645899,52.516024],"type":"Point"},"id":"datacentres:161","properties":{"name":"The Horizon Centre","operator":"Unknown Operator"},"type":"Feature"},{"geometry":{"coordinates":[-2.4858019,51.8715292],"type":"Point"},"id":"datacentres:162","properties":{"name":"DXC Technology","operator":"Unknown Operator"},"type":"Feature"},{"geometry":{"coordinates":[-0.5013188,51.8977355],"type":"Point"},"id":"datacentres:163","properties":{"name":"Unknown Data Centre","operator":"Unknown Operator"},"type":"Feature"},{"geometry":{"coordinates":[-2.2185032,51.4187452],"type":"Point"},"id":"datacentres:164","properties":{"name":"Ark Data Centres","operator":"Ark Data Centres"},"type":"Feature"},{"geometry":{"coordinates":[-2.2205758,51.4183627],"type":"Point"},"id":"datacentres:165","properties":{"name":"Ark Data Centres","operator":"Ark Data Centres"},"type":"Feature"},{"geometry":{"coordinates":[-2.22305,51.4184644],"type":"Point"},"id":"datacentres:166","properties":{"name":"Ark Data Centres","operator":"Ark Data Centres"},"type":"Feature"},{"geometry":{"coordinates":[-0.176786,51.12907],"type":"Point"},"id":"datacentres:167","properties":{"name":"Digital Realty LGW16","operator":"Digital Realty"},"type":"Feature"},{"geometry":{"coordinates":[-0.919028,52.234194],"type":"Point"},"id":"datacentres:168","properties":{"name":"Hellermann Tyton Data","operator":"Unknown Operator"},"type":"Feature"},{"geometry":{"coordinates":[-2.1790008,53.4082158],"type":"Point"},"id":"datacentres:169","properties":{"name":"CDL Strata Campus Data Centre","operator":"Unknown Operator"},"type":"Feature"},{"geometry":{"coordinates":[-0.6245867,51.5222507],"type":"Point"},"id":"datacentres:170","properties":{"name":"Unknown Data Centre","operator":"Unknown Operator"},"type":"Feature"},{"geometry":{"coordinates":[-0.6239391,51.523045],"type":"Point"},"id":"datacentres:171","properties":{"name":"CyrusOne London 1","operator":"CyrusOne"},"type":"Feature"},{"geometry":{"coordinates":[0.1292881,51.7691716],"type":"Point"},"id":"datacentres:172","properties":{"name":"Kao Data KLON-01","operator":"Kao Data"},"type":"Feature"},{"geometry":{"coordinates":[-0.6246734,51.5222992],"type":"Point"},"id":"datacentres:173","properties":{"name":"Equinix LD10","operator":"Equinix"},"type":"Feature"},{"geometry":{"coordinates":[-0.1761628,51.1274257],"type":"Point"},"id":"datacentres:174","properties":{"name":"Digital Realty LGW15","operator":"Digital Realty"},"type":"Feature"},{"geometry":{"coordinates":[-2.1768304,53.4683964],"type":"Point"},"id":"datacentres:175","properties":{"name":"Unknown Data Centre","operator":"Unknown Operator"},"type":"Feature"},{"geometry":{"coordinates":[-0.63761,51.5239361],"type":"Point"},"id":"datacentres:176","properties":{"name":"Equinix LD12","operator":"Equinix"},"type":"Feature"},{"geometry":{"coordinates":[-0.6269396,51.525944],"type":"Point"},"id":"datacentres:177","properties":{"name":"CyrusOne LON3","operator":"CyrusOne"},"type":"Feature"},{"geometry":{"coordinates":[-0.621693,51.5220534],"type":"Point"},"id":"datacentres:178","properties":{"name":"Virtus London 3","operator":"Virtus"},"type":"Feature"},{"geometry":{"coordinates":[-0.4538102,51.5105687],"type":"Point"},"id":"datacentres:179","properties":{"name":"Virtus London6","operator":"Virtus"},"type":"Feature"},{"geometry":{"coordinates":[-0.4542871,51.5095441],"type":"Point"},"id":"datacentres:180","properties":{"name":"Virtus London5","operator":"Virtus"},"type":"Feature"},{"geometry":{"coordinates":[-0.4566535,51.5108817],"type":"Point"},"id":"datacentres:181","properties":{"name":"Virtus London7","operator":"Virtus"},"type":"Feature"},{"geometry":{"coordinates":[-0.2608292,51.5347469],"type":"Point"},"id":"datacentres:182","properties":{"name":"Unknown Data Centre","operator":"Options Technology Ltd."},"type":"Feature"},{"geometry":{"coordinates":[-0.257339,51.5312555],"type":"Point"},"id":"datacentres:183","properties":{"name":"Unknown Data Centre","operator":"Unknown Operator"},"type":"Feature"},{"geometry":{"coordinates":[-0.2576058,51.5319396],"type":"Point"},"id":"datacentres:184","properties":{"name":"Equinix LD9","operator":"Equinix"},"type":"Feature"},{"geometry":{"coordinates":[-1.3811263,52.5409438],"type":"Point"},"id":"datacentres:185","properties":{"name":"Unknown Data Centre","operator":"Unknown Operator"},"type":"Feature"},{"geometry":{"coordinates":[-0.6352072,51.5245814],"type":"Point"},"id":"datacentres:186","properties":{"name":"Equinix LD6","operator":"Equinix"},"type":"Feature"},{"geometry":{"coordinates":[-0.4045035,51.4964027],"type":"Point"},"id":"datacentres:187","properties":{"name":"VIRTUS LONDON2","operator":"VIRTUS"},"type":"Feature"},{"geometry":{"coordinates":[-0.6019958,51.1864311],"type":"Point"},"id":"datacentres:188","properties":{"name":"Surrey Data Park","operator":"Unknown Operator"},"type":"Feature"},{"geometry":{"coordinates":[-2.2586128,53.3791499],"type":"Point"},"id":"datacentres:189","properties":{"name":"Delta House","operator":"TeleData"},"type":"Feature"},{"geometry":{"coordinates":[0.5472057,51.2788289],"type":"Point"},"id":"datacentres:190","properties":{"name":"CXD Infrastructure Solutions","operator":"DXC UKI"},"type":"Feature"},{"geometry":{"coordinates":[-3.58071,51.4918316],"type":"Point"},"id":"datacentres:191","properties":{"name":"CGI Datacenter","operator":"CGI"},"type":"Feature"},{"geometry":{"coordinates":[-0.634531,51.5255429],"type":"Point"},"id":"datacentres:192","properties":{"name":"Equinix LD7","operator":"Equinix"},"type":"Feature"},{"geometry":{"coordinates":[-0.6282758,51.5194824],"type":"Point"},"id":"datacentres:193","properties":{"name":"China Mobile Slough","operator":"Unknown Operator"},"type":"Feature"},{"geometry":{"coordinates":[-1.5039339,55.0171282],"type":"Point"},"id":"datacentres:194","properties":{"name":"Stellium Newcastle Campus","operator":"Unknown Operator"},"type":"Feature"},{"geometry":{"coordinates":[-0.6289481,51.5165511],"type":"Point"},"id":"datacentres:195","properties":{"name":"CryrusOne LON4","operator":"CyrusOne"},"type":"Feature"},{"geometry":{"coordinates":[-0.6189915,51.5188766],"type":"Point"},"id":"datacentres:196","properties":{"name":"VIRTUS LONDON9","operator":"Unknown Operator"},"type":"Feature"},{"geometry":{"coordinates":[-0.0488561,51.6961913],"type":"Point"},"id":"datacentres:197","properties":{"name":"Google Datacentre Waltham Cross","operator":"Google"},"type":"Feature"},{"geometry":{"coordinates":[-6.6854864,55.1534451],"type":"Point"},"id":"datacentres:198","properties":{"name":"Prescient Coleraine","operator":"Unknown Operator"},"type":"Feature"},{"geometry":{"coordinates":[0.1757476,51.5474545],"type":"Point"},"id":"datacentres:199","properties":{"name":"NTT London 1","operator":"NTT"},"type":"Feature"},{"geometry":{"coordinates":[-1.2100338,52.578887],"type":"Point"},"id":"datacentres:200","properties":{"name":"Unknown Data Centre","operator":"Santander"},"type":"Feature"},{"geometry":{"coordinates":[-1.2062397,52.5796263],"type":"Point"},"id":"datacentres:201","properties":{"name":"Unknown Data Centre","operator":"Santander"},"type":"Feature"},{"geometry":{"coordinates":[-0.7972979,51.2817675],"type":"Point"},"id":"datacentres:202","properties":{"name":"Unknown Data Centre","operator":"Ark Data Centres"},"type":"Feature"},{"geometry":{"coordinates":[-0.7961314,51.2824757],"type":"Point"},"id":"datacentres:203","properties":{"name":"Unknown Data Centre","operator":"Ark Data Centres"},"type":"Feature"},{"geometry":{"coordinates":[-0.7957685,51.2821],"type":"Point"},"id":"datacentres:204","properties":{"name":"Unknown Data Centre","operator":"Ark Data Centres"},"type":"Feature"},{"geometry":{"coordinates":[-0.7954006,51.2817263],"type":"Point"},"id":"datacentres:205","properties":{"name":"Unknown Data Centre","operator":"Ark Data Centres"},"type":"Feature"},{"geometry":{"coordinates":[-0.7945139,51.2824377],"type":"Point"},"id":"datacentres:206","properties":{"name":"Unknown Data Centre","operator":"Ark Data Centres"},"type":"Feature"},{"geometry":{"coordinates":[-0.4571888,51.5097605],"type":"Point"},"id":"datacentres:207","properties":{"name":"Virtus London8","operator":"Virtus"},"type":"Feature"},{"geometry":{"coordinates":[0.0565064,52.5837453],"type":"Point"},"id":"datacentres:208","properties":{"name":"Positive Park","operator":"Positive Internet"},"type":"Feature"},{"geometry":{"coordinates":[-2.9733309,53.3433136],"type":"Point"},"id":"datacentres:209","properties":{"name":"nLighten Edge Data Centre Liverpool","operator":"Unknown Operator"},"type":"Feature"},{"geometry":{"coordinates":[-1.2500233,50.9067432],"type":"Point"},"id":"datacentres:210","properties":{"name":"Regit4u","operator":"Unknown Operator"},"type":"Feature"},{"geometry":{"coordinates":[-2.3049271,53.5077832],"type":"Point"},"id":"datacentres:211","properties":{"name":"Evolution @ Agecroft Commerce Park","operator":"Unknown Operator"},"type":"Feature"},{"geometry":{"coordinates":[-2.3045891,53.5062901],"type":"Point"},"id":"datacentres:212","properties":{"name":"Evolution @ Agecroft Commerce Park","operator":"Unknown Operator"},"type":"Feature"},{"geometry":{"coordinates":[-0.6270685,51.515931],"type":"Point"},"id":"datacentres:213","properties":{"name":"CryrusOne LON5","operator":"CyrusOne"},"type":"Feature"},{"geometry":{"coordinates":[-0.4292808,51.7572082],"type":"Point"},"id":"datacentres:214","properties":{"name":"Unknown Data Centre","operator":"Unknown Operator"},"type":"Feature"},{"geometry":{"coordinates":[-2.2194847,51.4174316],"type":"Point"},"id":"datacentres:215","properties":{"name":"Unknown Data Centre","operator":"Unknown Operator"},"type":"Feature"},{"geometry":{"coordinates":[-2.2197302,51.4177591],"type":"Point"},"id":"datacentres:216","properties":{"name":"Unknown Data Centre","operator":"Unknown Operator"},"type":"Feature"},{"geometry":{"coordinates":[0.0233541,51.5166504],"type":"Point"},"id":"datacentres:217","properties":{"name":"Virtual Internet UK","operator":"Unknown Operator"},"type":"Feature"},{"geometry":{"coordinates":[-2.1566924,52.2058954],"type":"Point"},"id":"datacentres:218","properties":{"name":"Unknown Data Centre","operator":"Ionos"},"type":"Feature"},{"geometry":{"coordinates":[-1.0320237,54.5917636],"type":"Point"},"id":"datacentres:219","properties":{"name":"Unknown Data Centre","operator":"Unknown Operator"},"type":"Feature"},{"geometry":{"coordinates":[-1.7643629,51.5240125],"type":"Point"},"id":"datacentres:220","properties":{"name":"AWS Swindon Data Centre","operator":"Amazon Web Services"},"type":"Feature"},{"geometry":{"coordinates":[-1.2350678,54.5785009],"type":"Point"},"id":"datacentres:221","properties":{"name":"Unknown Data Centre","operator":"Lumen Technologies"},"type":"Feature"},{"geometry":{"coordinates":[-0.7819399,51.4138567],"type":"Point"},"id":"datacentres:222","properties":{"name":"Amazon Web Services","operator":"Amazon Web Services"},"type":"Feature"},{"geometry":{"coordinates":[-0.7981341,51.2807055],"type":"Point"},"id":"datacentres:223","properties":{"name":"Unknown Data Centre","operator":"Unknown Operator"},"type":"Feature"},{"geometry":{"coordinates":[-3.0327479,51.554789],"type":"Point"},"id":"datacentres:224","properties":{"name":"Vantage Data Centers - CWL13","operator":"Vantage Data Centers"},"type":"Feature"},{"geometry":{"coordinates":[-3.0404591,51.5509775],"type":"Point"},"id":"datacentres:225","properties":{"name":"Microsoft Newport data centre","operator":"Microsoft"},"type":"Feature"},{"geometry":{"coordinates":[-0.818456,51.8879741],"type":"Point"},"id":"datacentres:226","properties":{"name":"Unknown Data Centre","operator":"Unknown Operator"},"type":"Feature"},{"geometry":{"coordinates":[-1.2615655,51.6173524],"type":"Point"},"id":"datacentres:227","properties":{"name":"AWS Didcot Data Centre","operator":"Amazon Web Services"},"type":"Feature"},{"geometry":{"coordinates":[-2.0305574,52.5473033],"type":"Point"},"id":"datacentres:228","properties":{"name":"Hutchison 3G","operator":"Unknown Operator"},"type":"Feature"},{"geometry":{"coordinates":[0.5502103,52.3988688],"type":"Point"},"id":"datacentres:229","properties":{"name":"Unknown Data Centre","operator":"US Air Force"},"type":"Feature"},{"geometry":{"coordinates":[0.1293794,51.7701046],"type":"Point"},"id":"datacentres:230","properties":{"name":"Kao Data KLON-02","operator":"Kao Data"},"type":"Feature"},{"geometry":{"coordinates":[-0.626252,51.5189576],"type":"Point"},"id":"datacentres:231","properties":{"name":"VIRTUS London 11","operator":"Unknown Operator"},"type":"Feature"},{"geometry":{"coordinates":[0.0025166,51.5424593],"type":"Point"},"id":"datacentres:232","properties":{"name":"Tata Stratford","operator":"Tata Communications"},"type":"Feature"},{"geometry":{"coordinates":[-2.0210407,52.5297368],"type":"Point"},"id":"datacentres:233","properties":{"name":"EE Data Centre","operator":"Unknown Operator"},"type":"Feature"},{"geometry":{"coordinates":[-0.5946346,51.3805356],"type":"Point"},"id":"datacentres:234","properties":{"name":"Longcross Park","operator":"Ark Data Centres"},"type":"Feature"},{"geometry":{"coordinates":[-0.0148988,51.4981784],"type":"Point"},"id":"datacentres:235","properties":{"name":"Equinix LD8","operator":"Equinix"},"type":"Feature"},{"geometry":{"coordinates":[-0.0865103,51.5242569],"type":"Point"},"id":"datacentres:236","properties":{"name":"Digital Realty LHR18","operator":"Unknown Operator"},"type":"Feature"},{"geometry":{"coordinates":[-0.6183615,51.5176697],"type":"Point"},"id":"datacentres:237","properties":{"name":"Global Technical Realty London GB One","operator":"Global Technical Realty"},"type":"Feature"},{"geometry":{"coordinates":[-0.7960565,51.2805849],"type":"Point"},"id":"datacentres:238","properties":{"name":"Datum Farnborough Data Centre","operator":"Datum"},"type":"Feature"},{"geometry":{"coordinates":[-3.2933933,55.9297598],"type":"Point"},"id":"datacentres:239","properties":{"name":"Pulsant Edinburgh SC-1","operator":"Unknown Operator"},"type":"Feature"}],"type":"FeatureCollection"}
