{"features":[{"geometry":{"coordinates":[-1.1812918,54.6351559],"type":"Point"},"id":"power_plants:0","properties":{"name":"Hartlepool Nuclear Power Station","operator":"EDF Energy","source":"nuclear"},"type":"Feature"},{"geometry":{"coordinates":[-2.670294,51.5391657],"type":"Point"},"id":"power_plants:1","properties":{"name":"Seabank Power Station","operator":"SSE Thermal","source":"gas"},"type":"Feature"},{"geometry":{"coordinates":[-4.9932894,51.683569],"type":"Point"},"id":"power_plants:2","properties":{"name":"Pembroke Power Station","operator":"RWE","source":"gas"},"type":"Feature"},{"geometry":{"coordinates":[0.0078397,51.4939542],"type":"Point"},"id":"power_plants:3","properties":{"name":"Greenwich Peninsula Energy Centre","operator":"Pinnacle Power","source":"gas"},"type":"Feature"},{"geometry":{"coordinates":[-3.0838389,53.2329472],"type":"Point"},"id":"power_plants:4","properties":{"name":"Connahs Quay Power Station","operator":"Uniper","source":"gas"},"type":"Feature"},{"geometry":{"coordinates":[1.6188936,52.2143975],"type":"Point"},"id":"power_plants:5","properties":{"name":"Sizewell B Nuclear Power Station","operator":"EDF Energy","source":"nuclear"},"type":"Feature"},{"geometry":{"coordinates":[0.3799039,52.7274471],"type":"Point"},"id":"power_plants:6","properties":{"name":"King's Lynn Power Station","operator":"Unknown Operator","source":"gas"},"type":"Feature"},{"geometry":{"coordinates":[-2.7233649,53.3151869],"type":"Point"},"id":"power_plants:7","properties":{"name":"Rocksavage Power Station","operator":"InterGen","source":"gas"},"type":"Feature"},{"geometry":{"coordinates":[-0.2673933,52.2043235],"type":"Point"},"id":"power_plants:8","properties":{"name":"Little Barford Power Station","operator":"Unknown Operator","source":"gas"},"type":"Feature"},{"geometry":{"coordinates":[-5.7829458,54.8452254],"type":"Point"},"id":"power_plants:9","properties":{"name":"Ballylumford Power Station","operator":"EP UK Investments","source":"gas"},"type":"Feature"},{"geometry":{"coordinates":[-5.7654406,54.7270733],"type":"Point"},"id":"power_plants:10","properties":{"name":"Kilroot Power Station","operator":"EP UK Investments","source":"gas"},"type":"Feature"},{"geometry":{"coordinates":[0.1919961,52.7570674],"type":"Point"},"id":"power_plants:11","properties":{"name":"Sutton Bridge Power Station","operator":"Unknown Operator","source":"gas"},"type":"Feature"},{"geometry":{"coordinates":[0.009124,51.7629592],"type":"Point"},"id":"power_plants:12","properties":{"name":"Rye House Power Station","operator":"Drax Group","source":"gas"},"type":"Feature"},{"geometry":{"coordinates":[-0.7523798,53.5948748],"type":"Point"},"id":"power_plants:13","properties":{"name":"Keadby 2 Power Station","operator":"Unknown Operator","source":"gas"},"type":"Feature"},{"geometry":{"coordinates":[-2.4103201,53.437401],"type":"Point"},"id":"power_plants:14","properties":{"name":"Carrington Power Station","operator":"Unknown Operator","source":"gas"},"type":"Feature"},{"geometry":{"coordinates":[-1.9125629,52.4790986],"type":"Point"},"id":"power_plants:15","properties":{"name":"Broad Street City Centre Energy Network CHP","operator":"Utilicom","source":"gas"},"type":"Feature"},{"geometry":{"coordinates":[-2.4088084,55.9683842],"type":"Point"},"id":"power_plants:16","properties":{"name":"Torness Nuclear Power Station","operator":"EDF Energy","source":"nuclear"},"type":"Feature"},{"geometry":{"coordinates":[-1.8086216,52.5101564],"type":"Point"},"id":"power_plants:17","properties":{"name":"Heartlands Power Station","operator":"Unknown Operator","source":"gas"},"type":"Feature"},{"geometry":{"coordinates":[-0.6812503,52.5104776],"type":"Point"},"id":"power_plants:18","properties":{"name":"Corby Power Station","operator":"Unknown Operator","source":"gas"},"type":"Feature"},{"geometry":{"coordinates":[-1.7881844,57.4779207],"type":"Point"},"id":"power_plants:19","properties":{"name":"Peterhead Power Station","operator":"SSE Thermal","source":"gas"},"type":"Feature"},{"geometry":{"coordinates":[-4.8996428,50.3959441],"type":"Point"},"id":"power_plants:20","properties":{"name":"Indian Queens Power Station","operator":"Unknown Operator","source":"gas"},"type":"Feature"},{"geometry":{"coordinates":[-0.132816,52.8064292],"type":"Point"},"id":"power_plants:21","properties":{"name":"Spalding Power Station","operator":"Intergen","source":"gas"},"type":"Feature"},{"geometry":{"coordinates":[-7.2479577,55.0430568],"type":"Point"},"id":"power_plants:22","properties":{"name":"Coolkeeragh Power Station","operator":"Coolkeeragh ESB Limited","source":"gas"},"type":"Feature"},{"geometry":{"coordinates":[0.6901529,51.4402962],"type":"Point"},"id":"power_plants:23","properties":{"name":"Medway Power Station","operator":"SSE Thermal","source":"gas"},"type":"Feature"},{"geometry":{"coordinates":[-0.7974485,53.3640329],"type":"Point"},"id":"power_plants:24","properties":{"name":"West Burton B Power Station","operator":"TotalEnergies","source":"gas"},"type":"Feature"},{"geometry":{"coordinates":[-0.0960037,51.5254801],"type":"Point"},"id":"power_plants:25","properties":{"name":"Bunhill Energy Centre","operator":"Unknown Operator","source":"gas"},"type":"Feature"},{"geometry":{"coordinates":[-4.0115407,50.3884441],"type":"Point"},"id":"power_plants:26","properties":{"name":"Langage Power Station","operator":"Unknown Operator","source":"gas"},"type":"Feature"},{"geometry":{"coordinates":[0.4251207,51.4941263],"type":"Point"},"id":"power_plants:27","properties":{"name":"Mucking Gas 2 Landfill Scheme","operator":"Energy Developments (UK) Ltd","source":"gas"},"type":"Feature"},{"geometry":{"coordinates":[1.7332441,52.5849484],"type":"Point"},"id":"power_plants:28","properties":{"name":"Great Yarmouth Power Station","operator":"Unknown Operator","source":"gas"},"type":"Feature"},{"geometry":{"coordinates":[-1.4378112,50.8978881],"type":"Point"},"id":"power_plants:29","properties":{"name":"Marchwood Power Station","operator":"SSE Thermal","source":"gas"},"type":"Feature"},{"geometry":{"coordinates":[-0.1455792,53.6012427],"type":"Point"},"id":"power_plants:30","properties":{"name":"South Humber Bank Power Station","operator":"Unknown Operator","source":"gas"},"type":"Feature"},{"geometry":{"coordinates":[-0.2554398,53.6541491],"type":"Point"},"id":"power_plants:31","properties":{"name":"Killingholme B Power Station","operator":"Unknown Operator","source":"gas"},"type":"Feature"},{"geometry":{"coordinates":[-0.5044551,53.5417671],"type":"Point"},"id":"power_plants:32","properties":{"name":"Glanford Brigg Power Station","operator":"Centrica","source":"gas"},"type":"Feature"},{"geometry":{"coordinates":[-0.2356975,53.6379721],"type":"Point"},"id":"power_plants:33","properties":{"name":"Immingham Power Station","operator":"Unknown Operator","source":"gas"},"type":"Feature"},{"geometry":{"coordinates":[-2.0150979,51.1720786],"type":"Point"},"id":"power_plants:34","properties":{"name":"Codford Biogas","operator":"Unknown Operator","source":"gas"},"type":"Feature"},{"geometry":{"coordinates":[-0.8597603,53.0726348],"type":"Point"},"id":"power_plants:35","properties":{"name":"Staythorpe C Power Station","operator":"RWE","source":"gas"},"type":"Feature"},{"geometry":{"coordinates":[-2.1102131,53.2755433],"type":"Point"},"id":"power_plants:36","properties":{"name":"AstraZeneca Macclesfield CHP","operator":"Veolia UK","source":"gas"},"type":"Feature"},{"geometry":{"coordinates":[0.0229623,51.5088746],"type":"Point"},"id":"power_plants:37","properties":{"name":"ExCeL District Energy Centre","operator":"Engie","source":"gas"},"type":"Feature"},{"geometry":{"coordinates":[-0.0222964,51.6629796],"type":"Point"},"id":"power_plants:38","properties":{"name":"Enfield Power Station","operator":"Unknown Operator","source":"gas"},"type":"Feature"},{"geometry":{"coordinates":[-2.1079608,51.4675349],"type":"Point"},"id":"power_plants:39","properties":{"name":"Unknown Gas Plant","operator":"Unknown Operator","source":"gas"},"type":"Feature"},{"geometry":{"coordinates":[-2.9170944,54.0287139],"type":"Point"},"id":"power_plants:40","properties":{"name":"Heysham Nuclear Power Station","operator":"EDF Energy","source":"nuclear"},"type":"Feature"},{"geometry":{"coordinates":[-0.2429463,53.73416],"type":"Point"},"id":"power_plants:41","properties":{"name":"Saltend Power Station","operator":"Unknown Operator","source":"gas"},"type":"Feature"},{"geometry":{"coordinates":[-1.2153824,53.1308074],"type":"Point"},"id":"power_plants:42","properties":{"name":"Kestral Road","operator":"Durham RP Limited","source":"gas"},"type":"Feature"},{"geometry":{"coordinates":[-0.2575807,51.5460054],"type":"Point"},"id":"power_plants:43","properties":{"name":"Taylors Lane Power Station","operator":"Unknown Operator","source":"gas"},"type":"Feature"},{"geometry":{"coordinates":[-1.0900849,52.9891623],"type":"Point"},"id":"power_plants:44","properties":{"name":"Gedling Energy Park","operator":"Alkane Energy","source":"gas"},"type":"Feature"},{"geometry":{"coordinates":[-0.2306078,50.8297485],"type":"Point"},"id":"power_plants:45","properties":{"name":"Shoreham Power Station","operator":"Unknown Operator","source":"gas"},"type":"Feature"},{"geometry":{"coordinates":[-2.1180743,57.1731212],"type":"Point"},"id":"power_plants:46","properties":{"name":"Tillydrone Energy Centre","operator":"Aberdeen Heat & Power Ltd","source":"gas"},"type":"Feature"},{"geometry":{"coordinates":[-2.5309761,53.266939],"type":"Point"},"id":"power_plants:47","properties":{"name":"Winnington Brunner CHP","operator":"E.ON","source":"gas"},"type":"Feature"},{"geometry":{"coordinates":[-0.7859766,53.3062664],"type":"Point"},"id":"power_plants:48","properties":{"name":"Cottam Development Centre","operator":"E.ON","source":"gas"},"type":"Feature"},{"geometry":{"coordinates":[-2.9799072,56.4588526],"type":"Point"},"id":"power_plants:49","properties":{"name":"Fulton Building CHP","operator":"Dundee University","source":"gas"},"type":"Feature"},{"geometry":{"coordinates":[-6.0905873,54.5082852],"type":"Point"},"id":"power_plants:50","properties":{"name":"Knockmore Hill Combined Heat and Power","operator":"ContourGlobal","source":"gas"},"type":"Feature"},{"geometry":{"coordinates":[-0.1930624,53.6155715],"type":"Point"},"id":"power_plants:51","properties":{"name":"Kings Road Power Station","operator":"Unknown Operator","source":"gas"},"type":"Feature"},{"geometry":{"coordinates":[-1.2101619,53.1994998],"type":"Point"},"id":"power_plants:52","properties":{"name":"Shirebrook Energy Park","operator":"Infinis","source":"gas"},"type":"Feature"},{"geometry":{"coordinates":[-0.1402133,51.4856998],"type":"Point"},"id":"power_plants:53","properties":{"name":"Pimlico District Heating Undertaking","operator":"Unknown Operator","source":"gas"},"type":"Feature"},{"geometry":{"coordinates":[-0.1042416,51.5192111],"type":"Point"},"id":"power_plants:54","properties":{"name":"Citigen Charterhouse Street CHP","operator":"E.ON","source":"gas"},"type":"Feature"},{"geometry":{"coordinates":[-3.4171234,51.697239],"type":"Point"},"id":"power_plants:55","properties":{"name":"Cynon Power","operator":"Cynon Power Limited","source":"gas"},"type":"Feature"},{"geometry":{"coordinates":[0.7072102,51.4432962],"type":"Point"},"id":"power_plants:56","properties":{"name":"Grain CHP","operator":"Unknown Operator","source":"gas"},"type":"Feature"},{"geometry":{"coordinates":[0.1947284,51.4913875],"type":"Point"},"id":"power_plants:57","properties":{"name":"Rainham Landfill Scheme","operator":"Cleanaway / EDL","source":"gas"},"type":"Feature"},{"geometry":{"coordinates":[0.233508,51.5038517],"type":"Point"},"id":"power_plants:58","properties":{"name":"Aveley","operator":"Waste Recycling Group","source":"gas"},"type":"Feature"},{"geometry":{"coordinates":[0.2327222,51.5042395],"type":"Point"},"id":"power_plants:59","properties":{"name":"Aveley Landfill Scheme","operator":"Aveley Methane Ltd","source":"gas"},"type":"Feature"},{"geometry":{"coordinates":[0.5091355,51.5398977],"type":"Point"},"id":"power_plants:60","properties":{"name":"Pitsea Landfill Scheme","operator":"Veolia","source":"gas"},"type":"Feature"},{"geometry":{"coordinates":[0.2989617,51.2839136],"type":"Point"},"id":"power_plants:61","properties":{"name":"Stangate Landfill Site","operator":"ARC Ltd","source":"gas"},"type":"Feature"},{"geometry":{"coordinates":[0.3603816,51.2924751],"type":"Point"},"id":"power_plants:62","properties":{"name":"Offham Landfill Site","operator":"Unknown Operator","source":"gas"},"type":"Feature"},{"geometry":{"coordinates":[-0.6774978,50.8235774],"type":"Point"},"id":"power_plants:63","properties":{"name":"Lidsey Landfill","operator":"Unknown Operator","source":"gas"},"type":"Feature"},{"geometry":{"coordinates":[-0.4894667,51.2262646],"type":"Point"},"id":"power_plants:64","properties":{"name":"Albury Landfill","operator":"SITA UK","source":"gas"},"type":"Feature"},{"geometry":{"coordinates":[-1.2808795,50.9632162],"type":"Point"},"id":"power_plants:65","properties":{"name":"Fairoak Landfill","operator":"Renewable Power Generation Ltd","source":"gas"},"type":"Feature"},{"geometry":{"coordinates":[-1.6918542,51.0180464],"type":"Point"},"id":"power_plants:66","properties":{"name":"Whiteparish Landfill Gas Plant","operator":"Biffa","source":"gas"},"type":"Feature"},{"geometry":{"coordinates":[-2.1690307,51.2726997],"type":"Point"},"id":"power_plants:67","properties":{"name":"Westbury Landfill Scheme","operator":"Unknown Operator","source":"gas"},"type":"Feature"},{"geometry":{"coordinates":[0.8904959,51.1286936],"type":"Point"},"id":"power_plants:68","properties":{"name":"Ashford Peaking Plant","operator":"Unknown Operator","source":"gas"},"type":"Feature"},{"geometry":{"coordinates":[-0.2031341,52.5765883],"type":"Point"},"id":"power_plants:69","properties":{"name":"Peterborough Power Station","operator":"Unknown Operator","source":"gas"},"type":"Feature"},{"geometry":{"coordinates":[-3.0570276,52.9864223],"type":"Point"},"id":"power_plants:70","properties":{"name":"Cefn Mawr Emergency Standby Generation Facility","operator":"Unknown Operator","source":"gas"},"type":"Feature"},{"geometry":{"coordinates":[-2.1929664,52.5061227],"type":"Point"},"id":"power_plants:71","properties":{"name":"Hinksford Emergency Standby Generation Facility","operator":"Unknown Operator","source":"gas"},"type":"Feature"},{"geometry":{"coordinates":[-1.4747372,52.8917208],"type":"Point"},"id":"power_plants:72","properties":{"name":"Trafalgar Park Gas Peaking Plant","operator":"Unknown Operator","source":"gas"},"type":"Feature"},{"geometry":{"coordinates":[0.600795,51.4253996],"type":"Point"},"id":"power_plants:73","properties":{"name":"Damhead Creek Power Station","operator":"ScottishPower","source":"gas"},"type":"Feature"},{"geometry":{"coordinates":[-3.5194284,54.618694],"type":"Point"},"id":"power_plants:74","properties":{"name":"Unknown Gas Plant","operator":"Unknown Operator","source":"gas"},"type":"Feature"},{"geometry":{"coordinates":[-2.2628744,51.841511],"type":"Point"},"id":"power_plants:75","properties":{"name":"Bristol Road","operator":"Unknown Operator","source":"gas"},"type":"Feature"},{"geometry":{"coordinates":[-1.0038459,51.429625],"type":"Point"},"id":"power_plants:76","properties":{"name":"Burghfield Generation Plant","operator":"SSE Thermal","source":"gas"},"type":"Feature"},{"geometry":{"coordinates":[-3.1590809,51.6741649],"type":"Point"},"id":"power_plants:77","properties":{"name":"Crumlin STOR","operator":"Plutus Powergen","source":"gas"},"type":"Feature"},{"geometry":{"coordinates":[-1.5959073,54.9648471],"type":"Point"},"id":"power_plants:78","properties":{"name":"Gateshead District Energy Scheme","operator":"Gateshead Energy Company","source":"gas"},"type":"Feature"},{"geometry":{"coordinates":[-4.1133727,50.3681766],"type":"Point"},"id":"power_plants:79","properties":{"name":"Unknown Gas Plant","operator":"Unknown Operator","source":"gas"},"type":"Feature"},{"geometry":{"coordinates":[-1.2718083,60.4573031],"type":"Point"},"id":"power_plants:80","properties":{"name":"Sullom Voe Power Station","operator":"Unknown Operator","source":"gas"},"type":"Feature"},{"geometry":{"coordinates":[-1.3299185,52.0717723],"type":"Point"},"id":"power_plants:81","properties":{"name":"Banbury Power Station","operator":"Welsh Power","source":"gas"},"type":"Feature"},{"geometry":{"coordinates":[-2.4175313,53.4284659],"type":"Point"},"id":"power_plants:82","properties":{"name":"Carrington STOR","operator":"Unknown Operator","source":"gas"},"type":"Feature"},{"geometry":{"coordinates":[-1.6548202,53.6770648],"type":"Point"},"id":"power_plants:83","properties":{"name":"Thornhill Gas Power Station","operator":"Unknown Operator","source":"gas"},"type":"Feature"},{"geometry":{"coordinates":[-1.5345305,50.9918175],"type":"Point"},"id":"power_plants:84","properties":{"name":"Squabb Wood Power Plant","operator":"Veolia UK Ltd.","source":"gas"},"type":"Feature"},{"geometry":{"coordinates":[-2.9668889,51.5662608],"type":"Point"},"id":"power_plants:85","properties":{"name":"Traston Road STOR, Newport","operator":"UK Power Reserve","source":"gas"},"type":"Feature"},{"geometry":{"coordinates":[-2.9677089,51.5662255],"type":"Point"},"id":"power_plants:86","properties":{"name":"Traston Road","operator":"UK Power Reserve","source":"gas"},"type":"Feature"},{"geometry":{"coordinates":[0.5069917,51.5124109],"type":"Point"},"id":"power_plants:87","properties":{"name":"Coryton Power Station","operator":"Unknown Operator","source":"gas"},"type":"Feature"},{"geometry":{"coordinates":[-3.2250405,51.8055619],"type":"Point"},"id":"power_plants:88","properties":{"name":"Brecon Power STOR","operator":"Unknown Operator","source":"gas"},"type":"Feature"},{"geometry":{"coordinates":[-4.0155649,51.6488562],"type":"Point"},"id":"power_plants:89","properties":{"name":"Gowerton STOR","operator":"Unknown Operator","source":"gas"},"type":"Feature"},{"geometry":{"coordinates":[-1.3919518,52.5291592],"type":"Point"},"id":"power_plants:90","properties":{"name":"Kiln Power","operator":"Kiln Power Limited","source":"gas"},"type":"Feature"},{"geometry":{"coordinates":[-1.2019495,53.2758655],"type":"Point"},"id":"power_plants:91","properties":{"name":"Unknown Gas Plant","operator":"Alkane Energy UK Limited","source":"gas"},"type":"Feature"},{"geometry":{"coordinates":[-1.324244,52.9756996],"type":"Point"},"id":"power_plants:92","properties":{"name":"Manners Avenue 2","operator":"Mercia Power Response","source":"gas"},"type":"Feature"},{"geometry":{"coordinates":[-1.4008165,52.9057912],"type":"Point"},"id":"power_plants:93","properties":{"name":"Spondon Peaking","operator":"UK Utility Reserve Limited","source":"gas"},"type":"Feature"},{"geometry":{"coordinates":[-1.1381995,53.3148469],"type":"Point"},"id":"power_plants:94","properties":{"name":"Sandy Lane Generation","operator":"Mercia Power Response","source":"gas"},"type":"Feature"},{"geometry":{"coordinates":[-1.3209276,53.1230133],"type":"Point"},"id":"power_plants:95","properties":{"name":"Huthwaite STOR Twinyards","operator":"Unknown Operator","source":"gas"},"type":"Feature"},{"geometry":{"coordinates":[-2.1774951,53.0767364],"type":"Point"},"id":"power_plants:96","properties":{"name":"Chatterley Power Station","operator":"Conrad","source":"gas"},"type":"Feature"},{"geometry":{"coordinates":[-1.4133216,53.062006],"type":"Point"},"id":"power_plants:97","properties":{"name":"Asher Lane STOR Site","operator":"Mercia Power Response","source":"gas"},"type":"Feature"},{"geometry":{"coordinates":[-1.4139023,53.0618146],"type":"Point"},"id":"power_plants:98","properties":{"name":"Asher Lane 2 Generation Facility","operator":"Mercia Power Response","source":"gas"},"type":"Feature"},{"geometry":{"coordinates":[-1.0708887,52.9570712],"type":"Point"},"id":"power_plants:99","properties":{"name":"Private Road No. 5","operator":"Mercia Power Response","source":"gas"},"type":"Feature"},{"geometry":{"coordinates":[-1.0688451,52.9562327],"type":"Point"},"id":"power_plants:100","properties":{"name":"Unknown Gas Plant","operator":"Mercia Power Response","source":"gas"},"type":"Feature"},{"geometry":{"coordinates":[-0.7380956,52.0046654],"type":"Point"},"id":"power_plants:101","properties":{"name":"Lyon Road","operator":"UK Utility Reserve Limited","source":"gas"},"type":"Feature"},{"geometry":{"coordinates":[-1.8603385,52.5048872],"type":"Point"},"id":"power_plants:102","properties":{"name":"Cuckoo Road","operator":"Mercia Power Response","source":"gas"},"type":"Feature"},{"geometry":{"coordinates":[-1.2411334,52.9042049],"type":"Point"},"id":"power_plants:103","properties":{"name":"Toton STOR Site Nottingham Rd","operator":"Mercia Power Response","source":"gas"},"type":"Feature"},{"geometry":{"coordinates":[-1.1171421,53.3095674],"type":"Point"},"id":"power_plants:104","properties":{"name":"Albion Close STOR","operator":"Mercia Power Response","source":"gas"},"type":"Feature"},{"geometry":{"coordinates":[-2.1084357,52.5821483],"type":"Point"},"id":"power_plants:105","properties":{"name":"Wolverhampton Power","operator":"Wolverhampton Power Ltd","source":"gas"},"type":"Feature"},{"geometry":{"coordinates":[-1.9114199,52.2903578],"type":"Point"},"id":"power_plants:106","properties":{"name":"ISIS House STOR","operator":"Redditch Peaking Power Limited","source":"gas"},"type":"Feature"},{"geometry":{"coordinates":[-1.2191346,53.1326469],"type":"Point"},"id":"power_plants:107","properties":{"name":"Hermitage Lane","operator":"UK Power Reserve","source":"gas"},"type":"Feature"},{"geometry":{"coordinates":[-3.2322116,51.8004346],"type":"Point"},"id":"power_plants:108","properties":{"name":"Ogmore Power Station","operator":"Ogmore Power Limited","source":"gas"},"type":"Feature"},{"geometry":{"coordinates":[-1.3232424,52.9759718],"type":"Point"},"id":"power_plants:109","properties":{"name":"Unknown Gas Plant","operator":"Unknown Operator","source":"gas"},"type":"Feature"},{"geometry":{"coordinates":[-3.2228964,51.786693],"type":"Point"},"id":"power_plants:110","properties":{"name":"Clyne Power","operator":"Clyne Power Limited","source":"gas"},"type":"Feature"},{"geometry":{"coordinates":[-3.2230061,51.787273],"type":"Point"},"id":"power_plants:111","properties":{"name":"Nevern Power","operator":"Nevern Power Limited","source":"gas"},"type":"Feature"},{"geometry":{"coordinates":[-4.130683,51.6994229],"type":"Point"},"id":"power_plants:112","properties":{"name":"Llethri Road Dafen","operator":"Dafen Reserve Power Ltd","source":"gas"},"type":"Feature"},{"geometry":{"coordinates":[-2.9098835,50.9743696],"type":"Point"},"id":"power_plants:113","properties":{"name":"Bradon Farm Gen (Cantelo Nurseries)","operator":"UK Power Reserve Limited","source":"gas"},"type":"Feature"},{"geometry":{"coordinates":[-1.9121759,52.1066882],"type":"Point"},"id":"power_plants:114","properties":{"name":"Sandylands Nurseries CHP","operator":"Unknown Operator","source":"gas"},"type":"Feature"},{"geometry":{"coordinates":[-3.4550751,51.6286604],"type":"Point"},"id":"power_plants:115","properties":{"name":"Tonypandy STOR","operator":"Unknown Operator","source":"gas"},"type":"Feature"},{"geometry":{"coordinates":[-1.1886328,52.9237665],"type":"Point"},"id":"power_plants:116","properties":{"name":"Unknown Gas Plant","operator":"Unknown Operator","source":"gas"},"type":"Feature"},{"geometry":{"coordinates":[-1.4640288,52.8838544],"type":"Point"},"id":"power_plants:117","properties":{"name":"Derby Gas Power Station","operator":"Unknown Operator","source":"gas"},"type":"Feature"},{"geometry":{"coordinates":[-2.1809934,53.098527],"type":"Point"},"id":"power_plants:118","properties":{"name":"Knypersley Generation","operator":"Knypersley Power Limited","source":"gas"},"type":"Feature"},{"geometry":{"coordinates":[-0.7616152,52.0385713],"type":"Point"},"id":"power_plants:119","properties":{"name":"Unknown Gas Plant","operator":"ThamesWey Central Milton Keynes Ltd","source":"gas"},"type":"Feature"},{"geometry":{"coordinates":[-3.6106423,50.5731758],"type":"Point"},"id":"power_plants:120","properties":{"name":"Unknown Gas Plant","operator":"Viridor Waste Management Ltd","source":"gas"},"type":"Feature"},{"geometry":{"coordinates":[-3.6999288,51.5066921],"type":"Point"},"id":"power_plants:121","properties":{"name":"Unknown Gas Plant","operator":"Unknown Operator","source":"gas"},"type":"Feature"},{"geometry":{"coordinates":[-2.564821,51.5264781],"type":"Point"},"id":"power_plants:122","properties":{"name":"Bristol Energy","operator":"Whitetower Energy Limited","source":"gas"},"type":"Feature"},{"geometry":{"coordinates":[-2.1959254,52.9863835],"type":"Point"},"id":"power_plants:123","properties":{"name":"Michelin CHP","operator":"E.ON","source":"gas"},"type":"Feature"},{"geometry":{"coordinates":[-3.6955534,56.0110763],"type":"Point"},"id":"power_plants:124","properties":{"name":"Grangemouth CHP Power Plant","operator":"Unknown Operator","source":"gas"},"type":"Feature"},{"geometry":{"coordinates":[-1.2635211,51.624316],"type":"Point"},"id":"power_plants:125","properties":{"name":"Didcot OCGT","operator":"Unknown Operator","source":"gas"},"type":"Feature"},{"geometry":{"coordinates":[-1.2695753,51.6257502],"type":"Point"},"id":"power_plants:126","properties":{"name":"Didcot B Power Station","operator":"RWE","source":"gas"},"type":"Feature"},{"geometry":{"coordinates":[-1.1789743,52.934602],"type":"Point"},"id":"power_plants:127","properties":{"name":"Redfield Road Gas Generation Plant","operator":"Unknown Operator","source":"gas"},"type":"Feature"},{"geometry":{"coordinates":[-3.3370919,51.7712616],"type":"Point"},"id":"power_plants:128","properties":{"name":"Dowlais STOR East","operator":"Unknown Operator","source":"gas"},"type":"Feature"},{"geometry":{"coordinates":[-1.2677042,52.9009482],"type":"Point"},"id":"power_plants:129","properties":{"name":"Nottingham Road STOR","operator":"Unknown Operator","source":"gas"},"type":"Feature"},{"geometry":{"coordinates":[-1.6904206,50.9604095],"type":"Point"},"id":"power_plants:130","properties":{"name":"Unknown Gas Plant","operator":"Unknown Operator","source":"gas"},"type":"Feature"},{"geometry":{"coordinates":[-1.4736122,50.9497864],"type":"Point"},"id":"power_plants:131","properties":{"name":"Rownhams Generation Station","operator":"Keekle Power","source":"gas"},"type":"Feature"},{"geometry":{"coordinates":[-2.2638364,51.8650873],"type":"Point"},"id":"power_plants:132","properties":{"name":"Sudmeadow Road STOR","operator":"Unknown Operator","source":"gas"},"type":"Feature"},{"geometry":{"coordinates":[-1.2697561,53.0908012],"type":"Point"},"id":"power_plants:133","properties":{"name":"Kirkby-in-Ashfield Gas Peaking Plant","operator":"Infinis","source":"gas"},"type":"Feature"},{"geometry":{"coordinates":[-2.9763266,51.5473437],"type":"Point"},"id":"power_plants:134","properties":{"name":"Severn Power Station","operator":"Calon Energy","source":"gas"},"type":"Feature"},{"geometry":{"coordinates":[-1.1519928,51.043897],"type":"Point"},"id":"power_plants:135","properties":{"name":"Biomass Generator","operator":"National Trust","source":"gas"},"type":"Feature"},{"geometry":{"coordinates":[-2.5374363,53.7179995],"type":"Point"},"id":"power_plants:136","properties":{"name":"Blackburn Mill Power Station","operator":"Unknown Operator","source":"gas"},"type":"Feature"},{"geometry":{"coordinates":[-1.3815853,50.8503369],"type":"Point"},"id":"power_plants:137","properties":{"name":"Hythe CHP","operator":"RWE COGEN UK (HYTHE) LIMITED","source":"gas"},"type":"Feature"},{"geometry":{"coordinates":[-3.458851,50.751527],"type":"Point"},"id":"power_plants:138","properties":{"name":"Unknown Gas Plant","operator":"Unknown Operator","source":"gas"},"type":"Feature"},{"geometry":{"coordinates":[-1.3501251,50.9377363],"type":"Point"},"id":"power_plants:139","properties":{"name":"Unknown Gas Plant","operator":"Unknown Operator","source":"gas"},"type":"Feature"},{"geometry":{"coordinates":[-1.1769132,53.2082116],"type":"Point"},"id":"power_plants:140","properties":{"name":"Unknown Gas Plant","operator":"infinis","source":"gas"},"type":"Feature"},{"geometry":{"coordinates":[-3.7970621,51.5925896],"type":"Point"},"id":"power_plants:141","properties":{"name":"Port Talbot STOR","operator":"UK Power Reserve Ltd","source":"gas"},"type":"Feature"},{"geometry":{"coordinates":[-3.0310369,53.8487892],"type":"Point"},"id":"power_plants:142","properties":{"name":"Bispham Flexible Generation","operator":"Unknown Operator","source":"gas"},"type":"Feature"},{"geometry":{"coordinates":[-1.2685897,54.5881057],"type":"Point"},"id":"power_plants:143","properties":{"name":"Unknown Gas Plant","operator":"Unknown Operator","source":"gas"},"type":"Feature"},{"geometry":{"coordinates":[-1.2910315,54.702682],"type":"Point"},"id":"power_plants:144","properties":{"name":"Hartmoor Generation","operator":"Forsa Energy","source":"gas"},"type":"Feature"},{"geometry":{"coordinates":[-2.4246298,53.1872897],"type":"Point"},"id":"power_plants:145","properties":{"name":"Middlewich Power Generation Plant","operator":"Conrad Energy","source":"gas"},"type":"Feature"},{"geometry":{"coordinates":[-1.2437121,54.6072868],"type":"Point"},"id":"power_plants:146","properties":{"name":"Saltholme South Power Station","operator":"Statera Energy Operations","source":"gas"},"type":"Feature"},{"geometry":{"coordinates":[-1.2438947,54.6078157],"type":"Point"},"id":"power_plants:147","properties":{"name":"Saltholme North Power Station","operator":"Statera Energy Operations","source":"gas"},"type":"Feature"},{"geometry":{"coordinates":[-0.4180141,53.7975485],"type":"Point"},"id":"power_plants:148","properties":{"name":"Creyke Beck Power","operator":"Statera Energy","source":"gas"},"type":"Feature"},{"geometry":{"coordinates":[-1.140264,51.5962368],"type":"Point"},"id":"power_plants:149","properties":{"name":"Lester Way Flexible Generation Facility","operator":"Conrad Energy","source":"gas"},"type":"Feature"},{"geometry":{"coordinates":[-2.9978258,51.1360332],"type":"Point"},"id":"power_plants:150","properties":{"name":"The Drove Power Plant","operator":"Unknown Operator","source":"gas"},"type":"Feature"},{"geometry":{"coordinates":[-2.6430881,53.782238],"type":"Point"},"id":"power_plants:151","properties":{"name":"Red Scar Peaking Plant","operator":"Unknown Operator","source":"gas"},"type":"Feature"},{"geometry":{"coordinates":[-2.4894462,50.6233884],"type":"Point"},"id":"power_plants:152","properties":{"name":"Chickerell Power Station","operator":"Unknown Operator","source":"gas"},"type":"Feature"},{"geometry":{"coordinates":[-0.7496749,53.5947281],"type":"Point"},"id":"power_plants:153","properties":{"name":"Keadby Power Station","operator":"SSE Thermal","source":"gas"},"type":"Feature"},{"geometry":{"coordinates":[-2.3643642,53.7757146],"type":"Point"},"id":"power_plants:154","properties":{"name":"Moorfield Drive Power Station","operator":"Unknown Operator","source":"gas"},"type":"Feature"},{"geometry":{"coordinates":[-2.3150967,53.5262804],"type":"Point"},"id":"power_plants:155","properties":{"name":"Rake Lane Power Station","operator":"Unknown Operator","source":"gas"},"type":"Feature"},{"geometry":{"coordinates":[-2.4682452,53.7073254],"type":"Point"},"id":"power_plants:156","properties":{"name":"Goose House Lane Power Station","operator":"Unknown Operator","source":"gas"},"type":"Feature"},{"geometry":{"coordinates":[-3.047173,53.4028751],"type":"Point"},"id":"power_plants:157","properties":{"name":"Beaufort Road Power Station","operator":"Sembcorp","source":"gas"},"type":"Feature"},{"geometry":{"coordinates":[0.3878373,51.6381511],"type":"Point"},"id":"power_plants:158","properties":{"name":"Unknown Gas Plant","operator":"Unknown Operator","source":"gas"},"type":"Feature"},{"geometry":{"coordinates":[0.7565588,51.3640815],"type":"Point"},"id":"power_plants:159","properties":{"name":"Unknown Gas Plant","operator":"Unknown Operator","source":"gas"},"type":"Feature"},{"geometry":{"coordinates":[0.7269447,52.2548893],"type":"Point"},"id":"power_plants:160","properties":{"name":"Unknown Gas Plant","operator":"Unknown Operator","source":"gas"},"type":"Feature"},{"geometry":{"coordinates":[-0.2031948,52.5757416],"type":"Point"},"id":"power_plants:161","properties":{"name":"Peterborough STOR","operator":"Centrica","source":"gas"},"type":"Feature"},{"geometry":{"coordinates":[-0.5080306,53.5411014],"type":"Point"},"id":"power_plants:162","properties":{"name":"Brigg STOR","operator":"Centrica","source":"gas"},"type":"Feature"},{"geometry":{"coordinates":[-3.24486,51.7981042],"type":"Point"},"id":"power_plants:163","properties":{"name":"Beaufort Power Station","operator":"Velox Power Limited","source":"gas"},"type":"Feature"},{"geometry":{"coordinates":[-0.1222397,51.4482389],"type":"Point"},"id":"power_plants:164","properties":{"name":"Boiler House","operator":"Unknown Operator","source":"gas"},"type":"Feature"},{"geometry":{"coordinates":[-0.5126846,51.9369098],"type":"Point"},"id":"power_plants:165","properties":{"name":"Unknown Gas Plant","operator":"Unknown Operator","source":"gas"},"type":"Feature"},{"geometry":{"coordinates":[-2.0204061,52.5444392],"type":"Point"},"id":"power_plants:166","properties":{"name":"Sandwell Gas Reserve Power Plant (g2 Energy)","operator":"GB Energy","source":"gas"},"type":"Feature"},{"geometry":{"coordinates":[-3.4161043,51.6975177],"type":"Point"},"id":"power_plants:167","properties":{"name":"Aberdare Power Station","operator":"Sembcorp Energy UK Limited","source":"gas"},"type":"Feature"},{"geometry":{"coordinates":[-0.116138,51.376425],"type":"Point"},"id":"power_plants:168","properties":{"name":"Croydon Power plant","operator":"Whitetower Energy","source":"gas"},"type":"Feature"},{"geometry":{"coordinates":[-4.7104655,55.9171612],"type":"Point"},"id":"power_plants:169","properties":{"name":"Harelaw Peaking Plant","operator":"Forsa Energy","source":"gas"},"type":"Feature"},{"geometry":{"coordinates":[-2.1648645,53.5286694],"type":"Point"},"id":"power_plants:170","properties":{"name":"Chadderton Generation","operator":"Unknown Operator","source":"gas"},"type":"Feature"},{"geometry":{"coordinates":[-2.0204363,52.4920879],"type":"Point"},"id":"power_plants:171","properties":{"name":"Oldbury Standby Power Generation Plant","operator":"Conrad Energy","source":"gas"},"type":"Feature"},{"geometry":{"coordinates":[-4.2174061,55.8376739],"type":"Point"},"id":"power_plants:172","properties":{"name":"Energy Centre","operator":"Unknown Operator","source":"gas"},"type":"Feature"},{"geometry":{"coordinates":[-1.3773956,50.8338199],"type":"Point"},"id":"power_plants:173","properties":{"name":"Unknown Gas Plant","operator":"Unknown Operator","source":"gas"},"type":"Feature"},{"geometry":{"coordinates":[-3.122897,55.9282012],"type":"Point"},"id":"power_plants:174","properties":{"name":"Greendykes Communal Heating","operator":"City of Edinburgh Council","source":"gas"},"type":"Feature"},{"geometry":{"coordinates":[-2.142296,53.542553],"type":"Point"},"id":"power_plants:175","properties":{"name":"Stock Lane Power Station","operator":"Sembcorp","source":"gas"},"type":"Feature"},{"geometry":{"coordinates":[-4.4841317,55.9022944],"type":"Point"},"id":"power_plants:176","properties":{"name":"Erskine Gas Generation","operator":"Erskine Gas Generation Ltd","source":"gas"},"type":"Feature"},{"geometry":{"coordinates":[-3.5243757,50.7067565],"type":"Point"},"id":"power_plants:177","properties":{"name":"Exeter Gas Power Station","operator":"Rockland Capital","source":"gas"},"type":"Feature"}],"type":"FeatureCollection"}
