{"feature_count":105,"features":[{"geometry":{"coordinates":[-0.9039867,52.0482161],"type":"Point"},"id":"GG2050-REPD-7307","properties":{"capacity_mw":5.0,"gg_project_id":"GG2050-REPD-7307","name":"Silver Spinney Farm","operator":"Thrive Renewables","repd_ref":"7307","repd_technology":"Battery","status":"Under Construction","technology":"bess"},"type":"Feature"},{"geometry":{"coordinates":[-4.9532017,50.4295673],"type":"Point"},"id":"GG2050-REPD-18708","properties":{"capacity_mw":5.0,"gg_project_id":"GG2050-REPD-18708","name":"St Columb Major - Battery Energy Storage Facility","operator":"Aldustria Energy Storage","repd_ref":"18708","repd_technology":"Battery","status":"Awaiting Construction","technology":"bess"},"type":"Feature"},{"geometry":{"coordinates":[-4.6190239,57.9548391],"type":"Point"},"id":"GG2050-REPD-12291","properties":{"capacity_mw":5.0,"gg_project_id":"GG2050-REPD-12291","name":"Strath Oykel Wind Farm","operator":"Energiekontor (UK) Limited","repd_ref":"12291","repd_technology":"Battery","status":"Awaiting Construction","technology":"bess"},"type":"Feature"},{"geometry":{"coordinates":[0.2867432,50.7890104],"type":"Point"},"id":"GG2050-REPD-14403","properties":{"capacity_mw":5.0,"gg_project_id":"GG2050-REPD-14403","name":"Suncoast Battery Storage","operator":"Low Carbon Solar Park 20 Limited","repd_ref":"14403","repd_technology":"Battery","status":"Awaiting Construction","technology":"bess"},"type":"Feature"},{"geometry":{"coordinates":[-1.8642653,53.7470909],"type":"Point"},"id":"GG2050-REPD-7725","properties":{"capacity_mw":5.0,"gg_project_id":"GG2050-REPD-7725","name":"Swales Moor Farm","operator":"Bouygues Energies","repd_ref":"7725","repd_technology":"Battery","status":"Planning Permission Expired","technology":"bess"},"type":"Feature"},{"geometry":{"coordinates":[-2.7220854,53.6987102],"type":"Point"},"id":"GG2050-REPD-8031","properties":{"capacity_mw":5.0,"gg_project_id":"GG2050-REPD-8031","name":"The Glowhouse","operator":"AMP Clean Energy","repd_ref":"8031","repd_technology":"Battery","status":"Under Construction","technology":"bess"},"type":"Feature"},{"geometry":{"coordinates":[-2.1855258,51.4808647],"type":"Point"},"id":"GG2050-REPD-7073","properties":{"capacity_mw":5.0,"gg_project_id":"GG2050-REPD-7073","name":"Tiddlywink Barn","operator":"Conrad (Calne)","repd_ref":"7073","repd_technology":"Battery","status":"Revised","technology":"bess"},"type":"Feature"},{"geometry":{"coordinates":[-4.2873789,57.7689969],"type":"Point"},"id":"GG2050-REPD-11451","properties":{"capacity_mw":5.0,"gg_project_id":"GG2050-REPD-11451","name":"Torr Leathann, Ardross - Battery Storage","operator":"Energiekontor","repd_ref":"11451","repd_technology":"Battery","status":"Application Refused","technology":"bess"},"type":"Feature"},{"geometry":{"coordinates":[-4.9487218,50.4304456],"type":"Point"},"id":"GG2050-REPD-12912","properties":{"capacity_mw":5.0,"gg_project_id":"GG2050-REPD-12912","name":"Trekenning Farm - Battery Storage Facility & Co-Op","operator":"Wessex Strategic","repd_ref":"12912","repd_technology":"Battery","status":"Awaiting Construction","technology":"bess"},"type":"Feature"},{"geometry":{"coordinates":[-0.180157,53.6065387],"type":"Point"},"id":"GG2050-REPD-10872","properties":{"capacity_mw":5.0,"gg_project_id":"GG2050-REPD-10872","name":"Trondheim Way - Battery Storage Facility","operator":"Vox Energy Limited","repd_ref":"10872","repd_technology":"Battery","status":"Awaiting Construction","technology":"bess"},"type":"Feature"},{"geometry":{"coordinates":[-0.5151745,51.394794],"type":"Point"},"id":"GG2050-REPD-12205","properties":{"capacity_mw":5.0,"gg_project_id":"GG2050-REPD-12205","name":"Twynersh Meadows, Thorpe Road - Solar Park & Battery Storage","operator":"Runnymede Borough Council","repd_ref":"12205","repd_technology":"Battery","status":"Application Submitted","technology":"bess"},"type":"Feature"},{"geometry":{"coordinates":[-0.0597169,51.8121511],"type":"Point"},"id":"GG2050-REPD-16729","properties":{"capacity_mw":5.0,"gg_project_id":"GG2050-REPD-16729","name":"Ware Solar Park - Solar Farm & Battery Energy Storage","operator":"The Farm Energy Company","repd_ref":"16729","repd_technology":"Battery","status":"Awaiting Construction","technology":"bess"},"type":"Feature"},{"geometry":{"coordinates":[-0.196017,51.8022359],"type":"Point"},"id":"GG2050-REPD-11536","properties":{"capacity_mw":5.0,"gg_project_id":"GG2050-REPD-11536","name":"Welwyn Power - Energy Storage Facility","operator":"AMP Energy Services Limited","repd_ref":"11536","repd_technology":"Battery","status":"Awaiting Construction","technology":"bess"},"type":"Feature"},{"geometry":{"coordinates":[-2.4203838,53.5904478],"type":"Point"},"id":"GG2050-REPD-9615","properties":{"capacity_mw":4.8,"gg_project_id":"GG2050-REPD-9615","name":"Union Court Storage Facility","operator":"Infinis Solar Developments Limited","repd_ref":"9615","repd_technology":"Battery","status":"Awaiting Construction","technology":"bess"},"type":"Feature"},{"geometry":{"coordinates":[-1.2052189,53.8100765],"type":"Point"},"id":"GG2050-REPD-16640","properties":{"capacity_mw":4.7,"gg_project_id":"GG2050-REPD-16640","name":"Woodcock Solar Farm, Sweeming Lane - Battery Energy Storage","operator":"AEUK Solar Project IX","repd_ref":"16640","repd_technology":"Battery","status":"Application Submitted","technology":"bess"},"type":"Feature"},{"geometry":{"coordinates":[-0.0685911,52.0483647],"type":"Point"},"id":"GG2050-REPD-13005","properties":{"capacity_mw":4.5,"gg_project_id":"GG2050-REPD-13005","name":"Highfield Farm, Royston Road - Solar Farm & Battery Storage","operator":"Grupotec Solar 3 UK Limited","repd_ref":"13005","repd_technology":"Battery","status":"Awaiting Construction","technology":"bess"},"type":"Feature"},{"geometry":{"coordinates":[1.3489139,52.7576002],"type":"Point"},"id":"GG2050-REPD-19344","properties":{"capacity_mw":4.35,"gg_project_id":"GG2050-REPD-19344","name":"Scottow Solar Farm - Battery Storage","operator":"Connected Energy Limited","repd_ref":"19344","repd_technology":"Battery","status":"Awaiting Construction","technology":"bess"},"type":"Feature"},{"geometry":{"coordinates":[-1.0189755,52.5285351],"type":"Point"},"id":"GG2050-REPD-7110","properties":{"capacity_mw":4.2,"gg_project_id":"GG2050-REPD-7110","name":"Sunnydale Farm","operator":"British Solar Renewables (Sunnydale Farm Energy Storage)","repd_ref":"7110","repd_technology":"Battery","status":"Abandoned","technology":"bess"},"type":"Feature"},{"geometry":{"coordinates":[-2.0905697,52.5521163],"type":"Point"},"id":"GG2050-REPD-7156","properties":{"capacity_mw":4.0,"gg_project_id":"GG2050-REPD-7156","name":"Anchor Lane Energy Centre","operator":"Suncredit","repd_ref":"7156","repd_technology":"Battery","status":"Operational","technology":"bess"},"type":"Feature"},{"geometry":{"coordinates":[-1.9055675,54.5512179],"type":"Point"},"id":"GG2050-REPD-14840","properties":{"capacity_mw":4.0,"gg_project_id":"GG2050-REPD-14840","name":"Barnard Castle - Solar Farm & Battery Storage System","operator":"Farm Energy Company","repd_ref":"14840","repd_technology":"Battery","status":"Awaiting Construction","technology":"bess"},"type":"Feature"},{"geometry":{"coordinates":[-1.9794776,51.4410068],"type":"Point"},"id":"GG2050-REPD-16058","properties":{"capacity_mw":4.0,"gg_project_id":"GG2050-REPD-16058","name":"Sands Farm Quarry, Low Lane - Battery Storage","operator":"Valencia Waster Management Limited","repd_ref":"16058","repd_technology":"Battery","status":"Application Submitted","technology":"bess"},"type":"Feature"},{"geometry":{"coordinates":[-1.2138581,51.9318302],"type":"Point"},"id":"GG2050-REPD-16001","properties":{"capacity_mw":4.0,"gg_project_id":"GG2050-REPD-16001","name":"Station Road, Ardley - Solar Farm & Battery Energy Storage System","operator":"Valencia Waster Management Limited","repd_ref":"16001","repd_technology":"Battery","status":"Application Submitted","technology":"bess"},"type":"Feature"},{"geometry":{"coordinates":[-3.4881596,55.478041],"type":"Point"},"id":"GG2050-REPD-6894","properties":{"capacity_mw":4.0,"gg_project_id":"GG2050-REPD-6894","name":"Whitelaw Brae Wind farm","operator":"Thrive Renewables","repd_ref":"6894","repd_technology":"Battery","status":"Awaiting Construction","technology":"bess"},"type":"Feature"},{"geometry":{"coordinates":[-3.0179329,55.7810375],"type":"Point"},"id":"GG2050-REPD-7430","properties":{"capacity_mw":4.0,"gg_project_id":"GG2050-REPD-7430","name":"Wull Muir Wind Farm","operator":"EnergieKontor UK","repd_ref":"7430","repd_technology":"Battery","status":"Revised","technology":"bess"},"type":"Feature"},{"geometry":{"coordinates":[-4.7802089,54.949877],"type":"Point"},"id":"GG2050-REPD-17809","properties":{"capacity_mw":3.8,"gg_project_id":"GG2050-REPD-17809","name":"Craig Nab Wind Energy Hub - Wind Farm","operator":"Belltown Power Limited","repd_ref":"17809","repd_technology":"Battery","status":"Application Submitted","technology":"bess"},"type":"Feature"},{"geometry":{"coordinates":[0.3530108,51.4675666],"type":"Point"},"id":"GG2050-REPD-7027","properties":{"capacity_mw":3.8,"gg_project_id":"GG2050-REPD-7027","name":"London Distribution Park","operator":"Amazon UK Services / Push Energy","repd_ref":"7027","repd_technology":"Battery","status":"Operational","technology":"bess"},"type":"Feature"},{"geometry":{"coordinates":[-4.0877948,51.0649947],"type":"Point"},"id":"GG2050-REPD-7099","properties":{"capacity_mw":3.8,"gg_project_id":"GG2050-REPD-7099","name":"Philip Dennis Food Service","operator":"Philip Dennis Food Service","repd_ref":"7099","repd_technology":"Battery","status":"Operational","technology":"bess"},"type":"Feature"},{"geometry":{"coordinates":[-1.4363259,53.7251436],"type":"Point"},"id":"GG2050-REPD-15807","properties":{"capacity_mw":3.4,"gg_project_id":"GG2050-REPD-15807","name":"Phoenix Healthcare Distribution Centre - Battery Storage","operator":"Phoenix Medical Supplies","repd_ref":"15807","repd_technology":"Battery","status":"Awaiting Construction","technology":"bess"},"type":"Feature"},{"geometry":{"coordinates":[-3.9657623,55.9290658],"type":"Point"},"id":"GG2050-REPD-21003","properties":{"capacity_mw":3.1,"gg_project_id":"GG2050-REPD-21003","name":"Glenhove Pumping Station, Glenhove Road - BESS","operator":"Scottish Water","repd_ref":"21003","repd_technology":"Battery","status":"Application Submitted","technology":"bess"},"type":"Feature"},{"geometry":{"coordinates":[-1.3606956,53.7503266],"type":"Point"},"id":"GG2050-REPD-7158","properties":{"capacity_mw":3.0,"gg_project_id":"GG2050-REPD-7158","name":"Barnsdale Road","operator":"Flexygen","repd_ref":"7158","repd_technology":"Battery","status":"Application Withdrawn","technology":"bess"},"type":"Feature"},{"geometry":{"coordinates":[-2.2282877,50.8021424],"type":"Point"},"id":"GG2050-REPD-8462","properties":{"capacity_mw":3.0,"gg_project_id":"GG2050-REPD-8462","name":"Blandford Hill - EV Charging Station & Solar Farm","operator":"Naturalis Energy Developments Limited","repd_ref":"8462","repd_technology":"Battery","status":"Awaiting Construction","technology":"bess"},"type":"Feature"},{"geometry":{"coordinates":[-3.3335495,51.1802696],"type":"Point"},"id":"GG2050-REPD-9496","properties":{"capacity_mw":3.0,"gg_project_id":"GG2050-REPD-9496","name":"Brendon Road - Battery Storage","operator":"Huntley Wood Investments Limited","repd_ref":"9496","repd_technology":"Battery","status":"Planning Permission Expired","technology":"bess"},"type":"Feature"},{"geometry":{"coordinates":[-2.7334589,54.9341675],"type":"Point"},"id":"GG2050-REPD-16377","properties":{"capacity_mw":3.0,"gg_project_id":"GG2050-REPD-16377","name":"Capon Tree Road - Battery Energy Storage","operator":"Prime Energy Limited","repd_ref":"16377","repd_technology":"Battery","status":"Awaiting Construction","technology":"bess"},"type":"Feature"},{"geometry":{"coordinates":[-6.2438197,54.6801236],"type":"Point"},"id":"GG2050-REPD-8171","properties":{"capacity_mw":3.0,"gg_project_id":"GG2050-REPD-8171","name":"Dunore Point Treatment Works","operator":"NI Water","repd_ref":"8171","repd_technology":"Battery","status":"Awaiting Construction","technology":"bess"},"type":"Feature"},{"geometry":{"coordinates":[-3.1296281,57.4457744],"type":"Point"},"id":"GG2050-REPD-8469","properties":{"capacity_mw":3.0,"gg_project_id":"GG2050-REPD-8469","name":"Garbet Windfarm - Wind Farm & Storage facility","operator":"Energiekontor UK Limited","repd_ref":"8469","repd_technology":"Battery","status":"Under Construction","technology":"bess"},"type":"Feature"},{"geometry":{"coordinates":[1.2413721,51.8441703],"type":"Point"},"id":"GG2050-REPD-9766","properties":{"capacity_mw":3.0,"gg_project_id":"GG2050-REPD-9766","name":"Halstead Road Eco Hub - Solar Farm & Battery Storage","operator":"Naturalis Energy Developments Limited","repd_ref":"9766","repd_technology":"Battery","status":"Application Refused","technology":"bess"},"type":"Feature"},{"geometry":{"coordinates":[-2.7610849,53.506978],"type":"Point"},"id":"GG2050-REPD-12114","properties":{"capacity_mw":3.0,"gg_project_id":"GG2050-REPD-12114","name":"Holiday Moss Landfill Site, Reeds Brow - Battery Storage","operator":"Biffa Waste Services Limited","repd_ref":"12114","repd_technology":"Battery","status":"Awaiting Construction","technology":"bess"},"type":"Feature"},{"geometry":{"coordinates":[-4.3634607,50.6254844],"type":"Point"},"id":"GG2050-REPD-12112","properties":{"capacity_mw":3.0,"gg_project_id":"GG2050-REPD-12112","name":"Link Road - Battery Storage","operator":"Aldustria Energy Storage","repd_ref":"12112","repd_technology":"Battery","status":"Awaiting Construction","technology":"bess"},"type":"Feature"},{"geometry":{"coordinates":[-3.6829871,50.3480126],"type":"Point"},"id":"GG2050-REPD-16229","properties":{"capacity_mw":3.0,"gg_project_id":"GG2050-REPD-16229","name":"Town Farm, Blackawton - Battery Storage System","operator":"Aldustria Energy Storage","repd_ref":"16229","repd_technology":"Battery","status":"Application Withdrawn","technology":"bess"},"type":"Feature"},{"geometry":{"coordinates":[-0.4439322,53.2648213],"type":"Point"},"id":"GG2050-REPD-11792","properties":{"capacity_mw":3.0,"gg_project_id":"GG2050-REPD-11792","name":"Welton Gathering Centre, Sudbrooke - Battery Storage","operator":"Island Gas Limited","repd_ref":"11792","repd_technology":"Battery","status":"Application Submitted","technology":"bess"},"type":"Feature"},{"geometry":{"coordinates":[-0.426165,52.6110827],"type":"Point"},"id":"GG2050-REPD-7631","properties":{"capacity_mw":3.0,"gg_project_id":"GG2050-REPD-7631","name":"Wittering Ford Road","operator":"Solar Charging (Lark Energy)","repd_ref":"7631","repd_technology":"Battery","status":"Awaiting Construction","technology":"bess"},"type":"Feature"},{"geometry":{"coordinates":[-2.0794533,53.0409361],"type":"Point"},"id":"GG2050-REPD-12448","properties":{"capacity_mw":2.6,"gg_project_id":"GG2050-REPD-12448","name":"Cellarhead Substation, Rownall Road - Battery Storage","operator":"Sirius Renewable Energy Limited","repd_ref":"12448","repd_technology":"Battery","status":"Application Submitted","technology":"bess"},"type":"Feature"},{"geometry":{"coordinates":[-2.0743016,53.0459644],"type":"Point"},"id":"GG2050-REPD-10653","properties":{"capacity_mw":2.6,"gg_project_id":"GG2050-REPD-10653","name":"Rownall Road, Wetley Rocks - Battery Storage","operator":"Sirius Renewable Energy Limited","repd_ref":"10653","repd_technology":"Battery","status":"Revised","technology":"bess"},"type":"Feature"},{"geometry":{"coordinates":[-2.1377323,53.541555],"type":"Point"},"id":"GG2050-REPD-10849","properties":{"capacity_mw":2.5,"gg_project_id":"GG2050-REPD-10849","name":"Chadderton - Battery Storage System","operator":"Zetex Plc","repd_ref":"10849","repd_technology":"Battery","status":"Awaiting Construction","technology":"bess"},"type":"Feature"},{"geometry":{"coordinates":[-2.1428959,55.0353252],"type":"Point"},"id":"GG2050-REPD-12841","properties":{"capacity_mw":2.5,"gg_project_id":"GG2050-REPD-12841","name":"Halfway House, Lincoln Hill - Energy Storage","operator":"Humshaugh Net Zero","repd_ref":"12841","repd_technology":"Battery","status":"Awaiting Construction","technology":"bess"},"type":"Feature"},{"geometry":{"coordinates":[-1.559173,54.5462736],"type":"Point"},"id":"GG2050-REPD-6856","properties":{"capacity_mw":2.5,"gg_project_id":"GG2050-REPD-6856","name":"Rise Carr, Darlington / CLNR EES3-1","operator":"Northern Powergrid","repd_ref":"6856","repd_technology":"Battery","status":"Operational","technology":"bess"},"type":"Feature"},{"geometry":{"coordinates":[0.1551397,51.5049689],"type":"Point"},"id":"GG2050-REPD-8261","properties":{"capacity_mw":2.5,"gg_project_id":"GG2050-REPD-8261","name":"Riverside Resource Recovery Facility Battery Storage","operator":"Riverside Resource Recovery Limited","repd_ref":"8261","repd_technology":"Battery","status":"Under Construction","technology":"bess"},"type":"Feature"},{"geometry":{"coordinates":[0.7775409,52.775333],"type":"Point"},"id":"GG2050-REPD-18193","properties":{"capacity_mw":2.4,"gg_project_id":"GG2050-REPD-18193","name":"Uphouse Farm - Sandpits Solar Farm & Battery Energy storage","operator":"Uphouse Farms Limited","repd_ref":"18193","repd_technology":"Battery","status":"Awaiting Construction","technology":"bess"},"type":"Feature"},{"geometry":{"coordinates":[-2.0718827,51.8921203],"type":"Point"},"id":"GG2050-REPD-9515","properties":{"capacity_mw":2.185,"gg_project_id":"GG2050-REPD-9515","name":"Cheltenham General Hospital - Battery Energy Storage System","operator":"Gloucestershire Hospitals NHS Foundation Trust","repd_ref":"9515","repd_technology":"Battery","status":"Awaiting Construction","technology":"bess"},"type":"Feature"},{"geometry":{"coordinates":[-3.3209917,51.7674573],"type":"Point"},"id":"GG2050-REPD-12749","properties":{"capacity_mw":2.0,"gg_project_id":"GG2050-REPD-12749","name":"Biffa Waste Services, Fochriw Road - Battery Storage","operator":"Biffa Waste Services","repd_ref":"12749","repd_technology":"Battery","status":"Awaiting Construction","technology":"bess"},"type":"Feature"},{"geometry":{"coordinates":[-3.0551117,53.4123468],"type":"Point"},"id":"GG2050-REPD-6992","properties":{"capacity_mw":2.0,"gg_project_id":"GG2050-REPD-6992","name":"Burbo Bank Energy Storage","operator":"Ørsted","repd_ref":"6992","repd_technology":"Battery","status":"Operational","technology":"bess"},"type":"Feature"},{"geometry":{"coordinates":[-2.8262895,53.7534048],"type":"Point"},"id":"GG2050-REPD-7994","properties":{"capacity_mw":2.0,"gg_project_id":"GG2050-REPD-7994","name":"Clifton Marsh Waste Water Treatment Works","operator":"United Utilities","repd_ref":"7994","repd_technology":"Battery","status":"Operational","technology":"bess"},"type":"Feature"},{"geometry":{"coordinates":[-2.0576359,52.5850128],"type":"Point"},"id":"GG2050-REPD-6846","properties":{"capacity_mw":2.0,"gg_project_id":"GG2050-REPD-6846","name":"EPSRC Willenhall","operator":"University of Sheffield/ Eon/ Uniper","repd_ref":"6846","repd_technology":"Battery","status":"Operational","technology":"bess"},"type":"Feature"},{"geometry":{"coordinates":[-1.6296953,53.7426236],"type":"Point"},"id":"GG2050-REPD-12596","properties":{"capacity_mw":2.0,"gg_project_id":"GG2050-REPD-12596","name":"Former Howden Clough, Howden Clough Road - Battery Units","operator":"Biffa Waste Services Limited","repd_ref":"12596","repd_technology":"Battery","status":"Awaiting Construction","technology":"bess"},"type":"Feature"},{"geometry":{"coordinates":[-0.5091879,51.4772128],"type":"Point"},"id":"GG2050-REPD-15074","properties":{"capacity_mw":2.0,"gg_project_id":"GG2050-REPD-15074","name":"Galleymead House, Old Bath Road - Battery Storage","operator":"Power & Energy Fields Limited","repd_ref":"15074","repd_technology":"Battery","status":"Application Refused","technology":"bess"},"type":"Feature"},{"geometry":{"coordinates":[-0.9810915,51.1145394],"type":"Point"},"id":"GG2050-REPD-11951","properties":{"capacity_mw":2.0,"gg_project_id":"GG2050-REPD-11951","name":"Gaston Lane, Farringdon - Solar Farm & Battery Storage","operator":"Quintas Energy UK Limited","repd_ref":"11951","repd_technology":"Battery","status":"Application Submitted","technology":"bess"},"type":"Feature"},{"geometry":{"coordinates":[-4.1190454,51.7027642],"type":"Point"},"id":"GG2050-REPD-16839","properties":{"capacity_mw":2.0,"gg_project_id":"GG2050-REPD-16839","name":"Glyngwernen Farm, Uchaf Fawr - Battery Storage","operator":"Bartypower Limited","repd_ref":"16839","repd_technology":"Battery","status":"Awaiting Construction","technology":"bess"},"type":"Feature"},{"geometry":{"coordinates":[-5.1631756,54.9319576],"type":"Point"},"id":"GG2050-REPD-14033","properties":{"capacity_mw":2.0,"gg_project_id":"GG2050-REPD-14033","name":"Knocknain Farm, Leswalt - Battery Storage Unit","operator":"Knocknain Developments Limited","repd_ref":"14033","repd_technology":"Battery","status":"Awaiting Construction","technology":"bess"},"type":"Feature"},{"geometry":{"coordinates":[-1.0750836,50.8390435],"type":"Point"},"id":"GG2050-REPD-15004","properties":{"capacity_mw":2.0,"gg_project_id":"GG2050-REPD-15004","name":"Lakeside Business Park","operator":"Custom Solar Limited","repd_ref":"15004","repd_technology":"Battery","status":"Under Construction","technology":"bess"},"type":"Feature"},{"geometry":{"coordinates":[-2.8247247,53.568838],"type":"Point"},"id":"GG2050-REPD-7037","properties":{"capacity_mw":2.0,"gg_project_id":"GG2050-REPD-7037","name":"Lathom (Pilkington Technical Centre) Battery Storage","operator":"Lightsource BP","repd_ref":"7037","repd_technology":"Battery","status":"Operational","technology":"bess"},"type":"Feature"},{"geometry":{"coordinates":[-2.9624354,58.9842869],"type":"Point"},"id":"GG2050-REPD-6862","properties":{"capacity_mw":2.0,"gg_project_id":"GG2050-REPD-6862","name":"Orkney Storage Park Project","operator":"Scottish Hydroelectric Power Distribution (SHEPD)","repd_ref":"6862","repd_technology":"Battery","status":"Operational","technology":"bess"},"type":"Feature"},{"geometry":{"coordinates":[-1.3930694,51.0880071],"type":"Point"},"id":"GG2050-REPD-7100","properties":{"capacity_mw":2.0,"gg_project_id":"GG2050-REPD-7100","name":"Sparsholt college","operator":"Sparsholt College (formerly Ecotricity)","repd_ref":"7100","repd_technology":"Battery","status":"Planning Permission Expired","technology":"bess"},"type":"Feature"},{"geometry":{"coordinates":[-0.5068497,51.8911783],"type":"Point"},"id":"GG2050-REPD-7016","properties":{"capacity_mw":1.7,"gg_project_id":"GG2050-REPD-7016","name":"Dc1 Boscombe Road","operator":"Amazon UK Services / Push Energy","repd_ref":"7016","repd_technology":"Battery","status":"Planning Permission Expired","technology":"bess"},"type":"Feature"},{"geometry":{"coordinates":[-1.4034567,51.8429255],"type":"Point"},"id":"GG2050-REPD-13502","properties":{"capacity_mw":1.5,"gg_project_id":"GG2050-REPD-13502","name":"Akeman Solar Park & Battery Storage","operator":"British Solar Renewables","repd_ref":"13502","repd_technology":"Battery","status":"Revised","technology":"bess"},"type":"Feature"},{"geometry":{"coordinates":[-1.4931238,51.8282768],"type":"Point"},"id":"GG2050-REPD-18340","properties":{"capacity_mw":1.5,"gg_project_id":"GG2050-REPD-18340","name":"Akeman Solar Park & Battery Storage","operator":"British Solar Renewables","repd_ref":"18340","repd_technology":"Battery","status":"Application Refused","technology":"bess"},"type":"Feature"},{"geometry":{"coordinates":[-1.4931238,51.8282768],"type":"Point"},"id":"GG2050-REPD-9359","properties":{"capacity_mw":1.5,"gg_project_id":"GG2050-REPD-9359","name":"Akeman Solar Park & Battery Storage","operator":"British Solar Renewables","repd_ref":"9359","repd_technology":"Battery","status":"Revised","technology":"bess"},"type":"Feature"},{"geometry":{"coordinates":[-1.3943089,51.024753],"type":"Point"},"id":"GG2050-REPD-16242","properties":{"capacity_mw":1.5,"gg_project_id":"GG2050-REPD-16242","name":"IBM Hursley - Battery Storage","operator":"IBM UK Limited","repd_ref":"16242","repd_technology":"Battery","status":"Awaiting Construction","technology":"bess"},"type":"Feature"},{"geometry":{"coordinates":[-1.2056836,52.619125],"type":"Point"},"id":"GG2050-REPD-6995","properties":{"capacity_mw":1.5,"gg_project_id":"GG2050-REPD-6995","name":"Land at and adjacent to Leicester Forest Services","operator":"Camborne Energy Storage","repd_ref":"6995","repd_technology":"Battery","status":"Operational","technology":"bess"},"type":"Feature"},{"geometry":{"coordinates":[-2.1711912,51.8965129],"type":"Point"},"id":"GG2050-REPD-7242","properties":{"capacity_mw":1.5,"gg_project_id":"GG2050-REPD-7242","name":"Meteor Business Park","operator":"Safran Landing Systems","repd_ref":"7242","repd_technology":"Battery","status":"Operational","technology":"bess"},"type":"Feature"},{"geometry":{"coordinates":[-0.2200185,51.78094],"type":"Point"},"id":"GG2050-REPD-14877","properties":{"capacity_mw":1.5,"gg_project_id":"GG2050-REPD-14877","name":"Stanborough, Hatfield - Battery Energy Storage System","operator":"J Reddington Limited","repd_ref":"14877","repd_technology":"Battery","status":"Awaiting Construction","technology":"bess"},"type":"Feature"},{"geometry":{"coordinates":[-1.2272751,50.6579922],"type":"Point"},"id":"GG2050-REPD-14047","properties":{"capacity_mw":1.26,"gg_project_id":"GG2050-REPD-14047","name":"Arreton Valley Nursery, Hale Common - Battery Storage","operator":"Iow Squirrel Limited","repd_ref":"14047","repd_technology":"Battery","status":"Awaiting Construction","technology":"bess"},"type":"Feature"},{"geometry":{"coordinates":[-1.4142168,53.1654058],"type":"Point"},"id":"GG2050-REPD-7982","properties":{"capacity_mw":1.2,"gg_project_id":"GG2050-REPD-7982","name":"Smithybrook View","operator":"Together Housing","repd_ref":"7982","repd_technology":"Battery","status":"Planning Permission Expired","technology":"bess"},"type":"Feature"},{"geometry":{"coordinates":[-1.2091832,53.5651065],"type":"Point"},"id":"GG2050-REPD-11585","properties":{"capacity_mw":1.2,"gg_project_id":"GG2050-REPD-11585","name":"Woodlands - Battery Energy Storage","operator":"Infinis Battery Storage Limited","repd_ref":"11585","repd_technology":"Battery","status":"Awaiting Construction","technology":"bess"},"type":"Feature"},{"geometry":{"coordinates":[-3.1427283,51.5290332],"type":"Point"},"id":"GG2050-REPD-16366","properties":{"capacity_mw":1.08,"gg_project_id":"GG2050-REPD-16366","name":"Panasonic Manufacturing, Pentwyn - BESS","operator":"Panasonic Manufacturing UK","repd_ref":"16366","repd_technology":"Battery","status":"Under Construction","technology":"bess"},"type":"Feature"},{"geometry":{"coordinates":[-2.3557954,53.7497216],"type":"Point"},"id":"GG2050-REPD-15257","properties":{"capacity_mw":1.0,"gg_project_id":"GG2050-REPD-15257","name":"Accrington and Rossendale College, Sandy Lane - Battery Storage","operator":"Nelson & Colne College","repd_ref":"15257","repd_technology":"Battery","status":"Awaiting Construction","technology":"bess"},"type":"Feature"},{"geometry":{"coordinates":[-6.2875191,55.1819573],"type":"Point"},"id":"GG2050-REPD-15516","properties":{"capacity_mw":1.0,"gg_project_id":"GG2050-REPD-15516","name":"Battery Energy Storage System in Ballycastle","operator":"HHT Renewables Ltd","repd_ref":"15516","repd_technology":"Battery","status":"Awaiting Construction","technology":"bess"},"type":"Feature"},{"geometry":{"coordinates":[-6.0659937,54.9358222],"type":"Point"},"id":"GG2050-REPD-15282","properties":{"capacity_mw":1.0,"gg_project_id":"GG2050-REPD-15282","name":"Battery Energy Storage System in Broughshane","operator":"Heron Energy Limited","repd_ref":"15282","repd_technology":"Battery","status":"Awaiting Construction","technology":"bess"},"type":"Feature"},{"geometry":{"coordinates":[-1.109878,51.3257275],"type":"Point"},"id":"GG2050-REPD-6900","properties":{"capacity_mw":1.0,"gg_project_id":"GG2050-REPD-6900","name":"Berry Court Solar Farm - energy storage","operator":"Anesco","repd_ref":"6900","repd_technology":"Battery","status":"Operational","technology":"bess"},"type":"Feature"},{"geometry":{"coordinates":[-2.7410702,53.4461068],"type":"Point"},"id":"GG2050-REPD-11906","properties":{"capacity_mw":1.0,"gg_project_id":"GG2050-REPD-11906","name":"Biffa Electricity Generating Compound, Burtonhead Road - Battery Storage","operator":"Biffa Waste Services Limited","repd_ref":"11906","repd_technology":"Battery","status":"Awaiting Construction","technology":"bess"},"type":"Feature"},{"geometry":{"coordinates":[-1.3591871,51.8478446],"type":"Point"},"id":"GG2050-REPD-8070","properties":{"capacity_mw":1.0,"gg_project_id":"GG2050-REPD-8070","name":"Blenheim Net Zero Estate","operator":"Vanburgh Unit Trust","repd_ref":"8070","repd_technology":"Battery","status":"Awaiting Construction","technology":"bess"},"type":"Feature"},{"geometry":{"coordinates":[-3.96294,51.6842822],"type":"Point"},"id":"GG2050-REPD-13031","properties":{"capacity_mw":1.0,"gg_project_id":"GG2050-REPD-13031","name":"Brynwhilach Solar Farm, Morriston - Battery Storage","operator":"Swansea Bay University Health Board","repd_ref":"13031","repd_technology":"Battery","status":"Awaiting Construction","technology":"bess"},"type":"Feature"},{"geometry":{"coordinates":[-5.0362003,50.3522533],"type":"Point"},"id":"GG2050-REPD-7034","properties":{"capacity_mw":1.0,"gg_project_id":"GG2050-REPD-7034","name":"Carland Cross Wind Farm - Storage","operator":"Scottish Power","repd_ref":"7034","repd_technology":"Battery","status":"Under Construction","technology":"bess"},"type":"Feature"},{"geometry":{"coordinates":[-3.0350813,52.8450406],"type":"Point"},"id":"GG2050-REPD-13305","properties":{"capacity_mw":1.0,"gg_project_id":"GG2050-REPD-13305","name":"Cold Move, Maes-Y-Clawdd","operator":"Cold Move Limited","repd_ref":"13305","repd_technology":"Battery","status":"Awaiting Construction","technology":"bess"},"type":"Feature"},{"geometry":{"coordinates":[-1.0488785,52.9202268],"type":"Point"},"id":"GG2050-REPD-6880","properties":{"capacity_mw":1.0,"gg_project_id":"GG2050-REPD-6880","name":"Cotgrave Solar Farm Battery","operator":"Anesco","repd_ref":"6880","repd_technology":"Battery","status":"Abandoned","technology":"bess"},"type":"Feature"},{"geometry":{"coordinates":[-3.5233846,50.7076363],"type":"Point"},"id":"GG2050-REPD-7485","properties":{"capacity_mw":1.0,"gg_project_id":"GG2050-REPD-7485","name":"Council Green Waste Facility","operator":"Exeter City Council","repd_ref":"7485","repd_technology":"Battery","status":"Awaiting Construction","technology":"bess"},"type":"Feature"},{"geometry":{"coordinates":[-3.0002371,51.5708965],"type":"Point"},"id":"GG2050-REPD-20120","properties":{"capacity_mw":1.0,"gg_project_id":"GG2050-REPD-20120","name":"Docks Way Disposal Site, Docks Way - Battery Energy Storage System","operator":"Newport City Council","repd_ref":"20120","repd_technology":"Battery","status":"Awaiting Construction","technology":"bess"},"type":"Feature"},{"geometry":{"coordinates":[-3.9144605,56.1184204],"type":"Point"},"id":"GG2050-REPD-10014","properties":{"capacity_mw":1.0,"gg_project_id":"GG2050-REPD-10014","name":"Forthside Way - Battery Storage Unit","operator":"Stirling Council","repd_ref":"10014","repd_technology":"Battery","status":"Awaiting Construction","technology":"bess"},"type":"Feature"},{"geometry":{"coordinates":[-1.7355621,53.5333971],"type":"Point"},"id":"GG2050-REPD-7739","properties":{"capacity_mw":1.0,"gg_project_id":"GG2050-REPD-7739","name":"Hazlehead Wind Farm Battery","operator":"Banks Renewables","repd_ref":"7739","repd_technology":"Battery","status":"Awaiting Construction","technology":"bess"},"type":"Feature"},{"geometry":{"coordinates":[-6.3409123,54.7432841],"type":"Point"},"id":"GG2050-REPD-15515","properties":{"capacity_mw":1.0,"gg_project_id":"GG2050-REPD-15515","name":"HHT Battery Energy Storage System in Randalstown","operator":"HHT Renewables Ltd","repd_ref":"15515","repd_technology":"Battery","status":"Awaiting Construction","technology":"bess"},"type":"Feature"},{"geometry":{"coordinates":[-1.8027554,57.5108217],"type":"Point"},"id":"GG2050-REPD-6884","properties":{"capacity_mw":1.0,"gg_project_id":"GG2050-REPD-6884","name":"Hywind 2","operator":"Statoil","repd_ref":"6884","repd_technology":"Battery","status":"Operational","technology":"bess"},"type":"Feature"},{"geometry":{"coordinates":[-1.1221253,53.5022889],"type":"Point"},"id":"GG2050-REPD-6979","properties":{"capacity_mw":1.0,"gg_project_id":"GG2050-REPD-6979","name":"J3 Business Park","operator":"Car Hill Power","repd_ref":"6979","repd_technology":"Battery","status":"Revised","technology":"bess"},"type":"Feature"},{"geometry":{"coordinates":[-4.8572811,55.9164465],"type":"Point"},"id":"GG2050-REPD-7162","properties":{"capacity_mw":1.0,"gg_project_id":"GG2050-REPD-7162","name":"Kip Water Hydro Scheme","operator":"Greenock Hydro Power","repd_ref":"7162","repd_technology":"Battery","status":"Application Submitted","technology":"bess"},"type":"Feature"},{"geometry":{"coordinates":[0.5415151,51.393598],"type":"Point"},"id":"GG2050-REPD-15833","properties":{"capacity_mw":1.0,"gg_project_id":"GG2050-REPD-15833","name":"Mid Kent College Medway Campus, Medway Road - Battery Storage, ASHP","operator":"Mid Kent College","repd_ref":"15833","repd_technology":"Battery","status":"Awaiting Construction","technology":"bess"},"type":"Feature"},{"geometry":{"coordinates":[0.247678,51.4466114],"type":"Point"},"id":"GG2050-REPD-7120","properties":{"capacity_mw":1.0,"gg_project_id":"GG2050-REPD-7120","name":"Neatscourt","operator":"Kiwi Power","repd_ref":"7120","repd_technology":"Battery","status":"Abandoned","technology":"bess"},"type":"Feature"},{"geometry":{"coordinates":[-2.2211634,53.8444196],"type":"Point"},"id":"GG2050-REPD-14414","properties":{"capacity_mw":1.0,"gg_project_id":"GG2050-REPD-14414","name":"Nelson and colne college, Scotland Road","operator":"Nelson & Colne College","repd_ref":"14414","repd_technology":"Battery","status":"Revised","technology":"bess"},"type":"Feature"},{"geometry":{"coordinates":[-2.2211634,53.8444196],"type":"Point"},"id":"GG2050-REPD-15886","properties":{"capacity_mw":1.0,"gg_project_id":"GG2050-REPD-15886","name":"Nelson and colne college, Scotland Road","operator":"Nelson & Colne College","repd_ref":"15886","repd_technology":"Battery","status":"Awaiting Construction","technology":"bess"},"type":"Feature"},{"geometry":{"coordinates":[-1.1647167,60.1669644],"type":"Point"},"id":"GG2050-REPD-6855","properties":{"capacity_mw":1.0,"gg_project_id":"GG2050-REPD-6855","name":"Northern Isles New Energy Solution (NINES) 1","operator":"Scottish Hydroelectric Power Distribution (SHEPD)","repd_ref":"6855","repd_technology":"Battery","status":"Operational","technology":"bess"},"type":"Feature"},{"geometry":{"coordinates":[-1.2924082,53.2585364],"type":"Point"},"id":"GG2050-REPD-6885","properties":{"capacity_mw":1.0,"gg_project_id":"GG2050-REPD-6885","name":"Oxcroft Solar Farm","operator":"Anesco","repd_ref":"6885","repd_technology":"Battery","status":"Operational","technology":"bess"},"type":"Feature"},{"geometry":{"coordinates":[-3.4919918,50.9127263],"type":"Point"},"id":"GG2050-REPD-15884","properties":{"capacity_mw":1.0,"gg_project_id":"GG2050-REPD-15884","name":"Petroc, Bolham Road - Battery Storage & Air Source Heat Pumps","operator":"Petroc","repd_ref":"15884","repd_technology":"Battery","status":"Awaiting Construction","technology":"bess"},"type":"Feature"},{"geometry":{"coordinates":[-4.0694731,51.0724524],"type":"Point"},"id":"GG2050-REPD-17166","properties":{"capacity_mw":1.0,"gg_project_id":"GG2050-REPD-17166","name":"Petroc, Sticklepath - Battery Storage","operator":"Petroc College Of Further Education","repd_ref":"17166","repd_technology":"Battery","status":"Application Submitted","technology":"bess"},"type":"Feature"},{"geometry":{"coordinates":[-2.7723183,54.7694081],"type":"Point"},"id":"GG2050-REPD-16774","properties":{"capacity_mw":1.0,"gg_project_id":"GG2050-REPD-16774","name":"Roxane UK, Armathwaite - Solar Array & Battery Storage","operator":"Roxane UK Limited","repd_ref":"16774","repd_technology":"Battery","status":"Awaiting Construction","technology":"bess"},"type":"Feature"},{"geometry":{"coordinates":[-0.8083915,52.1476551],"type":"Point"},"id":"GG2050-REPD-6888","properties":{"capacity_mw":1.0,"gg_project_id":"GG2050-REPD-6888","name":"Salcey Solar Farm","operator":"Anesco","repd_ref":"6888","repd_technology":"Battery","status":"Operational","technology":"bess"},"type":"Feature"},{"geometry":{"coordinates":[-1.8469155,51.5385475],"type":"Point"},"id":"GG2050-REPD-12193","properties":{"capacity_mw":1.0,"gg_project_id":"GG2050-REPD-12193","name":"Studley Grange Landfill Site, Garden Centre Road - Battery Storage","operator":"Biffa Waste Services","repd_ref":"12193","repd_technology":"Battery","status":"Awaiting Construction","technology":"bess"},"type":"Feature"},{"geometry":{"coordinates":[-3.6841113,55.7971417],"type":"Point"},"id":"GG2050-REPD-6989","properties":{"capacity_mw":1.0,"gg_project_id":"GG2050-REPD-6989","name":"Tormywheel Wind Farm Extension","operator":"Muirhall Energy","repd_ref":"6989","repd_technology":"Battery","status":"Awaiting Construction","technology":"bess"},"type":"Feature"},{"geometry":{"coordinates":[-1.8475679,52.0544797],"type":"Point"},"id":"GG2050-REPD-6869","properties":{"capacity_mw":1.0,"gg_project_id":"GG2050-REPD-6869","name":"Willersey solar farm","operator":"Belectric UK","repd_ref":"6869","repd_technology":"Battery","status":"Operational","technology":"bess"},"type":"Feature"}],"partition":4,"release":"9.1","schema":"globalgrid2050.v9.atlas-projects.v9.1","technology":"bess","type":"FeatureCollection"}
