{"feature_count":58,"features":[{"geometry":{"coordinates":[-3.1811162,56.1839575],"type":"Point"},"id":"GG2050-REPD-12324","properties":{"capacity_mw":1.0,"gg_project_id":"GG2050-REPD-12324","name":"Leviton, Viewfield Industrial Estate - Solar Panels","operator":"Leviton Network Solutions europe","repd_ref":"12324","repd_technology":"Solar Photovoltaics","status":"Awaiting Construction","technology":"solar"},"type":"Feature"},{"geometry":{"coordinates":[-0.4827412,52.4409885],"type":"Point"},"id":"GG2050-REPD-12947","properties":{"capacity_mw":1.0,"gg_project_id":"GG2050-REPD-12947","name":"Lilford Hall, Lilford - Solar Panels","operator":"Lilford Hall Estate","repd_ref":"12947","repd_technology":"Solar Photovoltaics","status":"Under Construction","technology":"solar"},"type":"Feature"},{"geometry":{"coordinates":[-2.8435305,56.6469415],"type":"Point"},"id":"GG2050-REPD-19246","properties":{"capacity_mw":1.0,"gg_project_id":"GG2050-REPD-19246","name":"Lochhead Farmouse, Lochhead - Solar Photovoltaic Array","operator":"Laird Aggregates Limited","repd_ref":"19246","repd_technology":"Solar Photovoltaics","status":"Awaiting Construction","technology":"solar"},"type":"Feature"},{"geometry":{"coordinates":[0.1358726,52.7903599],"type":"Point"},"id":"GG2050-REPD-1050","properties":{"capacity_mw":1.0,"gg_project_id":"GG2050-REPD-1050","name":"Long Sutton Butterfly And Wildlife Park (extension)","operator":"Moor Solar","repd_ref":"1050","repd_technology":"Solar Photovoltaics","status":"Operational","technology":"solar"},"type":"Feature"},{"geometry":{"coordinates":[-2.8378919,50.8831582],"type":"Point"},"id":"GG2050-REPD-1160","properties":{"capacity_mw":1.0,"gg_project_id":"GG2050-REPD-1160","name":"Lower Coombe Farm (Bean Field)","operator":"A H Warren Trust","repd_ref":"1160","repd_technology":"Solar Photovoltaics","status":"Operational","technology":"solar"},"type":"Feature"},{"geometry":{"coordinates":[-2.8310768,50.8852213],"type":"Point"},"id":"GG2050-REPD-1081","properties":{"capacity_mw":1.0,"gg_project_id":"GG2050-REPD-1081","name":"Lower Coombe Farm Solar","operator":"Solar South West","repd_ref":"1081","repd_technology":"Solar Photovoltaics","status":"Operational","technology":"solar"},"type":"Feature"},{"geometry":{"coordinates":[-1.3472067,50.9398362],"type":"Point"},"id":"GG2050-REPD-2148","properties":{"capacity_mw":1.0,"gg_project_id":"GG2050-REPD-2148","name":"Lower Russells Field","operator":"Eastleigh Borough Council","repd_ref":"2148","repd_technology":"Solar Photovoltaics","status":"Planning Permission Expired","technology":"solar"},"type":"Feature"},{"geometry":{"coordinates":[-2.6409281,51.0696135],"type":"Point"},"id":"GG2050-REPD-2387","properties":{"capacity_mw":1.0,"gg_project_id":"GG2050-REPD-2387","name":"Manor Farm (Keinton Mandeville)","operator":"Private Developer","repd_ref":"2387","repd_technology":"Solar Photovoltaics","status":"Operational","technology":"solar"},"type":"Feature"},{"geometry":{"coordinates":[0.9804666,51.9151654],"type":"Point"},"id":"GG2050-REPD-19726","properties":{"capacity_mw":1.0,"gg_project_id":"GG2050-REPD-19726","name":"Martells Quarry, Slough Lane - Solar Array","operator":"Sewells Reservoir Construction Ltd","repd_ref":"19726","repd_technology":"Solar Photovoltaics","status":"Awaiting Construction","technology":"solar"},"type":"Feature"},{"geometry":{"coordinates":[-2.9010522,50.8670044],"type":"Point"},"id":"GG2050-REPD-12843","properties":{"capacity_mw":1.0,"gg_project_id":"GG2050-REPD-12843","name":"Modus Furniture, Manor Farm - Solar Panels","operator":"MODUS Furniture Limited","repd_ref":"12843","repd_technology":"Solar Photovoltaics","status":"Awaiting Construction","technology":"solar"},"type":"Feature"},{"geometry":{"coordinates":[-2.1431541,52.159626],"type":"Point"},"id":"GG2050-REPD-10725","properties":{"capacity_mw":1.0,"gg_project_id":"GG2050-REPD-10725","name":"Mucknell Farm Lane, Stoulton - Solar Farm","operator":"Mucknell Abbey","repd_ref":"10725","repd_technology":"Solar Photovoltaics","status":"Application Refused","technology":"solar"},"type":"Feature"},{"geometry":{"coordinates":[-0.9617003,52.2199603],"type":"Point"},"id":"GG2050-REPD-5596","properties":{"capacity_mw":1.0,"gg_project_id":"GG2050-REPD-5596","name":"Nectar Way Regional Distribution Centre","operator":"Sainsburys Supermarkets Limited","repd_ref":"5596","repd_technology":"Solar Photovoltaics","status":"Operational","technology":"solar"},"type":"Feature"},{"geometry":{"coordinates":[-1.474843,52.0299883],"type":"Point"},"id":"GG2050-REPD-1732","properties":{"capacity_mw":1.0,"gg_project_id":"GG2050-REPD-1732","name":"North Of Field Barn","operator":"Blenheim Farm","repd_ref":"1732","repd_technology":"Solar Photovoltaics","status":"Operational","technology":"solar"},"type":"Feature"},{"geometry":{"coordinates":[-2.3375304,53.7261537],"type":"Point"},"id":"GG2050-REPD-16024","properties":{"capacity_mw":1.0,"gg_project_id":"GG2050-REPD-16024","name":"Paragon Works, Rising Bridge Road - Solar Farm","operator":"Locogen Limited","repd_ref":"16024","repd_technology":"Solar Photovoltaics","status":"Awaiting Construction","technology":"solar"},"type":"Feature"},{"geometry":{"coordinates":[-1.7649025,52.6839959],"type":"Point"},"id":"GG2050-REPD-1806","properties":{"capacity_mw":1.0,"gg_project_id":"GG2050-REPD-1806","name":"Park Lane","operator":"NESF (formerly Green Energy Networks)","repd_ref":"1806","repd_technology":"Solar Photovoltaics","status":"Operational","technology":"solar"},"type":"Feature"},{"geometry":{"coordinates":[-1.1403231,54.602098],"type":"Point"},"id":"GG2050-REPD-19065","properties":{"capacity_mw":1.0,"gg_project_id":"GG2050-REPD-19065","name":"PD Teesport Warehouse A, Bulk Tees - Solar Panels","operator":"PD Ports","repd_ref":"19065","repd_technology":"Solar Photovoltaics","status":"Awaiting Construction","technology":"solar"},"type":"Feature"},{"geometry":{"coordinates":[-4.3023039,51.7290173],"type":"Point"},"id":"GG2050-REPD-14022","properties":{"capacity_mw":1.0,"gg_project_id":"GG2050-REPD-14022","name":"Pembrey Road - Ground Mounted Solar Panels","operator":"Gravells Limited","repd_ref":"14022","repd_technology":"Solar Photovoltaics","status":"Awaiting Construction","technology":"solar"},"type":"Feature"},{"geometry":{"coordinates":[-1.448492,54.6618855],"type":"Point"},"id":"GG2050-REPD-18635","properties":{"capacity_mw":1.0,"gg_project_id":"GG2050-REPD-18635","name":"PFF Packaging, Salters Lane Industrial Estate, Sedgefield - Solar PV Panels","operator":"SSE Enterprise Contracting","repd_ref":"18635","repd_technology":"Solar Photovoltaics","status":"Application Submitted","technology":"solar"},"type":"Feature"},{"geometry":{"coordinates":[-1.3560323,52.9630998],"type":"Point"},"id":"GG2050-REPD-11017","properties":{"capacity_mw":1.0,"gg_project_id":"GG2050-REPD-11017","name":"Pinnacle Storage Park, Dale Abbey - Solar PV Panels","operator":"Hansteen Property Investments","repd_ref":"11017","repd_technology":"Solar Photovoltaics","status":"Under Construction","technology":"solar"},"type":"Feature"},{"geometry":{"coordinates":[-3.0503971,52.5693083],"type":"Point"},"id":"GG2050-REPD-2166","properties":{"capacity_mw":1.0,"gg_project_id":"GG2050-REPD-2166","name":"Priest Weston","operator":"Mellington Farm","repd_ref":"2166","repd_technology":"Solar Photovoltaics","status":"Operational","technology":"solar"},"type":"Feature"},{"geometry":{"coordinates":[-4.1653821,50.3668663],"type":"Point"},"id":"GG2050-REPD-7749","properties":{"capacity_mw":1.0,"gg_project_id":"GG2050-REPD-7749","name":"Princess Yachts Ltd (5)","operator":"Eden Sustainable","repd_ref":"7749","repd_technology":"Solar Photovoltaics","status":"Revised","technology":"solar"},"type":"Feature"},{"geometry":{"coordinates":[-3.9517518,52.9875974],"type":"Point"},"id":"GG2050-REPD-15854","properties":{"capacity_mw":1.0,"gg_project_id":"GG2050-REPD-15854","name":"Rehau Plastics, Pencefn Road - Solar Panels","operator":"Blaenau Plastics Ltd","repd_ref":"15854","repd_technology":"Solar Photovoltaics","status":"Awaiting Construction","technology":"solar"},"type":"Feature"},{"geometry":{"coordinates":[-1.6108545,55.0901428],"type":"Point"},"id":"GG2050-REPD-16370","properties":{"capacity_mw":1.0,"gg_project_id":"GG2050-REPD-16370","name":"Renolit Cramlington Limited, Station Road - Solar Panels","operator":"Renolit Cramlington Limited","repd_ref":"16370","repd_technology":"Solar Photovoltaics","status":"Awaiting Construction","technology":"solar"},"type":"Feature"},{"geometry":{"coordinates":[-1.6153832,54.9674598],"type":"Point"},"id":"GG2050-REPD-18378","properties":{"capacity_mw":1.0,"gg_project_id":"GG2050-REPD-18378","name":"Responsive Engineering, Scotswood Road - Solar Panels","operator":"Responsive Engineering","repd_ref":"18378","repd_technology":"Solar Photovoltaics","status":"Awaiting Construction","technology":"solar"},"type":"Feature"},{"geometry":{"coordinates":[-4.6212479,52.0352378],"type":"Point"},"id":"GG2050-REPD-1055","properties":{"capacity_mw":1.0,"gg_project_id":"GG2050-REPD-1055","name":"Rhosygilwen Solar Farm","operator":"Private Developer","repd_ref":"1055","repd_technology":"Solar Photovoltaics","status":"Operational","technology":"solar"},"type":"Feature"},{"geometry":{"coordinates":[-1.4135621,52.0034912],"type":"Point"},"id":"GG2050-REPD-1240","properties":{"capacity_mw":1.0,"gg_project_id":"GG2050-REPD-1240","name":"Rickfield Farm solar park","operator":"Western Power Distribution","repd_ref":"1240","repd_technology":"Solar Photovoltaics","status":"Operational","technology":"solar"},"type":"Feature"},{"geometry":{"coordinates":[0.1533023,51.504508],"type":"Point"},"id":"GG2050-REPD-7857","properties":{"capacity_mw":1.0,"gg_project_id":"GG2050-REPD-7857","name":"Riverside Energy Park (REP)","operator":"Cory Riverside Energy","repd_ref":"7857","repd_technology":"Solar Photovoltaics","status":"Awaiting Construction","technology":"solar"},"type":"Feature"},{"geometry":{"coordinates":[-1.2477962,53.1174132],"type":"Point"},"id":"GG2050-REPD-16180","properties":{"capacity_mw":1.0,"gg_project_id":"GG2050-REPD-16180","name":"Romo, Oddicroft Lane - Solar Panels","operator":"Romo limited","repd_ref":"16180","repd_technology":"Solar Photovoltaics","status":"Awaiting Construction","technology":"solar"},"type":"Feature"},{"geometry":{"coordinates":[-2.7135274,52.7900375],"type":"Point"},"id":"GG2050-REPD-11028","properties":{"capacity_mw":1.0,"gg_project_id":"GG2050-REPD-11028","name":"Sansaw Business Park, Hadnall - Solar Panels","operator":"Sansaw Properties Limited","repd_ref":"11028","repd_technology":"Solar Photovoltaics","status":"Awaiting Construction","technology":"solar"},"type":"Feature"},{"geometry":{"coordinates":[-0.0860616,51.3911428],"type":"Point"},"id":"GG2050-REPD-19709","properties":{"capacity_mw":1.0,"gg_project_id":"GG2050-REPD-19709","name":"Selhurst Traincare Depot, Selhurst Road - Solar Panels","operator":"Energy Gardens Limited","repd_ref":"19709","repd_technology":"Solar Photovoltaics","status":"Awaiting Construction","technology":"solar"},"type":"Feature"},{"geometry":{"coordinates":[-2.381872,51.8263555],"type":"Point"},"id":"GG2050-REPD-18282","properties":{"capacity_mw":1.0,"gg_project_id":"GG2050-REPD-18282","name":"Severn & Wye, Claxhill - Solar Panels & Battery Energy Storage System","operator":"Olsa Futures Limited","repd_ref":"18282","repd_technology":"Solar Photovoltaics","status":"Application Submitted","technology":"solar"},"type":"Feature"},{"geometry":{"coordinates":[-1.4179659,51.7420009],"type":"Point"},"id":"GG2050-REPD-9512","properties":{"capacity_mw":1.0,"gg_project_id":"GG2050-REPD-9512","name":"Sheehan Recycled Aggregates Plant","operator":"Sheehan Haulage & Plant Hire Limited","repd_ref":"9512","repd_technology":"Solar Photovoltaics","status":"Awaiting Construction","technology":"solar"},"type":"Feature"},{"geometry":{"coordinates":[-6.7416922,55.0584341],"type":"Point"},"id":"GG2050-REPD-7744","properties":{"capacity_mw":1.0,"gg_project_id":"GG2050-REPD-7744","name":"Shinny Road Macosquin","operator":"Northern Farm Partnership","repd_ref":"7744","repd_technology":"Solar Photovoltaics","status":"Application Submitted","technology":"solar"},"type":"Feature"},{"geometry":{"coordinates":[-4.0280297,57.8783168],"type":"Point"},"id":"GG2050-REPD-13234","properties":{"capacity_mw":1.0,"gg_project_id":"GG2050-REPD-13234","name":"Shore Road - Distillery and Visitor Centre","operator":"Dornoch Distillery","repd_ref":"13234","repd_technology":"Solar Photovoltaics","status":"Awaiting Construction","technology":"solar"},"type":"Feature"},{"geometry":{"coordinates":[-2.1900857,57.4461664],"type":"Point"},"id":"GG2050-REPD-6585","properties":{"capacity_mw":1.0,"gg_project_id":"GG2050-REPD-6585","name":"Skelmonae Farm","operator":"Cloffrickford Renewable Energy","repd_ref":"6585","repd_technology":"Solar Photovoltaics","status":"Planning Permission Expired","technology":"solar"},"type":"Feature"},{"geometry":{"coordinates":[-2.9848953,51.6881055],"type":"Point"},"id":"GG2050-REPD-6593","properties":{"capacity_mw":1.0,"gg_project_id":"GG2050-REPD-6593","name":"Sluvad Road Water Treatment Works","operator":"Dwr Cymru Welsh Water","repd_ref":"6593","repd_technology":"Solar Photovoltaics","status":"Abandoned","technology":"solar"},"type":"Feature"},{"geometry":{"coordinates":[-2.838551,51.3922035],"type":"Point"},"id":"GG2050-REPD-5210","properties":{"capacity_mw":1.0,"gg_project_id":"GG2050-REPD-5210","name":"Smart Systems","operator":"D2Smart Projects","repd_ref":"5210","repd_technology":"Solar Photovoltaics","status":"Awaiting Construction","technology":"solar"},"type":"Feature"},{"geometry":{"coordinates":[0.1622704,52.1907089],"type":"Point"},"id":"GG2050-REPD-7275","properties":{"capacity_mw":1.0,"gg_project_id":"GG2050-REPD-7275","name":"St Bedes Inter-Church School","operator":"Solar Options for Schools","repd_ref":"7275","repd_technology":"Solar Photovoltaics","status":"Awaiting Construction","technology":"solar"},"type":"Feature"},{"geometry":{"coordinates":[-2.7482844,52.1251696],"type":"Point"},"id":"GG2050-REPD-5872","properties":{"capacity_mw":1.0,"gg_project_id":"GG2050-REPD-5872","name":"Stocks House Farm","operator":"AR Partners","repd_ref":"5872","repd_technology":"Solar Photovoltaics","status":"Appeal Refused","technology":"solar"},"type":"Feature"},{"geometry":{"coordinates":[-2.7913037,52.0757542],"type":"Point"},"id":"GG2050-REPD-5410","properties":{"capacity_mw":1.0,"gg_project_id":"GG2050-REPD-5410","name":"Stretton Sugwas Solar Farm","operator":"Herefordshire New Leaf Cooperative","repd_ref":"5410","repd_technology":"Solar Photovoltaics","status":"Revised","technology":"solar"},"type":"Feature"},{"geometry":{"coordinates":[-2.7909462,52.0745159],"type":"Point"},"id":"GG2050-REPD-6221","properties":{"capacity_mw":1.0,"gg_project_id":"GG2050-REPD-6221","name":"Stretton Sugwas Solar Farm","operator":"Herefordshire New Leaf Cooperative","repd_ref":"6221","repd_technology":"Solar Photovoltaics","status":"Application Withdrawn","technology":"solar"},"type":"Feature"},{"geometry":{"coordinates":[-4.1108431,50.447469],"type":"Point"},"id":"GG2050-REPD-10782","properties":{"capacity_mw":1.0,"gg_project_id":"GG2050-REPD-10782","name":"Tamerton Road, Roborough - Solar Panels","operator":"Plessey Semi Conductors Limited","repd_ref":"10782","repd_technology":"Solar Photovoltaics","status":"Awaiting Construction","technology":"solar"},"type":"Feature"},{"geometry":{"coordinates":[-2.4844793,50.6121517],"type":"Point"},"id":"GG2050-REPD-13800","properties":{"capacity_mw":1.0,"gg_project_id":"GG2050-REPD-13800","name":"Tecan Way, Granby Industrial Estate - Solar Photo Voltaic Panels","operator":"P L Cane Investments Limited","repd_ref":"13800","repd_technology":"Solar Photovoltaics","status":"Awaiting Construction","technology":"solar"},"type":"Feature"},{"geometry":{"coordinates":[-2.2102101,53.4199795],"type":"Point"},"id":"GG2050-REPD-7619","properties":{"capacity_mw":1.0,"gg_project_id":"GG2050-REPD-7619","name":"Tesco Burnage Store","operator":"Tesco Stores","repd_ref":"7619","repd_technology":"Solar Photovoltaics","status":"Awaiting Construction","technology":"solar"},"type":"Feature"},{"geometry":{"coordinates":[-2.2196189,53.4121065],"type":"Point"},"id":"GG2050-REPD-7625","properties":{"capacity_mw":1.0,"gg_project_id":"GG2050-REPD-7625","name":"Tesco Store East Didsbury","operator":"Tesco Stores","repd_ref":"7625","repd_technology":"Solar Photovoltaics","status":"Awaiting Construction","technology":"solar"},"type":"Feature"},{"geometry":{"coordinates":[-1.9835437,52.5871115],"type":"Point"},"id":"GG2050-REPD-7731","properties":{"capacity_mw":1.0,"gg_project_id":"GG2050-REPD-7731","name":"Tesco Superstore Wisemore","operator":"Push Energy","repd_ref":"7731","repd_technology":"Solar Photovoltaics","status":"Awaiting Construction","technology":"solar"},"type":"Feature"},{"geometry":{"coordinates":[0.0270404,51.4924061],"type":"Point"},"id":"GG2050-REPD-5985","properties":{"capacity_mw":1.0,"gg_project_id":"GG2050-REPD-5985","name":"Thameside DC","operator":"Sainsburys Supermarkets Limited","repd_ref":"5985","repd_technology":"Solar Photovoltaics","status":"Operational","technology":"solar"},"type":"Feature"},{"geometry":{"coordinates":[-0.6235553,51.1683404],"type":"Point"},"id":"GG2050-REPD-14628","properties":{"capacity_mw":1.0,"gg_project_id":"GG2050-REPD-14628","name":"Tuesley Farm, Tuesley Lane - Solar Array","operator":"Hall Hunter Partnership","repd_ref":"14628","repd_technology":"Solar Photovoltaics","status":"Awaiting Construction","technology":"solar"},"type":"Feature"},{"geometry":{"coordinates":[-2.7958742,51.3579815],"type":"Point"},"id":"GG2050-REPD-1208","properties":{"capacity_mw":1.0,"gg_project_id":"GG2050-REPD-1208","name":"Twin Elm Solar Farm","operator":"Lightsource BP","repd_ref":"1208","repd_technology":"Solar Photovoltaics","status":"Operational","technology":"solar"},"type":"Feature"},{"geometry":{"coordinates":[-2.2808293,51.8109151],"type":"Point"},"id":"GG2050-REPD-11171","properties":{"capacity_mw":1.0,"gg_project_id":"GG2050-REPD-11171","name":"Unit Q1, Quadrant Distribution Centre, Hardwick - Solar Panels","operator":"MG Markey Group Limited","repd_ref":"11171","repd_technology":"Solar Photovoltaics","status":"Awaiting Construction","technology":"solar"},"type":"Feature"},{"geometry":{"coordinates":[-1.4570355,52.7544724],"type":"Point"},"id":"GG2050-REPD-5789","properties":{"capacity_mw":1.0,"gg_project_id":"GG2050-REPD-5789","name":"United Biscuits Distribution Warehouse","operator":"Lightsource Renewable Energy","repd_ref":"5789","repd_technology":"Solar Photovoltaics","status":"Abandoned","technology":"solar"},"type":"Feature"},{"geometry":{"coordinates":[-3.3759429,50.9112383],"type":"Point"},"id":"GG2050-REPD-1312","properties":{"capacity_mw":1.0,"gg_project_id":"GG2050-REPD-1312","name":"Venn Farm","operator":"EBS Energy LLP","repd_ref":"1312","repd_technology":"Solar Photovoltaics","status":"Abandoned","technology":"solar"},"type":"Feature"},{"geometry":{"coordinates":[-4.0850466,51.5984741],"type":"Point"},"id":"GG2050-REPD-2191","properties":{"capacity_mw":1.0,"gg_project_id":"GG2050-REPD-2191","name":"Webbsfield","operator":"Gower Power Community Cooperative","repd_ref":"2191","repd_technology":"Solar Photovoltaics","status":"Appeal Refused","technology":"solar"},"type":"Feature"},{"geometry":{"coordinates":[-4.2773392,50.7523806],"type":"Point"},"id":"GG2050-REPD-1446","properties":{"capacity_mw":1.0,"gg_project_id":"GG2050-REPD-1446","name":"Whiddon Farm","operator":"Lightsource Renewable Energy","repd_ref":"1446","repd_technology":"Solar Photovoltaics","status":"Operational","technology":"solar"},"type":"Feature"},{"geometry":{"coordinates":[-0.9515012,51.0059907],"type":"Point"},"id":"GG2050-REPD-6198","properties":{"capacity_mw":1.0,"gg_project_id":"GG2050-REPD-6198","name":"Whitman Laboratories","operator":"Whitman Laboratories","repd_ref":"6198","repd_technology":"Solar Photovoltaics","status":"Operational","technology":"solar"},"type":"Feature"},{"geometry":{"coordinates":[-2.1049569,52.3021093],"type":"Point"},"id":"GG2050-REPD-10884","properties":{"capacity_mw":1.0,"gg_project_id":"GG2050-REPD-10884","name":"Worcester Road, Wychbold - Solar Photovoltaic Panels","operator":"Webbs Garden Centre","repd_ref":"10884","repd_technology":"Solar Photovoltaics","status":"Awaiting Construction","technology":"solar"},"type":"Feature"},{"geometry":{"coordinates":[-2.9061373,52.8184067],"type":"Point"},"id":"GG2050-REPD-10882","properties":{"capacity_mw":1.0,"gg_project_id":"GG2050-REPD-10882","name":"Wykey Farm, Ruyton Xi Towns - Solar Array","operator":"W H Gittins & Sons","repd_ref":"10882","repd_technology":"Solar Photovoltaics","status":"Awaiting Construction","technology":"solar"},"type":"Feature"},{"geometry":{"coordinates":[-4.1147881,51.7585406],"type":"Point"},"id":"GG2050-REPD-16617","properties":{"capacity_mw":1.0,"gg_project_id":"GG2050-REPD-16617","name":"Y Tyddyn Teg, Heol Y Nant - Solar Farm","operator":"Power on Demand Limited","repd_ref":"16617","repd_technology":"Solar Photovoltaics","status":"Awaiting Construction","technology":"solar"},"type":"Feature"}],"partition":8,"release":"9.1","schema":"globalgrid2050.v9.atlas-projects.v9.1","technology":"solar","type":"FeatureCollection"}
