{"feature_count":94,"features":[{"geometry":{"coordinates":[-1.4664021,56.4431397],"type":"Point"},"id":"GG2050-REPD-9873","properties":{"capacity_mw":4100.0,"gg_project_id":"GG2050-REPD-9873","name":"Berwick Bank Offshore Wind Farm","operator":"Scottish Southern Energy Renewables","repd_ref":"9873","repd_technology":"Wind Offshore","status":"Awaiting Construction","technology":"wind_offshore"},"type":"Feature"},{"geometry":{"coordinates":[1.4207395,53.6815417],"type":"Point"},"id":"GG2050-REPD-2472","properties":{"capacity_mw":2955.0,"gg_project_id":"GG2050-REPD-2472","name":"Hornsea 3","operator":"Orsted (formerly Dong Energy)","repd_ref":"2472","repd_technology":"Wind Offshore","status":"Under Construction","technology":"wind_offshore"},"type":"Feature"},{"geometry":{"coordinates":[1.667921,55.9673372],"type":"Point"},"id":"GG2050-REPD-2541","properties":{"capacity_mw":2400.0,"gg_project_id":"GG2050-REPD-2541","name":"Dogger Bank A & B (was Creyke Beck A & B)","operator":"SSE/Equinor (formerly Statoil, formerly Forewind)","repd_ref":"2541","repd_technology":"Wind Offshore","status":"Under Construction","technology":"wind_offshore"},"type":"Feature"},{"geometry":{"coordinates":[1.4207395,53.6815417],"type":"Point"},"id":"GG2050-REPD-2473","properties":{"capacity_mw":2400.0,"gg_project_id":"GG2050-REPD-2473","name":"Hornsea 4","operator":"Orsted (formerly Dong Energy)","repd_ref":"2473","repd_technology":"Wind Offshore","status":"Awaiting Construction","technology":"wind_offshore"},"type":"Feature"},{"geometry":{"coordinates":[-3.9141677,58.8629717],"type":"Point"},"id":"GG2050-REPD-10772","properties":{"capacity_mw":2000.0,"gg_project_id":"GG2050-REPD-10772","name":"West of Orkney Wind Farm","operator":"Total Energies / RIDG","repd_ref":"10772","repd_technology":"Wind Offshore","status":"Awaiting Construction","technology":"wind_offshore"},"type":"Feature"},{"geometry":{"coordinates":[-0.118325,56.5545492],"type":"Point"},"id":"GG2050-REPD-13419","properties":{"capacity_mw":1800.0,"gg_project_id":"GG2050-REPD-13419","name":"Bellrock","operator":"Nadara","repd_ref":"13419","repd_technology":"Wind Offshore","status":"Application Submitted","technology":"wind_offshore"},"type":"Feature"},{"geometry":{"coordinates":[-3.8316945,53.6351973],"type":"Point"},"id":"GG2050-REPD-10918","properties":{"capacity_mw":1500.0,"gg_project_id":"GG2050-REPD-10918","name":"Mona Offshore Wind Farm","operator":"BP Oil UK Limited / ENBW UK Limited","repd_ref":"10918","repd_technology":"Wind Offshore","status":"Awaiting Construction","technology":"wind_offshore"},"type":"Feature"},{"geometry":{"coordinates":[1.6290066,53.4009102],"type":"Point"},"id":"GG2050-REPD-11663","properties":{"capacity_mw":1500.0,"gg_project_id":"GG2050-REPD-11663","name":"Outer Dowsing Offshore Wind Farm","operator":"Green Investment Group / Total Energies","repd_ref":"11663","repd_technology":"Wind Offshore","status":"Awaiting Construction","technology":"wind_offshore"},"type":"Feature"},{"geometry":{"coordinates":[2.1708996,52.1374391],"type":"Point"},"id":"GG2050-REPD-2470","properties":{"capacity_mw":1400.0,"gg_project_id":"GG2050-REPD-2470","name":"East Anglia 3 (EA 3)","operator":"Scottish Power Renewables","repd_ref":"2470","repd_technology":"Wind Offshore","status":"Under Construction","technology":"wind_offshore"},"type":"Feature"},{"geometry":{"coordinates":[2.3299986,55.2099932],"type":"Point"},"id":"GG2050-REPD-6556","properties":{"capacity_mw":1400.0,"gg_project_id":"GG2050-REPD-6556","name":"Sofia (Teesside B)","operator":"RWE Renewables UK Limited","repd_ref":"6556","repd_technology":"Wind Offshore","status":"Under Construction","technology":"wind_offshore"},"type":"Feature"},{"geometry":{"coordinates":[2.5499934,52.6199968],"type":"Point"},"id":"GG2050-REPD-6483","properties":{"capacity_mw":1400.0,"gg_project_id":"GG2050-REPD-6483","name":"The East Anglia Array - Norfolk Boreas","operator":"RWE Renewables UK Limited","repd_ref":"6483","repd_technology":"Wind Offshore","status":"Under Construction","technology":"wind_offshore"},"type":"Feature"},{"geometry":{"coordinates":[2.5499934,52.6199968],"type":"Point"},"id":"GG2050-REPD-2484","properties":{"capacity_mw":1380.0,"gg_project_id":"GG2050-REPD-2484","name":"The East Anglia Array - Norfolk Vanguard East","operator":"RWE Renewables UK Limited","repd_ref":"2484","repd_technology":"Wind Offshore","status":"Awaiting Construction","technology":"wind_offshore"},"type":"Feature"},{"geometry":{"coordinates":[2.5499934,52.6199968],"type":"Point"},"id":"GG2050-REPD-20218","properties":{"capacity_mw":1380.0,"gg_project_id":"GG2050-REPD-20218","name":"The East Anglia Array - Norfolk Vanguard West","operator":"RWE Renewables UK Limited","repd_ref":"20218","repd_technology":"Wind Offshore","status":"Awaiting Construction","technology":"wind_offshore"},"type":"Feature"},{"geometry":{"coordinates":[1.5399864,53.9599982],"type":"Point"},"id":"GG2050-REPD-2502","properties":{"capacity_mw":1320.0,"gg_project_id":"GG2050-REPD-2502","name":"Hornsea 2 - Optimus and Breesea","operator":"Orsted (formerly Dong Energy)","repd_ref":"2502","repd_technology":"Wind Offshore","status":"Operational","technology":"wind_offshore"},"type":"Feature"},{"geometry":{"coordinates":[1.4207395,53.6815417],"type":"Point"},"id":"GG2050-REPD-2525","properties":{"capacity_mw":1218.0,"gg_project_id":"GG2050-REPD-2525","name":"Hornsea 1 - Heron & Njord","operator":"Orsted (formerly Dong Energy)","repd_ref":"2525","repd_technology":"Wind Offshore","status":"Operational","technology":"wind_offshore"},"type":"Feature"},{"geometry":{"coordinates":[-4.5671893,51.3694002],"type":"Point"},"id":"GG2050-REPD-2508","properties":{"capacity_mw":1200.0,"gg_project_id":"GG2050-REPD-2508","name":"Atlantic Array One - Bristol Channel Zone","operator":"Npower","repd_ref":"2508","repd_technology":"Wind Offshore","status":"Application Withdrawn","technology":"wind_offshore"},"type":"Feature"},{"geometry":{"coordinates":[2.3299986,55.2099932],"type":"Point"},"id":"GG2050-REPD-2517","properties":{"capacity_mw":1200.0,"gg_project_id":"GG2050-REPD-2517","name":"Dogger Bank C (was Teesside A)","operator":"SSE/Equinor (formerly Statoil, formerly Forewind)","repd_ref":"2517","repd_technology":"Wind Offshore","status":"Under Construction","technology":"wind_offshore"},"type":"Feature"},{"geometry":{"coordinates":[-0.1800033,50.6399936],"type":"Point"},"id":"GG2050-REPD-7698","properties":{"capacity_mw":1200.0,"gg_project_id":"GG2050-REPD-7698","name":"Rampion Wind Farm (Extension), (Rampion 2)","operator":"RWE Renewables UK Limited","repd_ref":"7698","repd_technology":"Wind Offshore","status":"Awaiting Construction","technology":"wind_offshore"},"type":"Feature"},{"geometry":{"coordinates":[-3.6312625,57.7871926],"type":"Point"},"id":"GG2050-REPD-17559","properties":{"capacity_mw":1100.0,"gg_project_id":"GG2050-REPD-17559","name":"Moray Firth - Caledonia South Offshore Wind Farm","operator":"Ocean Winds","repd_ref":"17559","repd_technology":"Wind Offshore","status":"Application Submitted","technology":"wind_offshore"},"type":"Feature"},{"geometry":{"coordinates":[1.3517385,51.9636606],"type":"Point"},"id":"GG2050-REPD-9803","properties":{"capacity_mw":1080.0,"gg_project_id":"GG2050-REPD-9803","name":"Five Estuaries - Wind Farm","operator":"RWE Renewables","repd_ref":"9803","repd_technology":"Wind Offshore","status":"Awaiting Construction","technology":"wind_offshore"},"type":"Feature"},{"geometry":{"coordinates":[-2.2000047,56.4999955],"type":"Point"},"id":"GG2050-REPD-2527","properties":{"capacity_mw":1080.0,"gg_project_id":"GG2050-REPD-2527","name":"Inch Cape","operator":"Red Rock Power (ICOL)","repd_ref":"2527","repd_technology":"Wind Offshore","status":"Under Construction","technology":"wind_offshore"},"type":"Feature"},{"geometry":{"coordinates":[-1.9266208,56.6355131],"type":"Point"},"id":"GG2050-REPD-2540","properties":{"capacity_mw":1075.0,"gg_project_id":"GG2050-REPD-2540","name":"Seagreen","operator":"SSE / Seagreen Wind Energy Ltd","repd_ref":"2540","repd_technology":"Wind Offshore","status":"Operational","technology":"wind_offshore"},"type":"Feature"},{"geometry":{"coordinates":[-1.2257817,57.1408972],"type":"Point"},"id":"GG2050-REPD-13418","properties":{"capacity_mw":1000.0,"gg_project_id":"GG2050-REPD-13418","name":"Cluaran Ear-Thuath / Bowdun Wind Farm (Thistle North East) (E3)","operator":"Thistle Wind Partners","repd_ref":"13418","repd_technology":"Wind Offshore","status":"Application Submitted","technology":"wind_offshore"},"type":"Feature"},{"geometry":{"coordinates":[-1.8390082,50.3929991],"type":"Point"},"id":"GG2050-REPD-2535","properties":{"capacity_mw":970.0,"gg_project_id":"GG2050-REPD-2535","name":"Navitus Bay","operator":"Eneco & EDF","repd_ref":"2535","repd_technology":"Wind Offshore","status":"Application Refused","technology":"wind_offshore"},"type":"Feature"},{"geometry":{"coordinates":[-2.790537,57.9673255],"type":"Point"},"id":"GG2050-REPD-2534","properties":{"capacity_mw":950.0,"gg_project_id":"GG2050-REPD-2534","name":"Moray East","operator":"Diamond Green Limited, CTG & Ocean Winds","repd_ref":"2534","repd_technology":"Wind Offshore","status":"Operational","technology":"wind_offshore"},"type":"Feature"},{"geometry":{"coordinates":[2.1687076,52.720989],"type":"Point"},"id":"GG2050-REPD-5867","properties":{"capacity_mw":900.0,"gg_project_id":"GG2050-REPD-5867","name":"East Anglia 2 (EA 2)","operator":"Scottish Power Renewables","repd_ref":"5867","repd_technology":"Wind Offshore","status":"Awaiting Construction","technology":"wind_offshore"},"type":"Feature"},{"geometry":{"coordinates":[-3.6312625,57.7871926],"type":"Point"},"id":"GG2050-REPD-12307","properties":{"capacity_mw":900.0,"gg_project_id":"GG2050-REPD-12307","name":"Moray Firth - Caledonia North Offshore Wind Farm","operator":"Ocean Winds","repd_ref":"12307","repd_technology":"Wind Offshore","status":"Application Submitted","technology":"wind_offshore"},"type":"Feature"},{"geometry":{"coordinates":[-3.3130665,58.0698888],"type":"Point"},"id":"GG2050-REPD-6158","properties":{"capacity_mw":882.0,"gg_project_id":"GG2050-REPD-6158","name":"Moray West Offshore Wind Farm Project","operator":"EDPR","repd_ref":"6158","repd_technology":"Wind Offshore","status":"Operational","technology":"wind_offshore"},"type":"Feature"},{"geometry":{"coordinates":[0.861639,53.2122723],"type":"Point"},"id":"GG2050-REPD-2532","properties":{"capacity_mw":857.0,"gg_project_id":"GG2050-REPD-2532","name":"Triton Knoll","operator":"Innogy","repd_ref":"2532","repd_technology":"Wind Offshore","status":"Operational","technology":"wind_offshore"},"type":"Feature"},{"geometry":{"coordinates":[2.1708996,52.1374391],"type":"Point"},"id":"GG2050-REPD-2471","properties":{"capacity_mw":800.0,"gg_project_id":"GG2050-REPD-2471","name":"East Anglia 1 North (EA 4)","operator":"Scottish Power Renewables","repd_ref":"2471","repd_technology":"Wind Offshore","status":"Awaiting Construction","technology":"wind_offshore"},"type":"Feature"},{"geometry":{"coordinates":[-3.8023026,53.46538],"type":"Point"},"id":"GG2050-REPD-7699","properties":{"capacity_mw":775.0,"gg_project_id":"GG2050-REPD-7699","name":"Awel y Mor Offshore Wind Farm","operator":"RWE Renewables","repd_ref":"7699","repd_technology":"Wind Offshore","status":"Awaiting Construction","technology":"wind_offshore"},"type":"Feature"},{"geometry":{"coordinates":[2.1708996,52.1374391],"type":"Point"},"id":"GG2050-REPD-2524","properties":{"capacity_mw":714.0,"gg_project_id":"GG2050-REPD-2524","name":"East Anglia 1 (EA 1)","operator":"Scottish Power Renewables","repd_ref":"2524","repd_technology":"Wind Offshore","status":"Operational","technology":"wind_offshore"},"type":"Feature"},{"geometry":{"coordinates":[-3.7400107,54.0899947],"type":"Point"},"id":"GG2050-REPD-2533","properties":{"capacity_mw":659.0,"gg_project_id":"GG2050-REPD-2533","name":"Walney 3","operator":"Orsted (formerly Dong Energy)","repd_ref":"2533","repd_technology":"Wind Offshore","status":"Operational","technology":"wind_offshore"},"type":"Feature"},{"geometry":{"coordinates":[1.4958316,51.6216793],"type":"Point"},"id":"GG2050-REPD-2511","properties":{"capacity_mw":630.0,"gg_project_id":"GG2050-REPD-2511","name":"London Array Phase 1","operator":"Siemens Gamesa Renewable Energy","repd_ref":"2511","repd_technology":"Wind Offshore","status":"Operational","technology":"wind_offshore"},"type":"Feature"},{"geometry":{"coordinates":[-2.9501573,58.0882303],"type":"Point"},"id":"GG2050-REPD-2521","properties":{"capacity_mw":588.0,"gg_project_id":"GG2050-REPD-2521","name":"Beatrice","operator":"Scottish & Southern Energy (SSE) / Repsol / CIP","repd_ref":"2521","repd_technology":"Wind Offshore","status":"Operational","technology":"wind_offshore"},"type":"Feature"},{"geometry":{"coordinates":[-3.6266487,53.4540034],"type":"Point"},"id":"GG2050-REPD-2543","properties":{"capacity_mw":576.0,"gg_project_id":"GG2050-REPD-2543","name":"Gwynt y Mor","operator":"RWE","repd_ref":"2543","repd_technology":"Wind Offshore","status":"Operational","technology":"wind_offshore"},"type":"Feature"},{"geometry":{"coordinates":[-2.008727,57.154432],"type":"Point"},"id":"GG2050-REPD-11851","properties":{"capacity_mw":560.0,"gg_project_id":"GG2050-REPD-11851","name":"Green Volt - Offshore Wind Farm","operator":"Flotation Energy / Vårgrønn","repd_ref":"11851","repd_technology":"Wind Offshore","status":"Awaiting Construction","technology":"wind_offshore"},"type":"Feature"},{"geometry":{"coordinates":[0.8192854,53.1656252],"type":"Point"},"id":"GG2050-REPD-2516","properties":{"capacity_mw":540.0,"gg_project_id":"GG2050-REPD-2516","name":"Docking Shoal A","operator":"Centrica","repd_ref":"2516","repd_technology":"Wind Offshore","status":"Application Refused","technology":"wind_offshore"},"type":"Feature"},{"geometry":{"coordinates":[-1.9266208,56.6355131],"type":"Point"},"id":"GG2050-REPD-14144","properties":{"capacity_mw":540.0,"gg_project_id":"GG2050-REPD-14144","name":"Seagreen Phase 1A","operator":"SSE / Seagreen Wind Energy Ltd","repd_ref":"14144","repd_technology":"Wind Offshore","status":"Awaiting Construction","technology":"wind_offshore"},"type":"Feature"},{"geometry":{"coordinates":[1.9284202,51.9176447],"type":"Point"},"id":"GG2050-REPD-2510","properties":{"capacity_mw":504.0,"gg_project_id":"GG2050-REPD-2510","name":"Greater Gabbard Wind Farm","operator":"Airtricity / Fluor Ltd","repd_ref":"2510","repd_technology":"Wind Offshore","status":"Operational","technology":"wind_offshore"},"type":"Feature"},{"geometry":{"coordinates":[-2.2500012,56.2700004],"type":"Point"},"id":"GG2050-REPD-2522","properties":{"capacity_mw":450.0,"gg_project_id":"GG2050-REPD-2522","name":"Neart na Gaoithe","operator":"EDF Renewables Power","repd_ref":"2522","repd_technology":"Wind Offshore","status":"Operational","technology":"wind_offshore"},"type":"Feature"},{"geometry":{"coordinates":[0.6134682,53.1174601],"type":"Point"},"id":"GG2050-REPD-2538","properties":{"capacity_mw":402.0,"gg_project_id":"GG2050-REPD-2538","name":"Dudgeon East","operator":"Statoil / Statkraft","repd_ref":"2538","repd_technology":"Wind Offshore","status":"Operational","technology":"wind_offshore"},"type":"Feature"},{"geometry":{"coordinates":[1.1842651,53.1493425],"type":"Point"},"id":"GG2050-REPD-7692","properties":{"capacity_mw":402.0,"gg_project_id":"GG2050-REPD-7692","name":"Dudgeon Extension Project","operator":"Equinor","repd_ref":"7692","repd_technology":"Wind Offshore","status":"Awaiting Construction","technology":"wind_offshore"},"type":"Feature"},{"geometry":{"coordinates":[-0.1800033,50.6399936],"type":"Point"},"id":"GG2050-REPD-2520","properties":{"capacity_mw":400.0,"gg_project_id":"GG2050-REPD-2520","name":"Rampion Offshore Wind Farm (Hastings Zone)","operator":"E.ON UK","repd_ref":"2520","repd_technology":"Wind Offshore","status":"Operational","technology":"wind_offshore"},"type":"Feature"},{"geometry":{"coordinates":[-3.4620071,53.9851498],"type":"Point"},"id":"GG2050-REPD-2519","properties":{"capacity_mw":389.0,"gg_project_id":"GG2050-REPD-2519","name":"West of Duddon Sands","operator":"Scottish Power Renewables & Orsted (formerly Dong Energy)","repd_ref":"2519","repd_technology":"Wind Offshore","status":"Operational","technology":"wind_offshore"},"type":"Feature"},{"geometry":{"coordinates":[2.0399934,51.8799917],"type":"Point"},"id":"GG2050-REPD-2526","properties":{"capacity_mw":353.0,"gg_project_id":"GG2050-REPD-2526","name":"Galloper Wind Farm","operator":"RWE Npower Renewables","repd_ref":"2526","repd_technology":"Wind Offshore","status":"Operational","technology":"wind_offshore"},"type":"Feature"},{"geometry":{"coordinates":[1.5926746,51.4206194],"type":"Point"},"id":"GG2050-REPD-6299","properties":{"capacity_mw":340.0,"gg_project_id":"GG2050-REPD-6299","name":"Thanet (extension)","operator":"Vattenfall","repd_ref":"6299","repd_technology":"Wind Offshore","status":"Application Refused","technology":"wind_offshore"},"type":"Feature"},{"geometry":{"coordinates":[1.1842651,53.1493425],"type":"Point"},"id":"GG2050-REPD-7691","properties":{"capacity_mw":317.0,"gg_project_id":"GG2050-REPD-7691","name":"Sheringham Extension Project","operator":"Equinor","repd_ref":"7691","repd_technology":"Wind Offshore","status":"Awaiting Construction","technology":"wind_offshore"},"type":"Feature"},{"geometry":{"coordinates":[1.1479218,53.1353186],"type":"Point"},"id":"GG2050-REPD-2512","properties":{"capacity_mw":317.0,"gg_project_id":"GG2050-REPD-2512","name":"Sheringham Shoal","operator":"Equinor","repd_ref":"2512","repd_technology":"Wind Offshore","status":"Operational","technology":"wind_offshore"},"type":"Feature"},{"geometry":{"coordinates":[1.6334113,51.4299321],"type":"Point"},"id":"GG2050-REPD-2499","properties":{"capacity_mw":300.0,"gg_project_id":"GG2050-REPD-2499","name":"Thanet","operator":"Vattenfall","repd_ref":"2499","repd_technology":"Wind Offshore","status":"Operational","technology":"wind_offshore"},"type":"Feature"},{"geometry":{"coordinates":[0.5891743,53.1359742],"type":"Point"},"id":"GG2050-REPD-2515","properties":{"capacity_mw":289.8,"gg_project_id":"GG2050-REPD-2515","name":"Race Bank (Phase 1)","operator":"Orsted (formerly Dong Energy)/ Macquarie Group","repd_ref":"2515","repd_technology":"Wind Offshore","status":"Operational","technology":"wind_offshore"},"type":"Feature"},{"geometry":{"coordinates":[-3.1674457,53.8819155],"type":"Point"},"id":"GG2050-REPD-2475","properties":{"capacity_mw":284.0,"gg_project_id":"GG2050-REPD-2475","name":"Cirrus Shell Flat Array","operator":"Celtpower","repd_ref":"2475","repd_technology":"Wind Offshore","status":"Application Withdrawn","technology":"wind_offshore"},"type":"Feature"},{"geometry":{"coordinates":[0.5891743,53.1359742],"type":"Point"},"id":"GG2050-REPD-6501","properties":{"capacity_mw":283.5,"gg_project_id":"GG2050-REPD-6501","name":"Race Bank (Phase 2)","operator":"Orsted (formerly Dong Energy)/ Macquarie Group","repd_ref":"6501","repd_technology":"Wind Offshore","status":"Operational","technology":"wind_offshore"},"type":"Feature"},{"geometry":{"coordinates":[0.498077,53.1841724],"type":"Point"},"id":"GG2050-REPD-2513","properties":{"capacity_mw":270.0,"gg_project_id":"GG2050-REPD-2513","name":"Centrica (Lincs)","operator":"Ørsted","repd_ref":"2513","repd_technology":"Wind Offshore","status":"Operational","technology":"wind_offshore"},"type":"Feature"},{"geometry":{"coordinates":[-3.2700001,53.4799919],"type":"Point"},"id":"GG2050-REPD-2539","properties":{"capacity_mw":258.0,"gg_project_id":"GG2050-REPD-2539","name":"Burbo Bank Extension (Burbo Bank 2)","operator":"Orsted (formerly Dong Energy)","repd_ref":"2539","repd_technology":"Wind Offshore","status":"Operational","technology":"wind_offshore"},"type":"Feature"},{"geometry":{"coordinates":[1.0407684,51.4715801],"type":"Point"},"id":"GG2050-REPD-2507","properties":{"capacity_mw":240.0,"gg_project_id":"GG2050-REPD-2507","name":"London Array Phase 2","operator":"London Array Ltd","repd_ref":"2507","repd_technology":"Wind Offshore","status":"Abandoned","technology":"wind_offshore"},"type":"Feature"},{"geometry":{"coordinates":[0.5006435,53.3874628],"type":"Point"},"id":"GG2050-REPD-2544","properties":{"capacity_mw":219.0,"gg_project_id":"GG2050-REPD-2544","name":"Humber Gateway A","operator":"E.ON Humber Wind Ltd/ Balfour Beatty Investments and Equitix.","repd_ref":"2544","repd_technology":"Wind Offshore","status":"Operational","technology":"wind_offshore"},"type":"Feature"},{"geometry":{"coordinates":[0.5614813,53.0977302],"type":"Point"},"id":"GG2050-REPD-2545","properties":{"capacity_mw":210.0,"gg_project_id":"GG2050-REPD-2545","name":"Westermost Rough A","operator":"Orsted (formerly Dong Energy)","repd_ref":"2545","repd_technology":"Wind Offshore","status":"Operational","technology":"wind_offshore"},"type":"Feature"},{"geometry":{"coordinates":[-3.5157889,54.0394486],"type":"Point"},"id":"GG2050-REPD-2500","properties":{"capacity_mw":183.6,"gg_project_id":"GG2050-REPD-2500","name":"Walney 1","operator":"Orsted (formerly Dong Energy)","repd_ref":"2500","repd_technology":"Wind Offshore","status":"Operational","technology":"wind_offshore"},"type":"Feature"},{"geometry":{"coordinates":[-3.6089669,54.080736],"type":"Point"},"id":"GG2050-REPD-2506","properties":{"capacity_mw":183.6,"gg_project_id":"GG2050-REPD-2506","name":"Walney 2","operator":"Orsted (formerly Dong Energy)","repd_ref":"2506","repd_technology":"Wind Offshore","status":"Operational","technology":"wind_offshore"},"type":"Feature"},{"geometry":{"coordinates":[-3.4385903,54.0888718],"type":"Point"},"id":"GG2050-REPD-2509","properties":{"capacity_mw":150.0,"gg_project_id":"GG2050-REPD-2509","name":"Ormonde Offshore","operator":"Vattenfall","repd_ref":"2509","repd_technology":"Wind Offshore","status":"Operational","technology":"wind_offshore"},"type":"Feature"},{"geometry":{"coordinates":[1.4392996,53.007232],"type":"Point"},"id":"GG2050-REPD-2476","properties":{"capacity_mw":108.0,"gg_project_id":"GG2050-REPD-2476","name":"Cromer","operator":"EDF","repd_ref":"2476","repd_technology":"Wind Offshore","status":"Abandoned","technology":"wind_offshore"},"type":"Feature"},{"geometry":{"coordinates":[1.218012,51.7308179],"type":"Point"},"id":"GG2050-REPD-2490","properties":{"capacity_mw":108.0,"gg_project_id":"GG2050-REPD-2490","name":"Gunfleet Sands Offshore Wind Scheme","operator":"Orsted (formerly Dong Energy)","repd_ref":"2490","repd_technology":"Wind Offshore","status":"Operational","technology":"wind_offshore"},"type":"Feature"},{"geometry":{"coordinates":[-3.8368052,51.4282766],"type":"Point"},"id":"GG2050-REPD-2477","properties":{"capacity_mw":108.0,"gg_project_id":"GG2050-REPD-2477","name":"Scarweather Sands","operator":"E.On / Energie 2","repd_ref":"2477","repd_technology":"Wind Offshore","status":"Application Withdrawn","technology":"wind_offshore"},"type":"Feature"},{"geometry":{"coordinates":[-4.9364853,51.6089757],"type":"Point"},"id":"GG2050-REPD-7861","properties":{"capacity_mw":100.0,"gg_project_id":"GG2050-REPD-7861","name":"Erebus - Floating Offshore Wind Demonstration Project","operator":"Simply Blue Energy","repd_ref":"7861","repd_technology":"Wind Offshore","status":"Awaiting Construction","technology":"wind_offshore"},"type":"Feature"},{"geometry":{"coordinates":[-3.5238299,58.5964542],"type":"Point"},"id":"GG2050-REPD-11989","properties":{"capacity_mw":100.0,"gg_project_id":"GG2050-REPD-11989","name":"Pentland Floating Offshore Wind Farm","operator":"Highland Wind Limited / Copenhagen Infrastructure Partners / Eurus Energy","repd_ref":"11989","repd_technology":"Wind Offshore","status":"Awaiting Construction","technology":"wind_offshore"},"type":"Feature"},{"geometry":{"coordinates":[-0.6703392,57.6078757],"type":"Point"},"id":"GG2050-REPD-11035","properties":{"capacity_mw":100.0,"gg_project_id":"GG2050-REPD-11035","name":"Peterhead - The Salamander Project","operator":"Orsted / Simply Blue Group","repd_ref":"11035","repd_technology":"Wind Offshore","status":"Application Submitted","technology":"wind_offshore"},"type":"Feature"},{"geometry":{"coordinates":[-4.1680464,51.0688752],"type":"Point"},"id":"GG2050-REPD-11852","properties":{"capacity_mw":100.0,"gg_project_id":"GG2050-REPD-11852","name":"Whitecross - Offshore Wind Farm","operator":"Flotation Energy / Cobra Instalaciones Servicios","repd_ref":"11852","repd_technology":"Wind Offshore","status":"Awaiting Construction","technology":"wind_offshore"},"type":"Feature"},{"geometry":{"coordinates":[0.4465185,53.1879672],"type":"Point"},"id":"GG2050-REPD-2491","properties":{"capacity_mw":97.2,"gg_project_id":"GG2050-REPD-2491","name":"Inner Dowsing","operator":"XceCo","repd_ref":"2491","repd_technology":"Wind Offshore","status":"Operational","technology":"wind_offshore"},"type":"Feature"},{"geometry":{"coordinates":[0.451527,53.1356341],"type":"Point"},"id":"GG2050-REPD-2493","properties":{"capacity_mw":97.2,"gg_project_id":"GG2050-REPD-2493","name":"Lynn","operator":"XceCo","repd_ref":"2493","repd_technology":"Wind Offshore","status":"Operational","technology":"wind_offshore"},"type":"Feature"},{"geometry":{"coordinates":[-2.0728123,57.1462006],"type":"Point"},"id":"GG2050-REPD-2505","properties":{"capacity_mw":96.8,"gg_project_id":"GG2050-REPD-2505","name":"European Offshore Wind Deployment Centre (EOWDC) (Aberdeen Bay - Demonstration site)","operator":"Vattenfall","repd_ref":"2505","repd_technology":"Wind Offshore","status":"Operational","technology":"wind_offshore"},"type":"Feature"},{"geometry":{"coordinates":[-3.2982844,53.9914618],"type":"Point"},"id":"GG2050-REPD-2546","properties":{"capacity_mw":90.0,"gg_project_id":"GG2050-REPD-2546","name":"Barrow","operator":"Orsted (formerly Dong Energy)","repd_ref":"2546","repd_technology":"Wind Offshore","status":"Operational","technology":"wind_offshore"},"type":"Feature"},{"geometry":{"coordinates":[-3.1849226,53.488183],"type":"Point"},"id":"GG2050-REPD-2487","properties":{"capacity_mw":90.0,"gg_project_id":"GG2050-REPD-2487","name":"Burbo Bank","operator":"Orsted (formerly Dong Energy)","repd_ref":"2487","repd_technology":"Wind Offshore","status":"Operational","technology":"wind_offshore"},"type":"Feature"},{"geometry":{"coordinates":[1.0938168,51.4606123],"type":"Point"},"id":"GG2050-REPD-2492","properties":{"capacity_mw":90.0,"gg_project_id":"GG2050-REPD-2492","name":"Kentish Flats","operator":"Vattenfall","repd_ref":"2492","repd_technology":"Wind Offshore","status":"Operational","technology":"wind_offshore"},"type":"Feature"},{"geometry":{"coordinates":[-3.6401508,53.377587],"type":"Point"},"id":"GG2050-REPD-2495","properties":{"capacity_mw":90.0,"gg_project_id":"GG2050-REPD-2495","name":"Rhyl Flats","operator":"RWE Npower","repd_ref":"2495","repd_technology":"Wind Offshore","status":"Operational","technology":"wind_offshore"},"type":"Feature"},{"geometry":{"coordinates":[-3.7293058,54.7473047],"type":"Point"},"id":"GG2050-REPD-2497","properties":{"capacity_mw":90.0,"gg_project_id":"GG2050-REPD-2497","name":"Robin Rigg West","operator":"E.ON UK","repd_ref":"2497","repd_technology":"Wind Offshore","status":"Operational","technology":"wind_offshore"},"type":"Feature"},{"geometry":{"coordinates":[-3.6955194,54.7641937],"type":"Point"},"id":"GG2050-REPD-2496","properties":{"capacity_mw":84.0,"gg_project_id":"GG2050-REPD-2496","name":"Robin Rigg East","operator":"E.ON UK","repd_ref":"2496","repd_technology":"Wind Offshore","status":"Operational","technology":"wind_offshore"},"type":"Feature"},{"geometry":{"coordinates":[1.2459247,51.7271893],"type":"Point"},"id":"GG2050-REPD-2489","properties":{"capacity_mw":64.8,"gg_project_id":"GG2050-REPD-2489","name":"Gunfleet Sands II","operator":"Orsted (formerly Dong Energy)","repd_ref":"2489","repd_technology":"Wind Offshore","status":"Operational","technology":"wind_offshore"},"type":"Feature"},{"geometry":{"coordinates":[-1.0954641,54.6452957],"type":"Point"},"id":"GG2050-REPD-2514","properties":{"capacity_mw":62.0,"gg_project_id":"GG2050-REPD-2514","name":"Teeside Offshore Wind Farm","operator":"EDF Energy - Northern Offshore Windfarm Ltd","repd_ref":"2514","repd_technology":"Wind Offshore","status":"Operational","technology":"wind_offshore"},"type":"Feature"},{"geometry":{"coordinates":[-3.4485735,53.4172463],"type":"Point"},"id":"GG2050-REPD-2494","properties":{"capacity_mw":60.0,"gg_project_id":"GG2050-REPD-2494","name":"North Hoyle","operator":"Greencoat (formerly Npower Renewables)","repd_ref":"2494","repd_technology":"Wind Offshore","status":"Operational","technology":"wind_offshore"},"type":"Feature"},{"geometry":{"coordinates":[1.7889032,52.6439461],"type":"Point"},"id":"GG2050-REPD-2498","properties":{"capacity_mw":60.0,"gg_project_id":"GG2050-REPD-2498","name":"Scroby Sands","operator":"E.ON UK","repd_ref":"2498","repd_technology":"Wind Offshore","status":"Operational","technology":"wind_offshore"},"type":"Feature"},{"geometry":{"coordinates":[-1.3643599,55.1669535],"type":"Point"},"id":"GG2050-REPD-11106","properties":{"capacity_mw":58.4,"gg_project_id":"GG2050-REPD-11106","name":"Blyth Offshore Wind Farm Phase 2 Demonstrator Project","operator":"EDF Energy Renewables","repd_ref":"11106","repd_technology":"Wind Offshore","status":"Awaiting Construction","technology":"wind_offshore"},"type":"Feature"},{"geometry":{"coordinates":[1.079999,51.4499942],"type":"Point"},"id":"GG2050-REPD-2504","properties":{"capacity_mw":49.5,"gg_project_id":"GG2050-REPD-2504","name":"Kentish Flats 2","operator":"Vattenfall","repd_ref":"2504","repd_technology":"Wind Offshore","status":"Operational","technology":"wind_offshore"},"type":"Feature"},{"geometry":{"coordinates":[-1.8738011,56.9972813],"type":"Point"},"id":"GG2050-REPD-6136","properties":{"capacity_mw":49.5,"gg_project_id":"GG2050-REPD-6136","name":"Kincardine Offshore Windfarm","operator":"Grupo Cobra","repd_ref":"6136","repd_technology":"Wind Offshore","status":"Operational","technology":"wind_offshore"},"type":"Feature"},{"geometry":{"coordinates":[-1.3643599,55.1669535],"type":"Point"},"id":"GG2050-REPD-2523","properties":{"capacity_mw":41.5,"gg_project_id":"GG2050-REPD-2523","name":"Blyth Offshore Wind Test Site","operator":"EDF Energy Renewables","repd_ref":"2523","repd_technology":"Wind Offshore","status":"Operational","technology":"wind_offshore"},"type":"Feature"},{"geometry":{"coordinates":[-5.4305153,50.1930185],"type":"Point"},"id":"GG2050-REPD-6810","properties":{"capacity_mw":32.0,"gg_project_id":"GG2050-REPD-6810","name":"TwinHub (previously called Wave Hub Floating Wind)","operator":"Hexicon","repd_ref":"6810","repd_technology":"Wind Offshore","status":"Awaiting Construction","technology":"wind_offshore"},"type":"Feature"},{"geometry":{"coordinates":[-1.4425754,57.507464],"type":"Point"},"id":"GG2050-REPD-2479","properties":{"capacity_mw":30.0,"gg_project_id":"GG2050-REPD-2479","name":"Hywind Scotland Pilot Park (Hywind 2) Demonstrator","operator":"Statoil","repd_ref":"2479","repd_technology":"Wind Offshore","status":"Operational","technology":"wind_offshore"},"type":"Feature"},{"geometry":{"coordinates":[-2.9974108,56.1551533],"type":"Point"},"id":"GG2050-REPD-14484","properties":{"capacity_mw":20.0,"gg_project_id":"GG2050-REPD-14484","name":"Forthwind","operator":"Cierco","repd_ref":"14484","repd_technology":"Wind Offshore","status":"Awaiting Construction","technology":"wind_offshore"},"type":"Feature"},{"geometry":{"coordinates":[1.1919058,51.7030094],"type":"Point"},"id":"GG2050-REPD-2488","properties":{"capacity_mw":12.0,"gg_project_id":"GG2050-REPD-2488","name":"Gunfleet Sands - (Demo) Extension","operator":"Orsted (formerly Dong Energy)","repd_ref":"2488","repd_technology":"Wind Offshore","status":"Operational","technology":"wind_offshore"},"type":"Feature"},{"geometry":{"coordinates":[-2.8884311,58.2528132],"type":"Point"},"id":"GG2050-REPD-2485","properties":{"capacity_mw":10.0,"gg_project_id":"GG2050-REPD-2485","name":"Beatrice Demonstrator","operator":"Talisman Energy","repd_ref":"2485","repd_technology":"Wind Offshore","status":"Operational","technology":"wind_offshore"},"type":"Feature"},{"geometry":{"coordinates":[-3.8768048,58.6983512],"type":"Point"},"id":"GG2050-REPD-6264","properties":{"capacity_mw":10.0,"gg_project_id":"GG2050-REPD-6264","name":"Dounreay Trì Floating Wind Demonstration","operator":"Hexicon AB/ Dounreay Tri","repd_ref":"6264","repd_technology":"Wind Offshore","status":"Under Construction","technology":"wind_offshore"},"type":"Feature"},{"geometry":{"coordinates":[-2.9579616,56.1606946],"type":"Point"},"id":"GG2050-REPD-2528","properties":{"capacity_mw":7.0,"gg_project_id":"GG2050-REPD-2528","name":"Levenmouth demonstration turbine (Fife Energy Park)","operator":"Catapult","repd_ref":"2528","repd_technology":"Wind Offshore","status":"Operational","technology":"wind_offshore"},"type":"Feature"},{"geometry":{"coordinates":[-1.4900682,55.1361195],"type":"Point"},"id":"GG2050-REPD-2486","properties":{"capacity_mw":4.0,"gg_project_id":"GG2050-REPD-2486","name":"Blyth Offshore","operator":"Blyth Harbor Wind Ltd","repd_ref":"2486","repd_technology":"Wind Offshore","status":"Decommissioned","technology":"wind_offshore"},"type":"Feature"},{"geometry":{"coordinates":[1.8764906,57.1914746],"type":"Point"},"id":"GG2050-REPD-14491","properties":{"capacity_mw":3.0,"gg_project_id":"GG2050-REPD-14491","name":"Culzean Floating Wind Pilot","operator":"TotalEnergies","repd_ref":"14491","repd_technology":"Wind Offshore","status":"Awaiting Construction","technology":"wind_offshore"},"type":"Feature"}],"partition":1,"release":"9.1","schema":"globalgrid2050.v9.atlas-projects.v9.1","technology":"wind_offshore","type":"FeatureCollection"}
