{
  "type": "FeatureCollection",
  "features": [
    {
      "type": "Feature",
      "id": 58,
      "geometry": {
        "type": "Polygon",
        "coordinates": [
          [
            [
              1.74293877600007,
              54.6421591050001
            ],
            [
              1.88686327300007,
              54.607937867
            ],
            [
              1.89541249900003,
              54.6058864170001
            ],
            [
              1.90661480300002,
              54.6031865750001
            ],
            [
              1.91715469600007,
              54.600646135
            ],
            [
              1.92696565800003,
              54.598281591
            ],
            [
              1.93405860000007,
              54.5965895250001
            ],
            [
              1.99957470900006,
              54.5813897140001
            ],
            [
              2.13489275300003,
              54.405509271
            ],
            [
              1.89988296600006,
              54.3599446900001
            ],
            [
              1.77996995100006,
              54.4991483330001
            ],
            [
              1.67293457400007,
              54.5169506880001
            ],
            [
              1.74293877600007,
              54.6421591050001
            ]
          ]
        ]
      },
      "properties": {
        "OBJECTID": 58,
        "Name_Prop": "R4 Project 2 (Dogger Bank South East)",
        "Name_Ten": "RWE Renewables",
        "Wind_Round": "4",
        "Lease_Stat": "Agreement / Option for Lease",
        "Inf_Status": "Government Support on Offer",
        "km2": 493.90805159353107,
        "ODP_Hyperlink": "https://opendata-thecrownestate.opendata.arcgis.com/datasets/22a1be6fb0c5416e9369f97743f387b1",
        "Shape__Area": 0.06848377849750165,
        "Shape__Length": 1.1607171746124962
      }
    }
  ]
}
