{"type":"FeatureCollection","crs":{"type":"name","properties":{"name":"EPSG:4326"}},"features":[{"type":"Feature","id":42,"geometry":{"type":"Polygon","coordinates":[[[-3.78725595599997,53.9429888450001],[-3.96914292799994,53.907718985],[-3.97844454899996,53.9114846240001],[-4.06542368799995,53.9516756470001],[-4.07361586499997,53.952204522],[-4.09819359099993,53.9537877860001],[-4.13002615199997,53.9687637000001],[-4.21346655199994,54.0079274880001],[-4.21285181499996,54.0083337990001],[-4.21284575399994,54.008337855],[-4.21284304599993,54.008339699],[-4.20898430999995,54.010981277],[-4.20897250299993,54.0109895530001],[-4.20896819799998,54.0109926050001],[-4.20519535699998,54.013667985],[-4.20518953599998,54.0136721630001],[-4.20518694299994,54.013674058],[-4.20149238899995,54.0163884340001],[-4.20077871399997,54.0169017040001],[-4.20077631999993,54.016903434],[-4.20077368799997,54.016905357],[-4.19707258699998,54.019624449],[-4.19706692299997,54.0196286610001],[-4.19706435099994,54.0196306080001],[-4.19422299599995,54.021794034],[-4.19348260299995,54.022357727],[-4.19022165699994,54.0239383540001],[-4.19021649599995,54.023940877],[-4.19021434899997,54.023941941],[-4.18983511299996,54.0241304670001],[-4.18703205599996,54.025523832],[-4.18702700399996,54.0255263670001],[-4.18621871099998,54.025935272],[-4.18563364699997,54.0262311970001],[-4.18563067199995,54.02623271],[-4.18562706399996,54.026234566],[-4.18311503899997,54.0275347400001],[-4.18158348099996,54.0283273520001],[-4.18118167799997,54.0285352860001],[-4.18117529399996,54.0285386260001],[-4.18117406199997,54.0285392800001],[-4.17885096999993,54.0297742060001],[-4.17820194099994,54.0301030570001],[-4.17789238699993,54.0302598870001],[-4.17788997299994,54.030261115],[-4.17788630199993,54.030263002],[-4.17344046699998,54.0325637620001],[-4.17343415199997,54.0325670650001],[-4.17343107699998,54.032568703],[-4.17343048899994,54.0325690170001],[-4.16905309599997,54.0349149100001],[-4.16904687899995,54.0349182790001],[-4.16904486099997,54.034919388],[-4.16609830899995,54.0365454490001],[-4.16609351799997,54.036548123],[-4.16609065799997,54.0365497350001],[-4.16467860599994,54.0373424090001],[-4.16467571099997,54.0373440430001],[-4.16467220399994,54.0373460440001],[-4.16043880399997,54.0397783440001],[-4.16042606499997,54.0397857510001],[-4.15626174999994,54.0422628420001],[-4.15625583999997,54.042266397],[-4.15625246199994,54.042268463],[-4.15216166799996,54.0447878320001],[-4.15215585999994,54.0447914490001],[-4.15215254199995,54.044793552],[-4.14813663499996,54.0473544320001],[-4.14813093899994,54.0473581050001],[-4.14812767899997,54.0473602440001],[-4.14653676599994,54.048410844],[-4.14419103099993,54.0499597510001],[-4.14418778299995,54.049961888],[-4.14418219399994,54.0499656210001],[-4.14417900299998,54.0499677880001],[-4.14227967399995,54.051266748],[-4.14031639299998,54.0526093010001],[-4.14031090699996,54.052613093],[-4.14030778599994,54.0526152910001],[-4.13652357299998,54.0552959730001],[-4.13651820299998,54.055299819],[-4.13651513399998,54.0553020580001],[-4.13281062199997,54.0580211380001],[-4.13280537699995,54.0580250310001],[-4.13280238299996,54.0580272940001],[-4.12917855799998,54.0607838290001],[-4.12917342099996,54.060787781],[-4.12917049499993,54.0607900730001],[-4.12577056499993,54.06347127],[-4.12562849799997,54.0635832950001],[-4.12562347499994,54.0635873000001],[-4.12562061599994,54.063589624],[-4.12216158799993,54.066418673],[-4.12215668799996,54.0664227280001],[-4.12215389799997,54.0664250790001],[-4.11877886199994,54.0692891100001],[-4.11877407999998,54.0692932160001],[-4.11877135999993,54.069295595],[-4.11548134099996,54.072193763],[-4.11547668199995,54.072197917],[-4.11547403799995,54.072200319],[-4.11227001299994,54.0751317080001],[-4.11226547299998,54.0751359130001],[-4.11226289399997,54.0751383480001],[-4.10914599899996,54.0781021010001],[-4.10913988399994,54.078108028],[-4.10754041199993,54.0796749470001],[-4.10619295999993,54.0808747730001],[-4.10619050399993,54.0808769750001],[-4.10618780099998,54.080879429],[-4.10298317499996,54.0838108120001],[-4.10297869199997,54.0838149640001],[-4.10297606199993,54.0838174460001],[-4.09985843199996,54.08678123],[-4.09985406899995,54.0867854270001],[-4.09985366999996,54.086785816],[-4.09872374599996,54.087889133],[-4.09757150999997,54.088955915],[-4.09756934199993,54.0889579350001],[-4.09756667599993,54.088960451],[-4.09592473199996,54.0905212810001],[-4.09444872499995,54.0919242080001],[-4.09444439199996,54.091928377],[-4.09444180699995,54.0919309130001],[-4.09442363799997,54.0919488750001],[-4.09263374499994,54.093718288],[-4.09262563599998,54.093726303],[-4.09262537899997,54.0937265570001],[-4.09235538199994,54.0939934460001],[-4.03050438499997,54.0969846130001],[-4.03042413599997,54.096780665],[-4.03041810199994,54.096766395],[-4.02945340599996,54.094634817],[-4.02945009099994,54.094627727],[-4.02944657999996,54.09462067],[-4.02836385799998,54.092508777],[-4.02835624899996,54.0924947680001],[-4.02715667399997,54.090404817],[-4.02714829099995,54.0903909630001],[-4.02583316599993,54.0883251870001],[-4.02582401799998,54.0883115020001],[-4.02439476399996,54.086272111],[-4.02438485799996,54.086258609],[-4.02284301999993,54.0842477830001],[-4.02283237099994,54.0842344770001],[-4.02117961399995,54.082254365],[-4.02116822899995,54.082241272],[-4.01940633299995,54.0802939880001],[-4.01939422699996,54.080281121],[-4.01752509099992,54.0783687480001],[-4.01751877299995,54.078362403],[-4.01751227699998,54.0783561200001],[-4.01553790999998,54.0764806990001],[-4.01552440199993,54.076468323],[-4.01344692799995,54.074631857],[-4.01343273999993,54.0746197490001],[-4.01125439199996,54.0728241990001],[-4.01123953999996,54.0728123700001],[-4.00896265399996,54.0710596540001],[-4.00894715199996,54.071048117],[-4.00657417299993,54.0693401070001],[-4.00655804099995,54.0693288730001],[-4.00409151599996,54.067667392],[-4.00407476699996,54.067656475],[-4.00151733699994,54.066043295],[-4.00149999099995,54.066032706],[-3.99885439599996,54.0644695500001],[-3.99884550399997,54.0644643810001],[-3.99883647099995,54.0644592990001],[-3.99610554399993,54.062947835],[-3.99608706199996,54.062937934],[-3.99327372799996,54.0614797750001],[-3.99325470399998,54.0614702350001],[-3.99036196999998,54.060066937],[-3.99034242699997,54.0600577690001],[-3.98737338799998,54.058710827],[-3.98735334899993,54.058702038],[-3.98647495299997,54.058329826],[-3.98586148399994,54.058069866],[-3.98431117899997,54.0574128910001],[-3.98429066199998,54.057404493],[-3.98347057999996,54.0570803860001],[-3.98117861199995,54.0561745160001],[-3.98115764099992,54.0561665160001],[-3.97797903599997,54.05499702],[-3.97795763099998,54.0549894280001],[-3.97471586599994,54.0538816600001],[-3.97470500999998,54.053878018],[-3.97469639099995,54.0538752260001],[-3.97210195399992,54.05304728],[-3.97209888199995,54.0530463040001],[-3.97209327599995,54.0530445530001],[-3.96929477599997,54.052178649],[-3.87303528399997,54.022332437],[-3.78954058199997,53.9963454800001],[-3.78837663699994,53.969181027],[-3.78763631399994,53.9518826],[-3.78752580199995,53.949298979],[-3.78725595599997,53.9429888450001]]]},"properties":{"OBJECTID":42,"Name_Prop":"R4 Project 6 (Morgan)","Name_Ten":"Morgan Offshore Wind Limited","Wind_Round":"4","Lease_Stat":"Agreement / Option for Lease","Inf_Status":"Consented","km2":322.4313358467363,"ODP_Hyperlink":"https://opendata-thecrownestate.opendata.arcgis.com/datasets/22a1be6fb0c5416e9369f97743f387b1","Shape__Area":0.044176721614505254,"Shape__Length":0.9824589805739432}}]}
